{"type":"FeatureCollection","features":[{"type":"Feature","geometry":{"type":"Point","coordinates":[-71.33890299999996,-17.644120999999927]},"properties":{"objectid":6673,"nombre":"C.S. JHON F. KENNEDY - ILO","departamento":"MOQUEGUA","provincia":"ILO","distrito":"ILO","institucion":"GOBIERNO REGIONAL","codigoMinsa":12046,"direccion":"OTROS JHON F. KENNEDY LOTE 25 MZ. N JHON F. KENNEDY LOTE 25 MZ. N ILO ILO MOQUEGUA","disa":"MOQUEGUA","red":"ILO","microrred":"ILO","categoria":"ESTABLECIMIENTO DE SALUD SIN INTERNAMIENTO","condicion":"ACTIVO","actualizado":"2023/08/01 19:00:00.000","fuente":"MINSA","urlRenipr":"http://app20.susalud.gob.pe:8080/registro-renipress-webapp/ipress.htm?action=mostrarVer&idipress=00012046"}},{"type":"Feature","geometry":{"type":"Point","coordinates":[-71.33163444999997,-17.65011674999994]},"properties":{"objectid":1090,"nombre":"POLICLINICO SERSIMED SEDE ILO","departamento":"MOQUEGUA","provincia":"ILO","distrito":"ILO","institucion":"PRIVADO","codigoMinsa":29951,"direccion":"URBANIZACIÓN LUIS ERNESTO VALCARCEL NÚMERO 53 PISO 1 MANZANA 53 LOTE 02 URBANIZACIÓN LUIS ERNESTO VALCARCEL DISTRITO ILO PROVINCIA ILO DEPARTAMENTO MOQUEGUA","disa":"MOQUEGUA","red":"","microrred":"","categoria":"ESTABLECIMIENTO DE SALUD SIN INTERNAMIENTO","condicion":"ACTIVO","actualizado":"2023/08/01 19:00:00.000","fuente":"MINSA","urlRenipr":"http://app20.susalud.gob.pe:8080/registro-renipress-webapp/ipress.htm?action=mostrarVer&idipress=00029951"}},{"type":"Feature","geometry":{"type":"Point","coordinates":[-71.21403020999998,-16.60660445999997]},"properties":{"objectid":6675,"nombre":"P.S. SANTA ROSA","departamento":"MOQUEGUA","provincia":"GENERAL SANCHEZ CERRO","distrito":"PUQUINA","institucion":"GOBIERNO REGIONAL","codigoMinsa":2845,"direccion":"AVENIDA AVENIDA RAMON CASTILLA S/N NÚMERO S/N DISTRITO PUQUINA PROVINCIA GENERAL SANCHEZ CERRO DEPARTAMENTO MOQUEGUA","disa":"MOQUEGUA","red":"MOQUEGUA","microrred":"OMATE","categoria":"ESTABLECIMIENTO DE SALUD SIN INTERNAMIENTO","condicion":"ACTIVO","actualizado":"2023/08/01 19:00:00.000","fuente":"MINSA","urlRenipr":"http://app20.susalud.gob.pe:8080/registro-renipress-webapp/ipress.htm?action=mostrarVer&idipress=00002845"}},{"type":"Feature","geometry":{"type":"Point","coordinates":[-70.97089177999999,-16.674631429999977]},"properties":{"objectid":373,"nombre":"CENTRO DE SALUD MENTAL COMUNITARIO OMATE","departamento":"MOQUEGUA","provincia":"GENERAL SANCHEZ CERRO","distrito":"OMATE","institucion":"GOBIERNO REGIONAL","codigoMinsa":28350,"direccion":"CALLE IGNACIO JOVE S/N COSTADO DEL CENTRO DE SALUD OMATE OMATE GENERAL SANCHEZ CERRO MOQUEGUA","disa":"MOQUEGUA","red":"MOQUEGUA","microrred":"OMATE","categoria":"ESTABLECIMIENTO DE SALUD SIN INTERNAMIENTO","condicion":"ACTIVO","actualizado":"2023/08/01 19:00:00.000","fuente":"MINSA","urlRenipr":"http://app20.susalud.gob.pe:8080/registro-renipress-webapp/ipress.htm?action=mostrarVer&idipress=00028350"}},{"type":"Feature","geometry":{"type":"Point","coordinates":[-70.68228684999997,-16.738277769999968]},"properties":{"objectid":375,"nombre":"P.S. CALACOA","departamento":"MOQUEGUA","provincia":"MARISCAL NIETO","distrito":"SAN CRISTOBAL","institucion":"GOBIERNO REGIONAL","codigoMinsa":2813,"direccion":"AVENIDA AVENIDA JOSE CARLOS MARIATEGUI S/N S/N AVENIDA JOSE CARLOS MARIATEGUI S/N SAN CRISTOBAL MARISCAL NIETO MOQUEGUA","disa":"MOQUEGUA","red":"MOQUEGUA","microrred":"CARUMAS","categoria":"ESTABLECIMIENTO DE SALUD SIN INTERNAMIENTO","condicion":"ACTIVO","actualizado":"2023/08/01 19:00:00.000","fuente":"MINSA","urlRenipr":"http://app20.susalud.gob.pe:8080/registro-renipress-webapp/ipress.htm?action=mostrarVer&idipress=00002813"}},{"type":"Feature","geometry":{"type":"Point","coordinates":[-70.83711044999995,-17.13034867999994]},"properties":{"objectid":376,"nombre":"P.S. TUMILACA","departamento":"MOQUEGUA","provincia":"MARISCAL NIETO","distrito":"SAMEGUA","institucion":"GOBIERNO REGIONAL","codigoMinsa":2833,"direccion":"OTROS ANEXO EL MOLINO S/N NÚMERO S/N DISTRITO SAMEGUA PROVINCIA MARISCAL NIETO DEPARTAMENTO MOQUEGUA","disa":"MOQUEGUA","red":"MOQUEGUA","microrred":"MOQUEGUA","categoria":"ESTABLECIMIENTO DE SALUD SIN INTERNAMIENTO","condicion":"ACTIVO","actualizado":"2023/08/01 19:00:00.000","fuente":"MINSA","urlRenipr":"http://app20.susalud.gob.pe:8080/registro-renipress-webapp/ipress.htm?action=mostrarVer&idipress=00002833"}},{"type":"Feature","geometry":{"type":"Point","coordinates":[-70.71159961999996,-16.674761389999958]},"properties":{"objectid":377,"nombre":"P.S. MUYLAQUE","departamento":"MOQUEGUA","provincia":"MARISCAL NIETO","distrito":"SAN CRISTOBAL","institucion":"GOBIERNO REGIONAL","codigoMinsa":2814,"direccion":"CALLE CALLE PRIMAVERA S/N NÚMERO S/N DISTRITO SAN CRISTOBAL PROVINCIA MARISCAL NIETO DEPARTAMENTO MOQUEGUA","disa":"MOQUEGUA","red":"MOQUEGUA","microrred":"CARUMAS","categoria":"ESTABLECIMIENTO DE SALUD SIN INTERNAMIENTO","condicion":"ACTIVO","actualizado":"2023/08/01 19:00:00.000","fuente":"MINSA","urlRenipr":"http://app20.susalud.gob.pe:8080/registro-renipress-webapp/ipress.htm?action=mostrarVer&idipress=00002814"}},{"type":"Feature","geometry":{"type":"Point","coordinates":[-70.92777258999996,-17.18706321999997]},"properties":{"objectid":28137,"nombre":"CLINICA IMED CARRION E.I.R.L","departamento":"MOQUEGUA","provincia":"MARISCAL NIETO","distrito":"MOQUEGUA","institucion":"PRIVADO","codigoMinsa":25608,"direccion":"AVENIDA BOLIVAR NÚMERO C5 URBANIZACIÓN EL GALLITO DISTRITO MOQUEGUA PROVINCIA MARISCAL NIETO DEPARTAMENTO MOQUEGUA","disa":"","red":"","microrred":"","categoria":"ESTABLECIMIENTO DE SALUD SIN INTERNAMIENTO","condicion":"RETIRO VOLUNTARIO","actualizado":"2023/08/01 19:00:00.000","fuente":"MINSA","urlRenipr":"http://app20.susalud.gob.pe:8080/registro-renipress-webapp/ipress.htm?action=mostrarVer&idipress=00025608"}},{"type":"Feature","geometry":{"type":"Point","coordinates":[-70.95344549999999,-17.19454561999993]},"properties":{"objectid":3700,"nombre":"HOSPITAL II MOQUEGUA","departamento":"MOQUEGUA","provincia":"MARISCAL NIETO","distrito":"MOQUEGUA","institucion":"ESSALUD","codigoMinsa":16157,"direccion":"OTROS URBANIZACION CAPILLUNE S/N SAN FRANCISCO S/N URBANIZACION CAPILLUNE S/N SAN FRANCISCO MOQUEGUA MARISCAL NIETO MOQUEGUA","disa":"MOQUEGUA","red":"NO PERTENECE A NINGUNA RED","microrred":"","categoria":"ESTABLECIMIENTO DE SALUD CON INTERNAMIENTO","condicion":"ACTIVO","actualizado":"2023/08/01 19:00:00.000","fuente":"MINSA","urlRenipr":"http://app20.susalud.gob.pe:8080/registro-renipress-webapp/ipress.htm?action=mostrarVer&idipress=00016157"}},{"type":"Feature","geometry":{"type":"Point","coordinates":[-70.84323295999997,-17.07602375999994]},"properties":{"objectid":1572,"nombre":"CENTRO DE ATENCION PRIMARIA II TORATA","departamento":"MOQUEGUA","provincia":"MARISCAL NIETO","distrito":"TORATA","institucion":"ESSALUD","codigoMinsa":16151,"direccion":"PASAJE PASAJE ALEGOMA 2 SECTOR EL MOGOTE ANEXO LA PASCANA DISTRITO TORATA PROVINCIA MARISCAL NIETO DEPARTAMENTO MOQUEGUA","disa":"MOQUEGUA","red":"MOQUEGUA","microrred":"","categoria":"ESTABLECIMIENTO DE SALUD SIN INTERNAMIENTO","condicion":"ACTIVO","actualizado":"2023/08/01 19:00:00.000","fuente":"MINSA","urlRenipr":"http://app20.susalud.gob.pe:8080/registro-renipress-webapp/ipress.htm?action=mostrarVer&idipress=00016151"}},{"type":"Feature","geometry":{"type":"Point","coordinates":[-70.93619942999999,-17.19575119999996]},"properties":{"objectid":1871,"nombre":"CENTRO MEDICO LA LUZ SAC","departamento":"MOQUEGUA","provincia":"MARISCAL NIETO","distrito":"MOQUEGUA","institucion":"PRIVADO","codigoMinsa":28724,"direccion":"CALLE JUNIN NÚMERO 360 PISO 1 DISTRITO MOQUEGUA PROVINCIA MARISCAL NIETO DEPARTAMENTO MOQUEGUA","disa":"MOQUEGUA","red":"NO PERTENECE A NINGUNA RED","microrred":"NO PERTENECE A NINGUNA MICRORED","categoria":"ESTABLECIMIENTO DE SALUD SIN INTERNAMIENTO","condicion":"ACTIVO","actualizado":"2023/08/01 19:00:00.000","fuente":"MINSA","urlRenipr":"http://app20.susalud.gob.pe:8080/registro-renipress-webapp/ipress.htm?action=mostrarVer&idipress=00028724"}},{"type":"Feature","geometry":{"type":"Point","coordinates":[-70.93040919999999,-17.187985689999948]},"properties":{"objectid":2483,"nombre":"POLICLINICO SANTA CATALINA SAC","departamento":"MOQUEGUA","provincia":"MARISCAL NIETO","distrito":"MOQUEGUA","institucion":"PRIVADO","codigoMinsa":17230,"direccion":"OTROS URB. SANTA CATALINA D-27 DISTRITO MOQUEGUA PROVINCIA MARISCAL NIETO DEPARTAMENTO MOQUEGUA","disa":"MOQUEGUA","red":"NO PERTENECE A NINGUNA RED","microrred":"NO PERTENECE A NINGUNA MICRORED","categoria":"ESTABLECIMIENTO DE SALUD SIN INTERNAMIENTO","condicion":"ACTIVO","actualizado":"2023/08/01 19:00:00.000","fuente":"MINSA","urlRenipr":"http://app20.susalud.gob.pe:8080/registro-renipress-webapp/ipress.htm?action=mostrarVer&idipress=00017230"}},{"type":"Feature","geometry":{"type":"Point","coordinates":[-70.93161999999995,-17.161729999999977]},"properties":{"objectid":2510,"nombre":"P.S. MERCADO CENTRAL","departamento":"MOQUEGUA","provincia":"MARISCAL NIETO","distrito":"MOQUEGUA","institucion":"GOBIERNO REGIONAL","codigoMinsa":2831,"direccion":"PASAJE PASAJE TORATA S/N S/N PASAJE TORATA S/N MOQUEGUA MARISCAL NIETO MOQUEGUA","disa":"","red":"","microrred":"","categoria":"ESTABLECIMIENTO DE SALUD SIN INTERNAMIENTO","condicion":"RETIRO VOLUNTARIO","actualizado":"2023/08/01 19:00:00.000","fuente":"MINSA","urlRenipr":"http://app20.susalud.gob.pe:8080/registro-renipress-webapp/ipress.htm?action=mostrarVer&idipress=00002831"}},{"type":"Feature","geometry":{"type":"Point","coordinates":[-70.92879718999995,-17.19284141999998]},"properties":{"objectid":2511,"nombre":"C.S. MARISCAL NIETO","departamento":"MOQUEGUA","provincia":"MARISCAL NIETO","distrito":"MOQUEGUA","institucion":"GOBIERNO REGIONAL","codigoMinsa":2825,"direccion":"CALLE CALLE ILO S/N PUEBLO JOVEN MARISCAL NIETO S/N CALLE ILO S/N PUEBLO JOVEN MARISCAL NIETO MOQUEGUA MARISCAL NIETO MOQUEGUA","disa":"MOQUEGUA","red":"MOQUEGUA","microrred":"MOQUEGUA","categoria":"ESTABLECIMIENTO DE SALUD SIN INTERNAMIENTO","condicion":"ACTIVO","actualizado":"2023/08/01 19:00:00.000","fuente":"MINSA","urlRenipr":"http://app20.susalud.gob.pe:8080/registro-renipress-webapp/ipress.htm?action=mostrarVer&idipress=00002825"}},{"type":"Feature","geometry":{"type":"Point","coordinates":[-70.93281379999996,-17.192736099999934]},"properties":{"objectid":2994,"nombre":"LABORATORIO CLINICO SU SALUD E.I.R.L.","departamento":"MOQUEGUA","provincia":"MARISCAL NIETO","distrito":"MOQUEGUA","institucion":"PRIVADO","codigoMinsa":16384,"direccion":"OTROS URBANIZACION HOSPITALARIA MZ. D LOTE 03 DISTRITO DE MOQUEGUA DISTRITO MOQUEGUA PROVINCIA MARISCAL NIETO DEPARTAMENTO MOQUEGUA","disa":"MOQUEGUA","red":"NO PERTENECE A NINGUNA RED","microrred":"NO PERTENECE A NINGUNA MICRORED","categoria":"SERVICIO MÉDICO DE APOYO","condicion":"ACTIVO","actualizado":"2023/08/01 19:00:00.000","fuente":"MINSA","urlRenipr":"http://app20.susalud.gob.pe:8080/registro-renipress-webapp/ipress.htm?action=mostrarVer&idipress=00016384"}},{"type":"Feature","geometry":{"type":"Point","coordinates":[-70.93279904999997,-17.192293079999956]},"properties":{"objectid":3277,"nombre":"CENTRO MEDICO GINECOLOGICO \"ECO ))) GINOBS\"","departamento":"MOQUEGUA","provincia":"MARISCAL NIETO","distrito":"MOQUEGUA","institucion":"PRIVADO","codigoMinsa":25788,"direccion":"CALLE Moquegua NÚMERO 862 PISO 1 DISTRITO MOQUEGUA PROVINCIA MARISCAL NIETO DEPARTAMENTO MOQUEGUA","disa":"MOQUEGUA","red":"NO PERTENECE A NINGUNA RED","microrred":"NO PERTENECE A NINGUNA MICRORED","categoria":"ESTABLECIMIENTO DE SALUD SIN INTERNAMIENTO","condicion":"ACTIVO","actualizado":"2023/08/01 19:00:00.000","fuente":"MINSA","urlRenipr":"http://app20.susalud.gob.pe:8080/registro-renipress-webapp/ipress.htm?action=mostrarVer&idipress=00025788"}},{"type":"Feature","geometry":{"type":"Point","coordinates":[-70.90776819999996,-17.186609499999975]},"properties":{"objectid":4086,"nombre":"POSTA MEDICA PNP MOQUEGUA","departamento":"MOQUEGUA","provincia":"MARISCAL NIETO","distrito":"SAMEGUA","institucion":"SANIDAD DE LA POLICIA NACIONAL DEL PERU","codigoMinsa":15236,"direccion":"AVENIDA AV. ANDRES AVELINO CACERES S/N S/N AV. ANDRES AVELINO CACERES S/N SAMEGUA MARISCAL NIETO MOQUEGUA","disa":"MOQUEGUA","red":"NO PERTENECE A NINGUNA RED","microrred":"NO PERTENECE A NINGUNA MICRORED","categoria":"ESTABLECIMIENTO DE SALUD SIN INTERNAMIENTO","condicion":"ACTIVO","actualizado":"2023/08/01 19:00:00.000","fuente":"MINSA","urlRenipr":"http://app20.susalud.gob.pe:8080/registro-renipress-webapp/ipress.htm?action=mostrarVer&idipress=00015236"}},{"type":"Feature","geometry":{"type":"Point","coordinates":[-71.36761999999999,-17.691493799999932]},"properties":{"objectid":4205,"nombre":"AGRUPAMIENTO DE COHETES ANTIAEREO \"CRL JOSE GALVEZ\"","departamento":"MOQUEGUA","provincia":"ILO","distrito":"ILO","institucion":"SANIDAD DEL EJERCITO DEL PERU","codigoMinsa":28386,"direccion":"CARRETERA COSTANERA PUNTA COLES KILOMETRO 15 DISTRITO ILO PROVINCIA ILO DEPARTAMENTO MOQUEGUA","disa":"MOQUEGUA","red":"NO PERTENECE A NINGUNA RED","microrred":"NO PERTENECE A NINGUNA MICRORED","categoria":"ESTABLECIMIENTO DE SALUD SIN INTERNAMIENTO","condicion":"ACTIVO","actualizado":"2023/08/01 19:00:00.000","fuente":"MINSA","urlRenipr":"http://app20.susalud.gob.pe:8080/registro-renipress-webapp/ipress.htm?action=mostrarVer&idipress=00028386"}},{"type":"Feature","geometry":{"type":"Point","coordinates":[-70.94694233999996,-17.211407319999978]},"properties":{"objectid":4623,"nombre":"CENTRO DE SALUD MENTAL COMUNITARIO MARIANO LINO URQUIETA","departamento":"MOQUEGUA","provincia":"MARISCAL NIETO","distrito":"MOQUEGUA","institucion":"GOBIERNO REGIONAL","codigoMinsa":29503,"direccion":"AVENIDA SAN ANTONIO SUR S/N COSTADO DE LA GERENCIA REGIONAL DE COMERCIO EXTERIOR Y TURISMO MOQUEGUA MOQUEGUA MARISCAL NIETO MOQUEGUA","disa":"MOQUEGUA","red":"MOQUEGUA","microrred":"MOQUEGUA","categoria":"ESTABLECIMIENTO DE SALUD SIN INTERNAMIENTO","condicion":"ACTIVO","actualizado":"2023/08/01 19:00:00.000","fuente":"MINSA","urlRenipr":"http://app20.susalud.gob.pe:8080/registro-renipress-webapp/ipress.htm?action=mostrarVer&idipress=00029503"}},{"type":"Feature","geometry":{"type":"Point","coordinates":[-70.75790250999995,-16.283295849999945]},"properties":{"objectid":4624,"nombre":"P.S. YALAGUA","departamento":"MOQUEGUA","provincia":"GENERAL SANCHEZ CERRO","distrito":"UBINAS","institucion":"GOBIERNO REGIONAL","codigoMinsa":2858,"direccion":"CALLE CALLE AREQUIPA S/N NÚMERO S/N DISTRITO UBINAS PROVINCIA GENERAL SANCHEZ CERRO DEPARTAMENTO MOQUEGUA","disa":"MOQUEGUA","red":"MOQUEGUA","microrred":"ICHUÑA","categoria":"ESTABLECIMIENTO DE SALUD SIN INTERNAMIENTO","condicion":"ACTIVO","actualizado":"2023/08/01 19:00:00.000","fuente":"MINSA","urlRenipr":"http://app20.susalud.gob.pe:8080/registro-renipress-webapp/ipress.htm?action=mostrarVer&idipress=00002858"}},{"type":"Feature","geometry":{"type":"Point","coordinates":[-70.90731999999997,-17.169289999999933]},"properties":{"objectid":4625,"nombre":"P.S. LOS ANGELES","departamento":"MOQUEGUA","provincia":"MARISCAL NIETO","distrito":"MOQUEGUA","institucion":"GOBIERNO REGIONAL","codigoMinsa":2827,"direccion":"CALLE CALLE SAN MARTIN S/N S/N CALLE SAN MARTIN S/N MOQUEGUA MARISCAL NIETO MOQUEGUA","disa":"MOQUEGUA","red":"MOQUEGUA","microrred":"MOQUEGUA","categoria":"ESTABLECIMIENTO DE SALUD SIN INTERNAMIENTO","condicion":"ACTIVO","actualizado":"2023/08/01 19:00:00.000","fuente":"MINSA","urlRenipr":"http://app20.susalud.gob.pe:8080/registro-renipress-webapp/ipress.htm?action=mostrarVer&idipress=00002827"}},{"type":"Feature","geometry":{"type":"Point","coordinates":[-70.49479737999997,-16.28997049999998]},"properties":{"objectid":4627,"nombre":"P.S. CHAJE","departamento":"MOQUEGUA","provincia":"GENERAL SANCHEZ CERRO","distrito":"ICHUÑA","institucion":"GOBIERNO REGIONAL","codigoMinsa":2851,"direccion":"OTROS CHAJE S/N NÚMERO S/N DISTRITO ICHUÑA PROVINCIA GENERAL SANCHEZ CERRO DEPARTAMENTO MOQUEGUA","disa":"MOQUEGUA","red":"MOQUEGUA","microrred":"ICHUÑA","categoria":"ESTABLECIMIENTO DE SALUD SIN INTERNAMIENTO","condicion":"ACTIVO","actualizado":"2023/08/01 19:00:00.000","fuente":"MINSA","urlRenipr":"http://app20.susalud.gob.pe:8080/registro-renipress-webapp/ipress.htm?action=mostrarVer&idipress=00002851"}},{"type":"Feature","geometry":{"type":"Point","coordinates":[-71.18013266999998,-16.75158523999994]},"properties":{"objectid":4628,"nombre":"P.S. LA CAPILLA","departamento":"MOQUEGUA","provincia":"GENERAL SANCHEZ CERRO","distrito":"LA CAPILLA","institucion":"GOBIERNO REGIONAL","codigoMinsa":2839,"direccion":"OTROS CURUYO S/N S/N CURUYO S/N LA CAPILLA GENERAL SANCHEZ CERRO MOQUEGUA","disa":"MOQUEGUA","red":"MOQUEGUA","microrred":"OMATE","categoria":"ESTABLECIMIENTO DE SALUD SIN INTERNAMIENTO","condicion":"ACTIVO","actualizado":"2023/08/01 19:00:00.000","fuente":"MINSA","urlRenipr":"http://app20.susalud.gob.pe:8080/registro-renipress-webapp/ipress.htm?action=mostrarVer&idipress=00002839"}},{"type":"Feature","geometry":{"type":"Point","coordinates":[-70.98389512999995,-17.263779429999943]},"properties":{"objectid":4629,"nombre":"P.S. LA BODEGUILLA","departamento":"MOQUEGUA","provincia":"MARISCAL NIETO","distrito":"MOQUEGUA","institucion":"GOBIERNO REGIONAL","codigoMinsa":2829,"direccion":"OTROS PANAMERICANA SUR KM. 8 DISTRITO MOQUEGUA PROVINCIA MARISCAL NIETO DEPARTAMENTO MOQUEGUA","disa":"MOQUEGUA","red":"MOQUEGUA","microrred":"MOQUEGUA","categoria":"ESTABLECIMIENTO DE SALUD SIN INTERNAMIENTO","condicion":"ACTIVO","actualizado":"2023/08/01 19:00:00.000","fuente":"MINSA","urlRenipr":"http://app20.susalud.gob.pe:8080/registro-renipress-webapp/ipress.htm?action=mostrarVer&idipress=00002829"}},{"type":"Feature","geometry":{"type":"Point","coordinates":[-70.70585494999995,-16.73796951999998]},"properties":{"objectid":4630,"nombre":"P.S. SAN CRISTOBAL","departamento":"MOQUEGUA","provincia":"MARISCAL NIETO","distrito":"SAN CRISTOBAL","institucion":"GOBIERNO REGIONAL","codigoMinsa":2815,"direccion":"AVENIDA AV. ANDRES AVELINO CACERES S/N NÚMERO S/N DISTRITO SAN CRISTOBAL PROVINCIA MARISCAL NIETO DEPARTAMENTO MOQUEGUA","disa":"MOQUEGUA","red":"MOQUEGUA","microrred":"CARUMAS","categoria":"ESTABLECIMIENTO DE SALUD SIN INTERNAMIENTO","condicion":"ACTIVO","actualizado":"2023/08/01 19:00:00.000","fuente":"MINSA","urlRenipr":"http://app20.susalud.gob.pe:8080/registro-renipress-webapp/ipress.htm?action=mostrarVer&idipress=00002815"}},{"type":"Feature","geometry":{"type":"Point","coordinates":[-70.92539681999995,-17.18598653999993]},"properties":{"objectid":5764,"nombre":"PULSO CORPORACIÓN MEDICA S.R.L.","departamento":"MOQUEGUA","provincia":"MARISCAL NIETO","distrito":"MOQUEGUA","institucion":"PRIVADO","codigoMinsa":27349,"direccion":"AVENIDA SIMÓN BOLIVAR 549 7 FRENTE A LA CLINICA CARRIÓN MOQUEGUA MARISCAL NIETO MOQUEGUA","disa":"MOQUEGUA","red":"NO PERTENECE A NINGUNA RED","microrred":"NO PERTENECE A NINGUNA MICRORED","categoria":"ESTABLECIMIENTO DE SALUD SIN INTERNAMIENTO","condicion":"ACTIVO","actualizado":"2023/08/01 19:00:00.000","fuente":"MINSA","urlRenipr":"http://app20.susalud.gob.pe:8080/registro-renipress-webapp/ipress.htm?action=mostrarVer&idipress=00027349"}},{"type":"Feature","geometry":{"type":"Point","coordinates":[-70.93281379999996,-17.192736099999934]},"properties":{"objectid":6028,"nombre":"A Y R ODONTOGROUP","departamento":"MOQUEGUA","provincia":"MARISCAL NIETO","distrito":"MOQUEGUA","institucion":"PRIVADO","codigoMinsa":27512,"direccion":"CALLE PIURA NÚMERO 1 PISO 1 DEPARTAMENTO 1 DISTRITO MOQUEGUA PROVINCIA MARISCAL NIETO DEPARTAMENTO MOQUEGUA","disa":"MOQUEGUA","red":"NO PERTENECE A NINGUNA RED","microrred":"NO PERTENECE A NINGUNA MICRORED","categoria":"ESTABLECIMIENTO DE SALUD SIN INTERNAMIENTO","condicion":"ACTIVO","actualizado":"2023/08/01 19:00:00.000","fuente":"MINSA","urlRenipr":"http://app20.susalud.gob.pe:8080/registro-renipress-webapp/ipress.htm?action=mostrarVer&idipress=00027512"}},{"type":"Feature","geometry":{"type":"Point","coordinates":[-70.91936385999998,-17.192918289999966]},"properties":{"objectid":6087,"nombre":"SIGNUMEDIK Centro Médico Especializado","departamento":"MOQUEGUA","provincia":"MARISCAL NIETO","distrito":"MOQUEGUA","institucion":"PRIVADO","codigoMinsa":27851,"direccion":"OTROS APV VIMCOOP NRO C 6 DISTRITO MOQUEGUA PROVINCIA MARISCAL NIETO DEPARTAMENTO MOQUEGUA","disa":"MOQUEGUA","red":"NO PERTENECE A NINGUNA RED","microrred":"NO PERTENECE A NINGUNA MICRORED","categoria":"SERVICIO MÉDICO DE APOYO","condicion":"ACTIVO","actualizado":"2023/08/01 19:00:00.000","fuente":"MINSA","urlRenipr":"http://app20.susalud.gob.pe:8080/registro-renipress-webapp/ipress.htm?action=mostrarVer&idipress=00027851"}},{"type":"Feature","geometry":{"type":"Point","coordinates":[-70.94587883999998,-17.192387879999956]},"properties":{"objectid":6212,"nombre":"NOVA DENT","departamento":"MOQUEGUA","provincia":"MARISCAL NIETO","distrito":"MOQUEGUA","institucion":"PRIVADO","codigoMinsa":28708,"direccion":"CALLE SAN MARTIN MANZANA B LOTE 1 DISTRITO MOQUEGUA PROVINCIA MARISCAL NIETO DEPARTAMENTO MOQUEGUA","disa":"MOQUEGUA","red":"NO PERTENECE A NINGUNA RED","microrred":"NO PERTENECE A NINGUNA MICRORED","categoria":"ESTABLECIMIENTO DE SALUD SIN INTERNAMIENTO","condicion":"ACTIVO","actualizado":"2023/08/01 19:00:00.000","fuente":"MINSA","urlRenipr":"http://app20.susalud.gob.pe:8080/registro-renipress-webapp/ipress.htm?action=mostrarVer&idipress=00028708"}},{"type":"Feature","geometry":{"type":"Point","coordinates":[-71.34284666999997,-17.64222166999997]},"properties":{"objectid":7878,"nombre":"HOSPITAL II ILO","departamento":"MOQUEGUA","provincia":"ILO","distrito":"ILO","institucion":"ESSALUD","codigoMinsa":16153,"direccion":"JIRÓN JIRON MIRAMAR S/N S/N JIRON MIRAMAR S/N ILO ILO MOQUEGUA","disa":"MOQUEGUA","red":"NO PERTENECE A NINGUNA RED","microrred":"NO PERTENECE A NINGUNA MICRORED","categoria":"ESTABLECIMIENTO DE SALUD CON INTERNAMIENTO","condicion":"ACTIVO","actualizado":"2023/08/01 19:00:00.000","fuente":"MINSA","urlRenipr":"http://app20.susalud.gob.pe:8080/registro-renipress-webapp/ipress.htm?action=mostrarVer&idipress=00016153"}},{"type":"Feature","geometry":{"type":"Point","coordinates":[-71.34115699999995,-17.643272999999965]},"properties":{"objectid":7949,"nombre":"Centro Medico Especializado MMD 4M EIRL","departamento":"MOQUEGUA","provincia":"ILO","distrito":"ILO","institucion":"PRIVADO","codigoMinsa":30209,"direccion":"CALLE Moquegua NÚMERO 886 PISO 2 DISTRITO ILO PROVINCIA ILO DEPARTAMENTO MOQUEGUA","disa":"MOQUEGUA","red":"","microrred":"","categoria":"ESTABLECIMIENTO DE SALUD SIN INTERNAMIENTO","condicion":"ACTIVO","actualizado":"2023/08/01 19:00:00.000","fuente":"MINSA","urlRenipr":"http://app20.susalud.gob.pe:8080/registro-renipress-webapp/ipress.htm?action=mostrarVer&idipress=00030209"}},{"type":"Feature","geometry":{"type":"Point","coordinates":[-70.93633151999995,-17.19147055999997]},"properties":{"objectid":8792,"nombre":"C.S. MERCADO CENTRAL","departamento":"MOQUEGUA","provincia":"MARISCAL NIETO","distrito":"MOQUEGUA","institucion":"GOBIERNO REGIONAL","codigoMinsa":26120,"direccion":"AVENIDA ARBOLEDA MARISCAL NIETO D 1-2 FRENTE A LA UNIVERSIDAD MOQUEGUA UNAM FUNDO EL GRAMADAL MOQUEGUA MARISCAL NIETO MOQUEGUA","disa":"MOQUEGUA","red":"MOQUEGUA","microrred":"MOQUEGUA","categoria":"ESTABLECIMIENTO DE SALUD SIN INTERNAMIENTO","condicion":"ACTIVO","actualizado":"2023/08/01 19:00:00.000","fuente":"MINSA","urlRenipr":"http://app20.susalud.gob.pe:8080/registro-renipress-webapp/ipress.htm?action=mostrarVer&idipress=00026120"}},{"type":"Feature","geometry":{"type":"Point","coordinates":[-70.36131113999994,-16.52905359999994]},"properties":{"objectid":8793,"nombre":"P.S. PUENTE BELLO","departamento":"MOQUEGUA","provincia":"MARISCAL NIETO","distrito":"SAN CRISTOBAL","institucion":"GOBIERNO REGIONAL","codigoMinsa":2863,"direccion":"OTROS TITIRE S/N S/N TITIRE S/N SAN CRISTOBAL MARISCAL NIETO MOQUEGUA","disa":"MOQUEGUA","red":"MOQUEGUA","microrred":"CARUMAS","categoria":"ESTABLECIMIENTO DE SALUD SIN INTERNAMIENTO","condicion":"ACTIVO","actualizado":"2023/08/01 19:00:00.000","fuente":"MINSA","urlRenipr":"http://app20.susalud.gob.pe:8080/registro-renipress-webapp/ipress.htm?action=mostrarVer&idipress=00002863"}},{"type":"Feature","geometry":{"type":"Point","coordinates":[-71.23275811999997,-16.63024710999997]},"properties":{"objectid":8794,"nombre":"P.S. CHILATA","departamento":"MOQUEGUA","provincia":"GENERAL SANCHEZ CERRO","distrito":"PUQUINA","institucion":"GOBIERNO REGIONAL","codigoMinsa":2844,"direccion":"CALLE CALLE SAN ISIDRO S/N S/N CALLE SAN ISIDRO S/N PUQUINA GENERAL SANCHEZ CERRO MOQUEGUA","disa":"MOQUEGUA","red":"MOQUEGUA","microrred":"OMATE","categoria":"ESTABLECIMIENTO DE SALUD SIN INTERNAMIENTO","condicion":"ACTIVO","actualizado":"2023/08/01 19:00:00.000","fuente":"MINSA","urlRenipr":"http://app20.susalud.gob.pe:8080/registro-renipress-webapp/ipress.htm?action=mostrarVer&idipress=00002844"}},{"type":"Feature","geometry":{"type":"Point","coordinates":[-70.93356016999996,-17.197277679999956]},"properties":{"objectid":8795,"nombre":"P.S. EL SIGLO","departamento":"MOQUEGUA","provincia":"MARISCAL NIETO","distrito":"MOQUEGUA","institucion":"GOBIERNO REGIONAL","codigoMinsa":2828,"direccion":"JIRÓN JIRON MARIANO LINO URQUIETA Nº 400 JIRON MARIANO LINO URQUIETA Nº 400 MOQUEGUA MARISCAL NIETO MOQUEGUA","disa":"MOQUEGUA","red":"MOQUEGUA","microrred":"MOQUEGUA","categoria":"ESTABLECIMIENTO DE SALUD SIN INTERNAMIENTO","condicion":"ACTIVO","actualizado":"2023/08/01 19:00:00.000","fuente":"MINSA","urlRenipr":"http://app20.susalud.gob.pe:8080/registro-renipress-webapp/ipress.htm?action=mostrarVer&idipress=00002828"}},{"type":"Feature","geometry":{"type":"Point","coordinates":[-71.02299151999995,-16.64884620999993]},"properties":{"objectid":8796,"nombre":"P.S. COALAQUE","departamento":"MOQUEGUA","provincia":"GENERAL SANCHEZ CERRO","distrito":"COALAQUE","institucion":"GOBIERNO REGIONAL","codigoMinsa":2837,"direccion":"AVENIDA AVENIDA AREQUIPA S/N S/N AVENIDA AREQUIPA S/N COALAQUE GENERAL SANCHEZ CERRO MOQUEGUA","disa":"MOQUEGUA","red":"MOQUEGUA","microrred":"OMATE","categoria":"ESTABLECIMIENTO DE SALUD SIN INTERNAMIENTO","condicion":"ACTIVO","actualizado":"2023/08/01 19:00:00.000","fuente":"MINSA","urlRenipr":"http://app20.susalud.gob.pe:8080/registro-renipress-webapp/ipress.htm?action=mostrarVer&idipress=00002837"}},{"type":"Feature","geometry":{"type":"Point","coordinates":[-70.84545827999995,-17.07705859999993]},"properties":{"objectid":8798,"nombre":"C.S. TORATA","departamento":"MOQUEGUA","provincia":"MARISCAL NIETO","distrito":"TORATA","institucion":"GOBIERNO REGIONAL","codigoMinsa":2834,"direccion":"CALLE CALLE GRAU Nº 02 CALLE GRAU Nº 02 TORATA MARISCAL NIETO MOQUEGUA","disa":"MOQUEGUA","red":"MOQUEGUA","microrred":"MOQUEGUA","categoria":"ESTABLECIMIENTO DE SALUD SIN INTERNAMIENTO","condicion":"ACTIVO","actualizado":"2023/08/01 19:00:00.000","fuente":"MINSA","urlRenipr":"http://app20.susalud.gob.pe:8080/registro-renipress-webapp/ipress.htm?action=mostrarVer&idipress=00002834"}},{"type":"Feature","geometry":{"type":"Point","coordinates":[-70.69178991999996,-16.812426759999937]},"properties":{"objectid":8799,"nombre":"CENTRO DE SALUD CARUMAS","departamento":"MOQUEGUA","provincia":"MARISCAL NIETO","distrito":"CARUMAS","institucion":"GOBIERNO REGIONAL","codigoMinsa":2809,"direccion":"PROLONGACIÓN PROLONG. SAN BERNABE S/N S/N PROLONG. SAN BERNABE S/N CARUMAS MARISCAL NIETO MOQUEGUA","disa":"MOQUEGUA","red":"MOQUEGUA","microrred":"CARUMAS","categoria":"ESTABLECIMIENTO DE SALUD SIN INTERNAMIENTO","condicion":"ACTIVO","actualizado":"2023/08/01 19:00:00.000","fuente":"MINSA","urlRenipr":"http://app20.susalud.gob.pe:8080/registro-renipress-webapp/ipress.htm?action=mostrarVer&idipress=00002809"}},{"type":"Feature","geometry":{"type":"Point","coordinates":[-70.92695987999997,-17.186742909999964]},"properties":{"objectid":9424,"nombre":"CLINICA SAGRADO CORAZON DE MARIA E.I.R.L.","departamento":"MOQUEGUA","provincia":"MARISCAL NIETO","distrito":"MOQUEGUA","institucion":"PRIVADO","codigoMinsa":26102,"direccion":"AVENIDA BOLIVAR 1290 FRENTE AL HOSPITAL REGIONAL DE MOQUEGUA MOQUEGUA MARISCAL NIETO MOQUEGUA","disa":"MOQUEGUA","red":"NO PERTENECE A NINGUNA RED","microrred":"NO PERTENECE A NINGUNA MICRORED","categoria":"ESTABLECIMIENTO DE SALUD SIN INTERNAMIENTO","condicion":"ACTIVO","actualizado":"2023/08/01 19:00:00.000","fuente":"MINSA","urlRenipr":"http://app20.susalud.gob.pe:8080/registro-renipress-webapp/ipress.htm?action=mostrarVer&idipress=00026102"}},{"type":"Feature","geometry":{"type":"Point","coordinates":[-70.90544051999996,-17.185018389999982]},"properties":{"objectid":9437,"nombre":"ODONTO LASER","departamento":"MOQUEGUA","provincia":"MARISCAL NIETO","distrito":"SAMEGUA","institucion":"PRIVADO","codigoMinsa":28704,"direccion":"AVENIDA ANDRES AVELINO CACERES NÚMERO 513 DISTRITO SAMEGUA PROVINCIA MARISCAL NIETO DEPARTAMENTO MOQUEGUA","disa":"MOQUEGUA","red":"NO PERTENECE A NINGUNA RED","microrred":"NO PERTENECE A NINGUNA MICRORED","categoria":"ESTABLECIMIENTO DE SALUD SIN INTERNAMIENTO","condicion":"ACTIVO","actualizado":"2023/08/01 19:00:00.000","fuente":"MINSA","urlRenipr":"http://app20.susalud.gob.pe:8080/registro-renipress-webapp/ipress.htm?action=mostrarVer&idipress=00028704"}},{"type":"Feature","geometry":{"type":"Point","coordinates":[-71.33912899999996,-17.641546999999946]},"properties":{"objectid":10001,"nombre":"CLINICA SAGRADO CORAZON","departamento":"MOQUEGUA","provincia":"ILO","distrito":"ILO","institucion":"PRIVADO","codigoMinsa":27850,"direccion":"URBANIZACIÓN URBANIZACION ADUANEROS MANZANA L LOTE 02 DISTRITO ILO PROVINCIA ILO DEPARTAMENTO MOQUEGUA","disa":"MOQUEGUA","red":"NO PERTENECE A NINGUNA RED","microrred":"NO PERTENECE A NINGUNA MICRORED","categoria":"ESTABLECIMIENTO DE SALUD SIN INTERNAMIENTO","condicion":"ACTIVO","actualizado":"2023/08/01 19:00:00.000","fuente":"MINSA","urlRenipr":"http://app20.susalud.gob.pe:8080/registro-renipress-webapp/ipress.htm?action=mostrarVer&idipress=00027850"}},{"type":"Feature","geometry":{"type":"Point","coordinates":[-70.93143799999996,-17.194618299999945]},"properties":{"objectid":10017,"nombre":"CENTRO MEDICO PAMPA INALAMBRICA","departamento":"MOQUEGUA","provincia":"ILO","distrito":"ILO","institucion":"ESSALUD","codigoMinsa":27611,"direccion":"OTROS ASENTAMIENTO HUMANO PROMUVI III MANZANA 1 LOTE 1A DISTRITO ILO PROVINCIA ILO DEPARTAMENTO MOQUEGUA","disa":"MOQUEGUA","red":"NO PERTENECE A NINGUNA RED","microrred":"","categoria":"ESTABLECIMIENTO DE SALUD SIN INTERNAMIENTO","condicion":"ACTIVO","actualizado":"2023/08/01 19:00:00.000","fuente":"MINSA","urlRenipr":"http://app20.susalud.gob.pe:8080/registro-renipress-webapp/ipress.htm?action=mostrarVer&idipress=00027611"}},{"type":"Feature","geometry":{"type":"Point","coordinates":[-70.93420720999995,-17.195016849999945]},"properties":{"objectid":10398,"nombre":"POLICLINICO POBLETE","departamento":"MOQUEGUA","provincia":"MARISCAL NIETO","distrito":"MOQUEGUA","institucion":"PRIVADO","codigoMinsa":28709,"direccion":"CALLE ANCASH NÚMERO 555C DISTRITO MOQUEGUA PROVINCIA MARISCAL NIETO DEPARTAMENTO MOQUEGUA","disa":"MOQUEGUA","red":"NO PERTENECE A NINGUNA RED","microrred":"NO PERTENECE A NINGUNA MICRORED","categoria":"ESTABLECIMIENTO DE SALUD SIN INTERNAMIENTO","condicion":"ACTIVO","actualizado":"2023/08/01 19:00:00.000","fuente":"MINSA","urlRenipr":"http://app20.susalud.gob.pe:8080/registro-renipress-webapp/ipress.htm?action=mostrarVer&idipress=00028709"}},{"type":"Feature","geometry":{"type":"Point","coordinates":[-71.31711619999999,-17.64813289999995]},"properties":{"objectid":10753,"nombre":"SO TU SALUD SAC","departamento":"MOQUEGUA","provincia":"ILO","distrito":"ILO","institucion":"PRIVADO","codigoMinsa":23465,"direccion":"CALLE DANIEL ALCIDES CARRION 3 6 PARALELA AL HOSPITAL MINSA PAMPA INALAMBRICA ILO ILO MOQUEGUA","disa":"MOQUEGUA","red":"NO PERTENECE A NINGUNA RED","microrred":"NO PERTENECE A NINGUNA MICRORED","categoria":"ESTABLECIMIENTO DE SALUD SIN INTERNAMIENTO","condicion":"ACTIVO","actualizado":"2023/08/01 19:00:00.000","fuente":"MINSA","urlRenipr":"http://app20.susalud.gob.pe:8080/registro-renipress-webapp/ipress.htm?action=mostrarVer&idipress=00023465"}},{"type":"Feature","geometry":{"type":"Point","coordinates":[-70.63135630999994,-17.009378509999976]},"properties":{"objectid":10954,"nombre":"P.S. ARONDAYA","departamento":"MOQUEGUA","provincia":"MARISCAL NIETO","distrito":"TORATA","institucion":"GOBIERNO REGIONAL","codigoMinsa":2836,"direccion":"OTROS ANEXO ARONDAYA S/N NÚMERO S/N DISTRITO TORATA PROVINCIA MARISCAL NIETO DEPARTAMENTO MOQUEGUA","disa":"MOQUEGUA","red":"MOQUEGUA","microrred":"MOQUEGUA","categoria":"ESTABLECIMIENTO DE SALUD SIN INTERNAMIENTO","condicion":"ACTIVO","actualizado":"2023/08/01 19:00:00.000","fuente":"MINSA","urlRenipr":"http://app20.susalud.gob.pe:8080/registro-renipress-webapp/ipress.htm?action=mostrarVer&idipress=00002836"}},{"type":"Feature","geometry":{"type":"Point","coordinates":[-70.93190586999998,-17.18778581999993]},"properties":{"objectid":11402,"nombre":"CLINICA MOQUEGUA E.I.R.L.","departamento":"MOQUEGUA","provincia":"MARISCAL NIETO","distrito":"MOQUEGUA","institucion":"PRIVADO","codigoMinsa":26059,"direccion":"AVENIDA 25 DE NOVIEMBRE MANZANA B LOTE 1 DISTRITO MOQUEGUA PROVINCIA MARISCAL NIETO DEPARTAMENTO MOQUEGUA","disa":"MOQUEGUA","red":"NO PERTENECE A NINGUNA RED","microrred":"NO PERTENECE A NINGUNA MICRORED","categoria":"ESTABLECIMIENTO DE SALUD SIN INTERNAMIENTO","condicion":"ACTIVO","actualizado":"2023/08/01 19:00:00.000","fuente":"MINSA","urlRenipr":"http://app20.susalud.gob.pe:8080/registro-renipress-webapp/ipress.htm?action=mostrarVer&idipress=00026059"}},{"type":"Feature","geometry":{"type":"Point","coordinates":[-70.20669299999997,-16.578273999999965]},"properties":{"objectid":11497,"nombre":"POSTA MEDICA TUCARI","departamento":"MOQUEGUA","provincia":"MARISCAL NIETO","distrito":"CARUMAS","institucion":"PRIVADO","codigoMinsa":18997,"direccion":"OTROS CAMPAMENTO MINERO TUCARI KM. 20 DE LA TRANSOCEÁNICA DISTRITO CARUMAS PROVINCIA MARISCAL NIETO DEPARTAMENTO MOQUEGUA","disa":"MOQUEGUA","red":"NO PERTENECE A NINGUNA RED","microrred":"NO PERTENECE A NINGUNA MICRORED","categoria":"ESTABLECIMIENTO DE SALUD SIN INTERNAMIENTO","condicion":"ACTIVO","actualizado":"2023/08/01 19:00:00.000","fuente":"MINSA","urlRenipr":"http://app20.susalud.gob.pe:8080/registro-renipress-webapp/ipress.htm?action=mostrarVer&idipress=00018997"}},{"type":"Feature","geometry":{"type":"Point","coordinates":[-71.32452494999995,-17.645973269999956]},"properties":{"objectid":11563,"nombre":"POLICLINICO PIERO SAC","departamento":"MOQUEGUA","provincia":"ILO","distrito":"ILO","institucion":"PRIVADO","codigoMinsa":23470,"direccion":"AVENIDA PMV Nuevo Ilo Manzana 17 lote 06 Pampa Inalámbrica ,distrito Ilo provincia Ilo DISTRITO ILO PROVINCIA ILO DEPARTAMENTO MOQUEGUA","disa":"MOQUEGUA","red":"NO PERTENECE A NINGUNA RED","microrred":"NO PERTENECE A NINGUNA MICRORED","categoria":"ESTABLECIMIENTO DE SALUD SIN INTERNAMIENTO","condicion":"ACTIVO","actualizado":"2023/08/01 19:00:00.000","fuente":"MINSA","urlRenipr":"http://app20.susalud.gob.pe:8080/registro-renipress-webapp/ipress.htm?action=mostrarVer&idipress=00023470"}},{"type":"Feature","geometry":{"type":"Point","coordinates":[-70.93647734999996,-17.195847019999974]},"properties":{"objectid":12215,"nombre":"CENTRO MEDICO ESPECIALIZADO","departamento":"MOQUEGUA","provincia":"MARISCAL NIETO","distrito":"MOQUEGUA","institucion":"PRIVADO","codigoMinsa":25719,"direccion":"CALLE JUNIN NÚMERO 321 PISO 1 DISTRITO MOQUEGUA PROVINCIA MARISCAL NIETO DEPARTAMENTO MOQUEGUA","disa":"MOQUEGUA","red":"NO PERTENECE A NINGUNA RED","microrred":"NO PERTENECE A NINGUNA MICRORED","categoria":"ESTABLECIMIENTO DE SALUD SIN INTERNAMIENTO","condicion":"ACTIVO","actualizado":"2023/08/01 19:00:00.000","fuente":"MINSA","urlRenipr":"http://app20.susalud.gob.pe:8080/registro-renipress-webapp/ipress.htm?action=mostrarVer&idipress=00025719"}},{"type":"Feature","geometry":{"type":"Point","coordinates":[-70.91728916999995,-17.19331774999995]},"properties":{"objectid":12320,"nombre":"POLICLINICO JUAN PABLO II","departamento":"MOQUEGUA","provincia":"MARISCAL NIETO","distrito":"MOQUEGUA","institucion":"PRIVADO","codigoMinsa":25699,"direccion":"OTROS SELVA ALEGRE MANZANA H LOTE 11-12-13 DISTRITO MOQUEGUA PROVINCIA MARISCAL NIETO DEPARTAMENTO MOQUEGUA","disa":"MOQUEGUA","red":"NO PERTENECE A NINGUNA RED","microrred":"NO PERTENECE A NINGUNA MICRORED","categoria":"SERVICIO MÉDICO DE APOYO","condicion":"ACTIVO","actualizado":"2023/08/01 19:00:00.000","fuente":"MINSA","urlRenipr":"http://app20.susalud.gob.pe:8080/registro-renipress-webapp/ipress.htm?action=mostrarVer&idipress=00025699"}},{"type":"Feature","geometry":{"type":"Point","coordinates":[-71.32934218999998,-17.64339168999993]},"properties":{"objectid":12443,"nombre":"POLICLINICO ILO MEDIC E.I.R.L.","departamento":"MOQUEGUA","provincia":"ILO","distrito":"ILO","institucion":"PRIVADO","codigoMinsa":27860,"direccion":"OTROS ASOCIACION VILLA EL EDEN MANZANA O LOTE 10 DISTRITO ILO PROVINCIA ILO DEPARTAMENTO MOQUEGUA","disa":"","red":"","microrred":"","categoria":"ESTABLECIMIENTO DE SALUD SIN INTERNAMIENTO","condicion":"RUC INACTIVO EN SUNAT","actualizado":"2023/08/01 19:00:00.000","fuente":"MINSA","urlRenipr":"http://app20.susalud.gob.pe:8080/registro-renipress-webapp/ipress.htm?action=mostrarVer&idipress=00027860"}},{"type":"Feature","geometry":{"type":"Point","coordinates":[-71.33266008999993,-17.650559959999953]},"properties":{"objectid":12529,"nombre":"POLICLINICO MANCHEGO SAC","departamento":"MOQUEGUA","provincia":"ILO","distrito":"ILO","institucion":"PRIVADO","codigoMinsa":30305,"direccion":"URBANIZACIÓN LUIS E VALCARCEL 61 1 A DOS CUADRAS DE LA MUNICIPALIDAD DEL CENTRO POBLADO PAMPA INALAMBRICA ILO ILO MOQUEGUA","disa":"MOQUEGUA","red":"","microrred":"NO PERTENECE A NINGUNA MICRORED","categoria":"ESTABLECIMIENTO DE SALUD SIN INTERNAMIENTO","condicion":"ACTIVO","actualizado":"2023/08/01 19:00:00.000","fuente":"MINSA","urlRenipr":"http://app20.susalud.gob.pe:8080/registro-renipress-webapp/ipress.htm?action=mostrarVer&idipress=00030305"}},{"type":"Feature","geometry":{"type":"Point","coordinates":[-70.91687476999994,-17.198463139999944]},"properties":{"objectid":13046,"nombre":"CENTRO DE SALUD CHEN CHEN","departamento":"MOQUEGUA","provincia":"MARISCAL NIETO","distrito":"MOQUEGUA","institucion":"GOBIERNO REGIONAL","codigoMinsa":24054,"direccion":"AVENIDA SANTA ELENA S / N P.J.CHEN CHEN A ESPALDAS DEL COLISEO SANTA ELENA MOQUEGUA MARISCAL NIETO MOQUEGUA","disa":"MOQUEGUA","red":"MOQUEGUA","microrred":"MOQUEGUA","categoria":"ESTABLECIMIENTO DE SALUD SIN INTERNAMIENTO","condicion":"ACTIVO","actualizado":"2023/08/01 19:00:00.000","fuente":"MINSA","urlRenipr":"http://app20.susalud.gob.pe:8080/registro-renipress-webapp/ipress.htm?action=mostrarVer&idipress=00024054"}},{"type":"Feature","geometry":{"type":"Point","coordinates":[-70.95227321999994,-17.205227199999968]},"properties":{"objectid":13047,"nombre":"SAMU MOQUEGUA","departamento":"MOQUEGUA","provincia":"MARISCAL NIETO","distrito":"MOQUEGUA","institucion":"GOBIERNO REGIONAL","codigoMinsa":29205,"direccion":"AVENIDA SAN ANTONIO NORTE 333 1 SAN ANTONIO CENTRO DE SALUD SAN ANTONIO MOQUEGUA MARISCAL NIETO MOQUEGUA","disa":"MOQUEGUA","red":"NO PERTENECE A NINGUNA RED","microrred":"NO PERTENECE A NINGUNA MICRORED","categoria":"SERVICIO MÉDICO DE APOYO","condicion":"ACTIVO","actualizado":"2023/08/01 19:00:00.000","fuente":"MINSA","urlRenipr":"http://app20.susalud.gob.pe:8080/registro-renipress-webapp/ipress.htm?action=mostrarVer&idipress=00029205"}},{"type":"Feature","geometry":{"type":"Point","coordinates":[-70.94401699999997,-17.196072999999956]},"properties":{"objectid":13048,"nombre":"P.S. 28 DE JULIO","departamento":"MOQUEGUA","provincia":"MARISCAL NIETO","distrito":"MOQUEGUA","institucion":"GOBIERNO REGIONAL","codigoMinsa":2826,"direccion":"AVENIDA AVENIDA 28 DE JULIO T-9 AVENIDA 28 DE JULIO T-9 MOQUEGUA MARISCAL NIETO MOQUEGUA","disa":"MOQUEGUA","red":"MOQUEGUA","microrred":"MOQUEGUA","categoria":"ESTABLECIMIENTO DE SALUD SIN INTERNAMIENTO","condicion":"ACTIVO","actualizado":"2023/08/01 19:00:00.000","fuente":"MINSA","urlRenipr":"http://app20.susalud.gob.pe:8080/registro-renipress-webapp/ipress.htm?action=mostrarVer&idipress=00002826"}},{"type":"Feature","geometry":{"type":"Point","coordinates":[-71.34770040999996,-17.659738629999936]},"properties":{"objectid":13049,"nombre":"P.S. 18 DE MAYO","departamento":"MOQUEGUA","provincia":"ILO","distrito":"ILO","institucion":"GOBIERNO REGIONAL","codigoMinsa":2822,"direccion":"OTROS 18 DE MAYO MZ. K LOTE 11 UPIS ALTO ILO 18 DE MAYO MZ. K LOTE 11 UPIS ALTO ILO ILO ILO MOQUEGUA","disa":"MOQUEGUA","red":"ILO","microrred":"ILO","categoria":"ESTABLECIMIENTO DE SALUD SIN INTERNAMIENTO","condicion":"ACTIVO","actualizado":"2023/08/01 19:00:00.000","fuente":"MINSA","urlRenipr":"http://app20.susalud.gob.pe:8080/registro-renipress-webapp/ipress.htm?action=mostrarVer&idipress=00002822"}},{"type":"Feature","geometry":{"type":"Point","coordinates":[-71.33482799999996,-17.634883999999943]},"properties":{"objectid":13050,"nombre":"C.S. MIRAMAR","departamento":"MOQUEGUA","provincia":"ILO","distrito":"ILO","institucion":"GOBIERNO REGIONAL","codigoMinsa":2817,"direccion":"AVENIDA AVENIDA PACIFICO S/N UPIS MIRAMAR S/N AVENIDA PACIFICO S/N UPIS MIRAMAR ILO ILO MOQUEGUA","disa":"MOQUEGUA","red":"ILO","microrred":"ILO","categoria":"ESTABLECIMIENTO DE SALUD SIN INTERNAMIENTO","condicion":"ACTIVO","actualizado":"2023/08/01 19:00:00.000","fuente":"MINSA","urlRenipr":"http://app20.susalud.gob.pe:8080/registro-renipress-webapp/ipress.htm?action=mostrarVer&idipress=00002817"}},{"type":"Feature","geometry":{"type":"Point","coordinates":[-70.64793752999998,-17.118481069999973]},"properties":{"objectid":13638,"nombre":"POSTA MEDICA UME QUELLAVECO","departamento":"MOQUEGUA","provincia":"MARISCAL NIETO","distrito":"TORATA","institucion":"PRIVADO","codigoMinsa":24096,"direccion":"TROCHA CARROZABLE VIA BOTIFLACA - QUELLAVECO - L.D. TACNA (RUTA N MO 523) DISTRITO TORATA PROVINCIA MARISCAL NIETO DEPARTAMENTO MOQUEGUA","disa":"MOQUEGUA","red":"NO PERTENECE A NINGUNA RED","microrred":"NO PERTENECE A NINGUNA MICRORED","categoria":"ESTABLECIMIENTO DE SALUD SIN INTERNAMIENTO","condicion":"ACTIVO","actualizado":"2023/08/01 19:00:00.000","fuente":"MINSA","urlRenipr":"http://app20.susalud.gob.pe:8080/registro-renipress-webapp/ipress.htm?action=mostrarVer&idipress=00024096"}},{"type":"Feature","geometry":{"type":"Point","coordinates":[-70.92754599999995,-17.186359279999976]},"properties":{"objectid":14085,"nombre":"HOSPITAL REGIONAL DE MOQUEGUA","departamento":"MOQUEGUA","provincia":"MARISCAL NIETO","distrito":"MOQUEGUA","institucion":"GOBIERNO REGIONAL","codigoMinsa":7732,"direccion":"AVENIDA BOLIVAR NÚMERO S/N DISTRITO MOQUEGUA PROVINCIA MARISCAL NIETO DEPARTAMENTO MOQUEGUA","disa":"MOQUEGUA","red":"NO PERTENECE A NINGUNA RED","microrred":"NO PERTENECE A NINGUNA MICRORED","categoria":"ESTABLECIMIENTO DE SALUD CON INTERNAMIENTO","condicion":"ACTIVO","actualizado":"2023/08/01 19:00:00.000","fuente":"MINSA","urlRenipr":"http://app20.susalud.gob.pe:8080/registro-renipress-webapp/ipress.htm?action=mostrarVer&idipress=00007732"}},{"type":"Feature","geometry":{"type":"Point","coordinates":[-70.89969239999994,-17.18333519999993]},"properties":{"objectid":14236,"nombre":"CENTRO MEDICO SAMEGUA","departamento":"MOQUEGUA","provincia":"MARISCAL NIETO","distrito":"MOQUEGUA","institucion":"ESSALUD","codigoMinsa":27610,"direccion":"AVENIDA ANDRES AVELINO CACERES NÚMERO S/N DISTRITO MOQUEGUA PROVINCIA MARISCAL NIETO DEPARTAMENTO MOQUEGUA","disa":"MOQUEGUA","red":"NO PERTENECE A NINGUNA RED","microrred":"","categoria":"ESTABLECIMIENTO DE SALUD SIN INTERNAMIENTO","condicion":"ACTIVO","actualizado":"2023/08/01 19:00:00.000","fuente":"MINSA","urlRenipr":"http://app20.susalud.gob.pe:8080/registro-renipress-webapp/ipress.htm?action=mostrarVer&idipress=00027610"}},{"type":"Feature","geometry":{"type":"Point","coordinates":[-71.34377751999995,-17.644376059999956]},"properties":{"objectid":14613,"nombre":"POSTA MEDICA POLICIAL ILO","departamento":"MOQUEGUA","provincia":"ILO","distrito":"ILO","institucion":"SANIDAD DE LA POLICIA NACIONAL DEL PERU","codigoMinsa":25870,"direccion":"JIRÓN ZEPITA 612 A espaldas de la Comisaría del Puerto de Ilo ILO ILO MOQUEGUA","disa":"MOQUEGUA","red":"NO PERTENECE A NINGUNA RED","microrred":"NO PERTENECE A NINGUNA MICRORED","categoria":"ESTABLECIMIENTO DE SALUD SIN INTERNAMIENTO","condicion":"ACTIVO","actualizado":"2023/08/01 19:00:00.000","fuente":"MINSA","urlRenipr":"http://app20.susalud.gob.pe:8080/registro-renipress-webapp/ipress.htm?action=mostrarVer&idipress=00025870"}},{"type":"Feature","geometry":{"type":"Point","coordinates":[-71.33247769999997,-17.66006397999996]},"properties":{"objectid":14807,"nombre":"POLICLINICO SAN GERONIMO","departamento":"MOQUEGUA","provincia":"ILO","distrito":"ILO","institucion":"PRIVADO","codigoMinsa":21767,"direccion":"OTROS URBANIZACION LOS OLIVARES MZ. 2 LOTE 14 Y 15 PAMPA INALAMBRICA URBANIZACION LOS OLIVARES MZ. 2 LOTE 14 Y 15 PAMPA INALAMBRICA ILO ILO MOQUEGUA","disa":"MOQUEGUA","red":"NO PERTENECE A NINGUNA RED","microrred":"NO PERTENECE A NINGUNA MICRORED","categoria":"ESTABLECIMIENTO DE SALUD SIN INTERNAMIENTO","condicion":"ACTIVO","actualizado":"2023/08/01 19:00:00.000","fuente":"MINSA","urlRenipr":"http://app20.susalud.gob.pe:8080/registro-renipress-webapp/ipress.htm?action=mostrarVer&idipress=00021767"}},{"type":"Feature","geometry":{"type":"Point","coordinates":[-70.90754299999998,-17.170195999999976]},"properties":{"objectid":15112,"nombre":"LABORATORIO REGIONAL DE SALUD PUBLICA -MOQUEGUA","departamento":"MOQUEGUA","provincia":"MARISCAL NIETO","distrito":"MOQUEGUA","institucion":"GOBIERNO REGIONAL","codigoMinsa":14734,"direccion":"ENTRE LA AVENIDAD SAN ANTONIO NORTE, AV. MAISCAL DOMINGO NIETO, AV. SANTA CRUZ, AV. SAN FRANC ASIS","disa":"MOQUEGUA","red":"NO PERTENECE A NINGUNA RED","microrred":"NO PERTENECE A NINGUNA MICRORED","categoria":"SERVICIO MÉDICO DE APOYO","condicion":"ACTIVO","actualizado":"2023/08/01 19:00:00.000","fuente":"MINSA","urlRenipr":"http://app20.susalud.gob.pe:8080/registro-renipress-webapp/ipress.htm?action=mostrarVer&idipress=00014734"}},{"type":"Feature","geometry":{"type":"Point","coordinates":[-70.71432842999997,-16.759673009999972]},"properties":{"objectid":15114,"nombre":"P.S. SACUAYA","departamento":"MOQUEGUA","provincia":"MARISCAL NIETO","distrito":"CUCHUMBAYA","institucion":"GOBIERNO REGIONAL","codigoMinsa":2811,"direccion":"OTROS SACUAYA S/N N?ERO S/N DISTRITO CUCHUMBAYA PROVINCIA MARISCAL NIETO DEPARTAMENTO MOQUEGUA","disa":"MOQUEGUA","red":"MOQUEGUA","microrred":"CARUMAS","categoria":"ESTABLECIMIENTO DE SALUD SIN INTERNAMIENTO","condicion":"ACTIVO","actualizado":"2023/08/01 19:00:00.000","fuente":"MINSA","urlRenipr":"http://app20.susalud.gob.pe:8080/registro-renipress-webapp/ipress.htm?action=mostrarVer&idipress=00002811"}},{"type":"Feature","geometry":{"type":"Point","coordinates":[-70.85740632999995,-16.42820942999998]},"properties":{"objectid":15115,"nombre":"P.S. ANASCAPA","departamento":"MOQUEGUA","provincia":"GENERAL SANCHEZ CERRO","distrito":"UBINAS","institucion":"GOBIERNO REGIONAL","codigoMinsa":2860,"direccion":"CALLE CALLE MARIANO MELGAR S/N N?ERO S/N DISTRITO UBINAS PROVINCIA GENERAL SANCHEZ CERRO DEPARTAMENTO MOQUEGUA","disa":"MOQUEGUA","red":"MOQUEGUA","microrred":"UBINAS","categoria":"ESTABLECIMIENTO DE SALUD SIN INTERNAMIENTO","condicion":"ACTIVO","actualizado":"2023/08/01 19:00:00.000","fuente":"MINSA","urlRenipr":"http://app20.susalud.gob.pe:8080/registro-renipress-webapp/ipress.htm?action=mostrarVer&idipress=00002860"}},{"type":"Feature","geometry":{"type":"Point","coordinates":[-70.92252047999995,-16.149920889999976]},"properties":{"objectid":15116,"nombre":"P.S. CHACLAYA","departamento":"MOQUEGUA","provincia":"GENERAL SANCHEZ CERRO","distrito":"UBINAS","institucion":"GOBIERNO REGIONAL","codigoMinsa":2859,"direccion":"OTROS CHACLAYA S/N NÚMERO S/N DISTRITO UBINAS PROVINCIA GENERAL SANCHEZ CERRO DEPARTAMENTO MOQUEGUA","disa":"MOQUEGUA","red":"MOQUEGUA","microrred":"ICHUÑA","categoria":"ESTABLECIMIENTO DE SALUD SIN INTERNAMIENTO","condicion":"ACTIVO","actualizado":"2023/08/01 19:00:00.000","fuente":"MINSA","urlRenipr":"http://app20.susalud.gob.pe:8080/registro-renipress-webapp/ipress.htm?action=mostrarVer&idipress=00002859"}},{"type":"Feature","geometry":{"type":"Point","coordinates":[-70.64614423999996,-16.911791209999933]},"properties":{"objectid":15810,"nombre":"POLICLINICO SERSIMEDIC SAC","departamento":"MOQUEGUA","provincia":"MARISCAL NIETO","distrito":"MOQUEGUA","institucion":"PRIVADO","codigoMinsa":25839,"direccion":"AVENIDA ALFONSO UGARTE MANZANA A LOTE 7 URBANIZACIÓN ASOCIACION VIRGEN DE LAS MERCEDES DISTRITO MOQUEGUA PROVINCIA MARISCAL NIETO DEPARTAMENTO MOQUEGUA","disa":"MOQUEGUA","red":"NO PERTENECE A NINGUNA RED","microrred":"NO PERTENECE A NINGUNA MICRORED","categoria":"ESTABLECIMIENTO DE SALUD SIN INTERNAMIENTO","condicion":"ACTIVO","actualizado":"2023/08/01 19:00:00.000","fuente":"MINSA","urlRenipr":"http://app20.susalud.gob.pe:8080/registro-renipress-webapp/ipress.htm?action=mostrarVer&idipress=00025839"}},{"type":"Feature","geometry":{"type":"Point","coordinates":[-70.92837110999994,-17.187212149999937]},"properties":{"objectid":16122,"nombre":"CLINICA SERVIMEDCO","departamento":"MOQUEGUA","provincia":"MARISCAL NIETO","distrito":"MOQUEGUA","institucion":"PRIVADO","codigoMinsa":25787,"direccion":"URBANIZACIÓN EL GALLITO B 2 EL GALLITO FRENTE A COMPLEJO DEPORTIVO ROLANDO CATACORA MOQUEGUA MARISCAL NIETO MOQUEGUA","disa":"MOQUEGUA","red":"NO PERTENECE A NINGUNA RED","microrred":"NO PERTENECE A NINGUNA MICRORED","categoria":"ESTABLECIMIENTO DE SALUD SIN INTERNAMIENTO","condicion":"ACTIVO","actualizado":"2023/08/01 19:00:00.000","fuente":"MINSA","urlRenipr":"http://app20.susalud.gob.pe:8080/registro-renipress-webapp/ipress.htm?action=mostrarVer&idipress=00025787"}},{"type":"Feature","geometry":{"type":"Point","coordinates":[-70.97102900999994,-16.672915389999957]},"properties":{"objectid":16257,"nombre":"POSTA MEDICA OMATE","departamento":"MOQUEGUA","provincia":"GENERAL SANCHEZ CERRO","distrito":"OMATE","institucion":"ESSALUD","codigoMinsa":26055,"direccion":"CALLE LIMMA NÚMERO 611 DISTRITO OMATE PROVINCIA GENERAL SANCHEZ CERRO DEPARTAMENTO MOQUEGUA","disa":"MOQUEGUA","red":"NO PERTENECE A NINGUNA RED","microrred":"","categoria":"ESTABLECIMIENTO DE SALUD SIN INTERNAMIENTO","condicion":"ACTIVO","actualizado":"2023/08/01 19:00:00.000","fuente":"MINSA","urlRenipr":"http://app20.susalud.gob.pe:8080/registro-renipress-webapp/ipress.htm?action=mostrarVer&idipress=00026055"}},{"type":"Feature","geometry":{"type":"Point","coordinates":[-70.90726173999997,-17.18689409999996]},"properties":{"objectid":16276,"nombre":"P.S. ESTABLECIMIENTO PENITENCIARIO MOQUEGUA","departamento":"MOQUEGUA","provincia":"MARISCAL NIETO","distrito":"SAMEGUA","institucion":"INPE","codigoMinsa":26272,"direccion":"AVENIDA ANDRES AVELINO CACERES NÚMERO S/N DISTRITO SAMEGUA PROVINCIA MARISCAL NIETO DEPARTAMENTO MOQUEGUA","disa":"MOQUEGUA","red":"NO PERTENECE A NINGUNA RED","microrred":"NO PERTENECE A NINGUNA MICRORED","categoria":"ESTABLECIMIENTO DE SALUD SIN INTERNAMIENTO","condicion":"ACTIVO","actualizado":"2023/08/01 19:00:00.000","fuente":"MINSA","urlRenipr":"http://app20.susalud.gob.pe:8080/registro-renipress-webapp/ipress.htm?action=mostrarVer&idipress=00026272"}},{"type":"Feature","geometry":{"type":"Point","coordinates":[-71.33892071999998,-17.609672579999938]},"properties":{"objectid":17145,"nombre":"P.S. PACOCHA","departamento":"MOQUEGUA","provincia":"ILO","distrito":"PACOCHA","institucion":"GOBIERNO REGIONAL","codigoMinsa":6777,"direccion":"OTROS CIUDAD NUEVA SECTOR LOTE 2 MZ D-1 CIUDAD NUEVA SECTOR LOTE 2 MZ D-1 PACOCHA ILO MOQUEGUA","disa":"MOQUEGUA","red":"ILO","microrred":"ILO","categoria":"ESTABLECIMIENTO DE SALUD SIN INTERNAMIENTO","condicion":"ACTIVO","actualizado":"2023/08/01 19:00:00.000","fuente":"MINSA","urlRenipr":"http://app20.susalud.gob.pe:8080/registro-renipress-webapp/ipress.htm?action=mostrarVer&idipress=00006777"}},{"type":"Feature","geometry":{"type":"Point","coordinates":[-70.71594514999998,-16.467646489999936]},"properties":{"objectid":17146,"nombre":"P.S. PACHAS","departamento":"MOQUEGUA","provincia":"GENERAL SANCHEZ CERRO","distrito":"CHOJATA","institucion":"GOBIERNO REGIONAL","codigoMinsa":6776,"direccion":"OTROS PACHAS S/N N?ERO S/N DISTRITO CHOJATA PROVINCIA GENERAL SANCHEZ CERRO DEPARTAMENTO MOQUEGUA","disa":"MOQUEGUA","red":"MOQUEGUA","microrred":"ICHUÑA","categoria":"ESTABLECIMIENTO DE SALUD SIN INTERNAMIENTO","condicion":"ACTIVO","actualizado":"2023/08/01 19:00:00.000","fuente":"MINSA","urlRenipr":"http://app20.susalud.gob.pe:8080/registro-renipress-webapp/ipress.htm?action=mostrarVer&idipress=00006776"}},{"type":"Feature","geometry":{"type":"Point","coordinates":[-70.89932181999995,-17.182093899999927]},"properties":{"objectid":17147,"nombre":"C.S. SAMEGUA","departamento":"MOQUEGUA","provincia":"MARISCAL NIETO","distrito":"SAMEGUA","institucion":"GOBIERNO REGIONAL","codigoMinsa":2832,"direccion":"CALLE CALLE ATAHUALPA Z-1 CALLE ATAHUALPA Z-1 SAMEGUA MARISCAL NIETO MOQUEGUA","disa":"MOQUEGUA","red":"MOQUEGUA","microrred":"MOQUEGUA","categoria":"ESTABLECIMIENTO DE SALUD SIN INTERNAMIENTO","condicion":"ACTIVO","actualizado":"2023/08/01 19:00:00.000","fuente":"MINSA","urlRenipr":"http://app20.susalud.gob.pe:8080/registro-renipress-webapp/ipress.htm?action=mostrarVer&idipress=00002832"}},{"type":"Feature","geometry":{"type":"Point","coordinates":[-70.97657999999996,-17.226809999999944]},"properties":{"objectid":17148,"nombre":"C.S. SAN ANTONIO","departamento":"MOQUEGUA","provincia":"MARISCAL NIETO","distrito":"MOQUEGUA","institucion":"GOBIERNO REGIONAL","codigoMinsa":2830,"direccion":"AVENIDA AV. SAN ANTONIO NORTE S/N S/N AV. SAN ANTONIO NORTE S/N MOQUEGUA MARISCAL NIETO MOQUEGUA","disa":"MOQUEGUA","red":"MOQUEGUA","microrred":"MOQUEGUA","categoria":"ESTABLECIMIENTO DE SALUD SIN INTERNAMIENTO","condicion":"ACTIVO","actualizado":"2023/08/01 19:00:00.000","fuente":"MINSA","urlRenipr":"http://app20.susalud.gob.pe:8080/registro-renipress-webapp/ipress.htm?action=mostrarVer&idipress=00002830"}},{"type":"Feature","geometry":{"type":"Point","coordinates":[-71.34541678999994,-17.650179959999946]},"properties":{"objectid":17149,"nombre":"P.S. VARADERO","departamento":"MOQUEGUA","provincia":"ILO","distrito":"ILO","institucion":"GOBIERNO REGIONAL","codigoMinsa":2821,"direccion":"OTROS NYLON SAN PEDRO F-3 NYLON SAN PEDRO F-3 ILO ILO MOQUEGUA","disa":"MOQUEGUA","red":"ILO","microrred":"ILO","categoria":"ESTABLECIMIENTO DE SALUD SIN INTERNAMIENTO","condicion":"ACTIVO","actualizado":"2023/08/01 19:00:00.000","fuente":"MINSA","urlRenipr":"http://app20.susalud.gob.pe:8080/registro-renipress-webapp/ipress.htm?action=mostrarVer&idipress=00002821"}},{"type":"Feature","geometry":{"type":"Point","coordinates":[-70.93865115999995,-17.192106799999976]},"properties":{"objectid":17622,"nombre":"CLINICA MOQUEGUA","departamento":"MOQUEGUA","provincia":"MARISCAL NIETO","distrito":"MOQUEGUA","institucion":"PRIVADO","codigoMinsa":10580,"direccion":"AVENIDA AVENIDA LA PAZ Nº 414 DISTRITO MOQUEGUA PROVINCIA MARISCAL NIETO DEPARTAMENTO MOQUEGUA","disa":"MOQUEGUA","red":"NO PERTENECE A NINGUNA RED","microrred":"NO PERTENECE A NINGUNA MICRORED","categoria":"ESTABLECIMIENTO DE SALUD SIN INTERNAMIENTO","condicion":"ACTIVO","actualizado":"2023/08/01 19:00:00.000","fuente":"MINSA","urlRenipr":"http://app20.susalud.gob.pe:8080/registro-renipress-webapp/ipress.htm?action=mostrarVer&idipress=00010580"}},{"type":"Feature","geometry":{"type":"Point","coordinates":[-71.33426940999993,-17.633991599999945]},"properties":{"objectid":18155,"nombre":"HOGAR PROTEGIDO ILO","departamento":"MOQUEGUA","provincia":"ILO","distrito":"ILO","institucion":"GOBIERNO REGIONAL","codigoMinsa":30979,"direccion":"CALLE GARCILAZO DE LA VEGA NÚMERO S/N MANZANA L LOTE 10 URBANIZACIÓN UPIS MIRAMAR DISTRITO ILO PROVINCIA ILO DEPARTAMENTO MOQUEGUA","disa":"MOQUEGUA","red":"ILO","microrred":"ILO","categoria":"SERVICIO MÉDICO DE APOYO","condicion":"ACTIVO","actualizado":"2023/08/01 19:00:00.000","fuente":"MINSA","urlRenipr":"http://app20.susalud.gob.pe:8080/registro-renipress-webapp/ipress.htm?action=mostrarVer&idipress=00030979"}},{"type":"Feature","geometry":{"type":"Point","coordinates":[-70.93281379999996,-17.192736099999934]},"properties":{"objectid":18175,"nombre":"CONSULTORIOS SALUD FAMILIAR","departamento":"MOQUEGUA","provincia":"MARISCAL NIETO","distrito":"MOQUEGUA","institucion":"PRIVADO","codigoMinsa":31100,"direccion":"CALLE MOQUEGUA NÚMERO 630 PISO 1 DISTRITO MOQUEGUA PROVINCIA MARISCAL NIETO DEPARTAMENTO MOQUEGUA","disa":"MOQUEGUA","red":"","microrred":"","categoria":"ESTABLECIMIENTO DE SALUD SIN INTERNAMIENTO","condicion":"ACTIVO","actualizado":"2023/08/01 19:00:00.000","fuente":"MINSA","urlRenipr":"http://app20.susalud.gob.pe:8080/registro-renipress-webapp/ipress.htm?action=mostrarVer&idipress=00031100"}},{"type":"Feature","geometry":{"type":"Point","coordinates":[-71.33634811999997,-17.652683939999974]},"properties":{"objectid":18176,"nombre":"Centro Salud Mental Comunitario Ilo","departamento":"MOQUEGUA","provincia":"ILO","distrito":"ILO","institucion":"GOBIERNO REGIONAL","codigoMinsa":23034,"direccion":"AVENIDA 1 1 C 01 URB. Luis E. Valcarcel Pampa Inalambrica detras HOSPITAL ILO ILO ILO MOQUEGUA","disa":"MOQUEGUA","red":"ILO","microrred":"ILO","categoria":"ESTABLECIMIENTO DE SALUD SIN INTERNAMIENTO","condicion":"ACTIVO","actualizado":"2023/08/01 19:00:00.000","fuente":"MINSA","urlRenipr":"http://app20.susalud.gob.pe:8080/registro-renipress-webapp/ipress.htm?action=mostrarVer&idipress=00023034"}},{"type":"Feature","geometry":{"type":"Point","coordinates":[-71.34118491999999,-17.63185791999996]},"properties":{"objectid":18547,"nombre":"LABORAL CONTROL E.I.R.L.","departamento":"MOQUEGUA","provincia":"ILO","distrito":"ILO","institucion":"PRIVADO","codigoMinsa":23247,"direccion":"OTROS URBANIZACION VILLA DEL MAR L7 2 L 7 VILLA DEL MAR L7 AL COSTADO DEL HOTEL CHIRIBAYA ILO ILO MOQUEGUA","disa":"MOQUEGUA","red":"NO PERTENECE A NINGUNA RED","microrred":"NO PERTENECE A NINGUNA MICRORED","categoria":"ESTABLECIMIENTO DE SALUD SIN INTERNAMIENTO","condicion":"ACTIVO","actualizado":"2023/08/01 19:00:00.000","fuente":"MINSA","urlRenipr":"http://app20.susalud.gob.pe:8080/registro-renipress-webapp/ipress.htm?action=mostrarVer&idipress=00023247"}},{"type":"Feature","geometry":{"type":"Point","coordinates":[-70.93281379999996,-17.192736099999934]},"properties":{"objectid":18842,"nombre":"GABINETE DENTAL","departamento":"MOQUEGUA","provincia":"MARISCAL NIETO","distrito":"MOQUEGUA","institucion":"PRIVADO","codigoMinsa":31248,"direccion":"OTROS ASOCIACIÓN LOS CIPRESES MZ H7 LOTE 03 SAN ANTONIO MANZANA H7 LOTE 03 DISTRITO MOQUEGUA PROVINCIA MARISCAL NIETO DEPARTAMENTO MOQUEGUA","disa":"MOQUEGUA","red":"","microrred":"","categoria":"ESTABLECIMIENTO DE SALUD SIN INTERNAMIENTO","condicion":"ACTIVO","actualizado":"2023/08/01 19:00:00.000","fuente":"MINSA","urlRenipr":"http://app20.susalud.gob.pe:8080/registro-renipress-webapp/ipress.htm?action=mostrarVer&idipress=00031248"}},{"type":"Feature","geometry":{"type":"Point","coordinates":[-70.80729274999999,-17.07486542999993]},"properties":{"objectid":19107,"nombre":"HOSPITAL CUAJONE DE LA SOUTHERN PERU","departamento":"MOQUEGUA","provincia":"MARISCAL NIETO","distrito":"TORATA","institucion":"PRIVADO","codigoMinsa":17393,"direccion":"CAMPAMENTO MINERO CUAJONE S/N","disa":"MOQUEGUA","red":"NO PERTENECE A NINGUNA RED","microrred":"NO PERTENECE A NINGUNA MICRORED","categoria":"ESTABLECIMIENTO DE SALUD CON INTERNAMIENTO","condicion":"ACTIVO","actualizado":"2023/08/01 19:00:00.000","fuente":"MINSA","urlRenipr":"http://app20.susalud.gob.pe:8080/registro-renipress-webapp/ipress.htm?action=mostrarVer&idipress=00017393"}},{"type":"Feature","geometry":{"type":"Point","coordinates":[-71.11535131999995,-16.41101765999997]},"properties":{"objectid":19266,"nombre":"P.S. SALINAS MOCHE","departamento":"MOQUEGUA","provincia":"GENERAL SANCHEZ CERRO","distrito":"PUQUINA","institucion":"GOBIERNO REGIONAL","codigoMinsa":2856,"direccion":"OTROS SALIDNA MOCHE S/N N?ERO S/N DISTRITO PUQUINA PROVINCIA GENERAL SANCHEZ CERRO DEPARTAMENTO MOQUEGUA","disa":"MOQUEGUA","red":"MOQUEGUA","microrred":"UBINAS","categoria":"ESTABLECIMIENTO DE SALUD SIN INTERNAMIENTO","condicion":"ACTIVO","actualizado":"2023/08/01 19:00:00.000","fuente":"MINSA","urlRenipr":"http://app20.susalud.gob.pe:8080/registro-renipress-webapp/ipress.htm?action=mostrarVer&idipress=00002856"}},{"type":"Feature","geometry":{"type":"Point","coordinates":[-70.96215782999997,-16.64878441999997]},"properties":{"objectid":19267,"nombre":"P.S. CHALLAGUAYO","departamento":"MOQUEGUA","provincia":"GENERAL SANCHEZ CERRO","distrito":"OMATE","institucion":"GOBIERNO REGIONAL","codigoMinsa":2842,"direccion":"OTROS ANEXO CHALLAGUAYO S/N NÚMERO S/N DISTRITO OMATE PROVINCIA GENERAL SANCHEZ CERRO DEPARTAMENTO MOQUEGUA","disa":"MOQUEGUA","red":"MOQUEGUA","microrred":"OMATE","categoria":"ESTABLECIMIENTO DE SALUD SIN INTERNAMIENTO","condicion":"ACTIVO","actualizado":"2023/08/01 19:00:00.000","fuente":"MINSA","urlRenipr":"http://app20.susalud.gob.pe:8080/registro-renipress-webapp/ipress.htm?action=mostrarVer&idipress=00002842"}},{"type":"Feature","geometry":{"type":"Point","coordinates":[-70.82447034999996,-16.428122979999955]},"properties":{"objectid":19268,"nombre":"P.S. HUATAGUA","departamento":"MOQUEGUA","provincia":"GENERAL SANCHEZ CERRO","distrito":"MATALAQUE","institucion":"GOBIERNO REGIONAL","codigoMinsa":2855,"direccion":"CALLE CALLE SANTA ROSA S/N N?ERO S/N DISTRITO MATALAQUE PROVINCIA GENERAL SANCHEZ CERRO DEPARTAMENTO MOQUEGUA","disa":"MOQUEGUA","red":"MOQUEGUA","microrred":"UBINAS","categoria":"ESTABLECIMIENTO DE SALUD SIN INTERNAMIENTO","condicion":"ACTIVO","actualizado":"2023/08/01 19:00:00.000","fuente":"MINSA","urlRenipr":"http://app20.susalud.gob.pe:8080/registro-renipress-webapp/ipress.htm?action=mostrarVer&idipress=00002855"}},{"type":"Feature","geometry":{"type":"Point","coordinates":[-70.87922635999996,-16.748417789999962]},"properties":{"objectid":19269,"nombre":"P.S. QUINISTAQUILLAS","departamento":"MOQUEGUA","provincia":"GENERAL SANCHEZ CERRO","distrito":"QUINISTAQUILLAS","institucion":"GOBIERNO REGIONAL","codigoMinsa":2846,"direccion":"CALLE CALLE LOS CLAVELES S/N NÚMERO S/N DISTRITO QUINISTAQUILLAS PROVINCIA GENERAL SANCHEZ CERRO DEPARTAMENTO MOQUEGUA","disa":"MOQUEGUA","red":"MOQUEGUA","microrred":"OMATE","categoria":"ESTABLECIMIENTO DE SALUD SIN INTERNAMIENTO","condicion":"ACTIVO","actualizado":"2023/08/01 19:00:00.000","fuente":"MINSA","urlRenipr":"http://app20.susalud.gob.pe:8080/registro-renipress-webapp/ipress.htm?action=mostrarVer&idipress=00002846"}},{"type":"Feature","geometry":{"type":"Point","coordinates":[-70.93786841999997,-17.192854229999966]},"properties":{"objectid":19723,"nombre":"CLINICA SERVIMEDCO","departamento":"MOQUEGUA","provincia":"MARISCAL NIETO","distrito":"MOQUEGUA","institucion":"PRIVADO","codigoMinsa":17283,"direccion":"AVENIDA AV. BALTA Nº 297 - 2DO. PISO Y AV. BALTA Nº 165 DISTRITO MOQUEGUA PROVINCIA MARISCAL NIETO DEPARTAMENTO MOQUEGUA","disa":"","red":"","microrred":"","categoria":"ESTABLECIMIENTO DE SALUD SIN INTERNAMIENTO","condicion":"RETIRO VOLUNTARIO","actualizado":"2023/08/01 19:00:00.000","fuente":"MINSA","urlRenipr":"http://app20.susalud.gob.pe:8080/registro-renipress-webapp/ipress.htm?action=mostrarVer&idipress=00017283"}},{"type":"Feature","geometry":{"type":"Point","coordinates":[-70.92600437999994,-17.18533444999997]},"properties":{"objectid":19786,"nombre":"CENTRO MÉDICO NATURA MÉDICA","departamento":"MOQUEGUA","provincia":"MARISCAL NIETO","distrito":"MOQUEGUA","institucion":"PRIVADO","codigoMinsa":25648,"direccion":"AVENIDA Circunvalación MANZANA E LOTE 3 URBANIZACIÓN Mercedes Cabello de Carbonera DISTRITO MOQUEGUA PROVINCIA MARISCAL NIETO DEPARTAMENTO MOQUEGUA","disa":"","red":"","microrred":"","categoria":"SERVICIO MÉDICO DE APOYO","condicion":"RUC INACTIVO EN SUNAT","actualizado":"2023/08/01 19:00:00.000","fuente":"MINSA","urlRenipr":"http://app20.susalud.gob.pe:8080/registro-renipress-webapp/ipress.htm?action=mostrarVer&idipress=00025648"}},{"type":"Feature","geometry":{"type":"Point","coordinates":[-70.85749019999997,-16.895404999999982]},"properties":{"objectid":20441,"nombre":"LIGA DE LUCHA CONTRA EL CANCER - FILIAL MOQUEGUA","departamento":"MOQUEGUA","provincia":"MARISCAL NIETO","distrito":"MOQUEGUA","institucion":"PRIVADO","codigoMinsa":16385,"direccion":"AVENIDA AV. BALTA S/N ESQUINA CON CALLE ANCASH NÚMERO S/N DISTRITO MOQUEGUA PROVINCIA MARISCAL NIETO DEPARTAMENTO MOQUEGUA","disa":"MOQUEGUA","red":"NO PERTENECE A NINGUNA RED","microrred":"NO PERTENECE A NINGUNA MICRORED","categoria":"ESTABLECIMIENTO DE SALUD SIN INTERNAMIENTO","condicion":"ACTIVO","actualizado":"2023/08/01 19:00:00.000","fuente":"MINSA","urlRenipr":"http://app20.susalud.gob.pe:8080/registro-renipress-webapp/ipress.htm?action=mostrarVer&idipress=00016385"}},{"type":"Feature","geometry":{"type":"Point","coordinates":[-70.57558720999998,-16.154911529999936]},"properties":{"objectid":21347,"nombre":"P.S. OYO OYO","departamento":"MOQUEGUA","provincia":"GENERAL SANCHEZ CERRO","distrito":"ICHUÑA","institucion":"GOBIERNO REGIONAL","codigoMinsa":2849,"direccion":"OTROS CARABAYA S/N N?ERO S/N DISTRITO ICHUÑA PROVINCIA GENERAL SANCHEZ CERRO DEPARTAMENTO MOQUEGUA","disa":"MOQUEGUA","red":"MOQUEGUA","microrred":"ICHUÑA","categoria":"ESTABLECIMIENTO DE SALUD SIN INTERNAMIENTO","condicion":"ACTIVO","actualizado":"2023/08/01 19:00:00.000","fuente":"MINSA","urlRenipr":"http://app20.susalud.gob.pe:8080/registro-renipress-webapp/ipress.htm?action=mostrarVer&idipress=00002849"}},{"type":"Feature","geometry":{"type":"Point","coordinates":[-71.26691913999997,-17.621187259999942]},"properties":{"objectid":21348,"nombre":"P.S. EL ALGARROBAL","departamento":"MOQUEGUA","provincia":"ILO","distrito":"EL ALGARROBAL","institucion":"GOBIERNO REGIONAL","codigoMinsa":2816,"direccion":"AVENIDA AVENIDA PRINCIPAL S/N NÚMERO S/N DISTRITO EL ALGARROBAL PROVINCIA ILO DEPARTAMENTO MOQUEGUA","disa":"MOQUEGUA","red":"ILO","microrred":"ILO","categoria":"ESTABLECIMIENTO DE SALUD SIN INTERNAMIENTO","condicion":"ACTIVO","actualizado":"2023/08/01 19:00:00.000","fuente":"MINSA","urlRenipr":"http://app20.susalud.gob.pe:8080/registro-renipress-webapp/ipress.htm?action=mostrarVer&idipress=00002816"}},{"type":"Feature","geometry":{"type":"Point","coordinates":[-70.88869689999996,-16.93223839999996]},"properties":{"objectid":21454,"nombre":"CENTRO ODONTOLOGICO VARGAS","departamento":"MOQUEGUA","provincia":"MARISCAL NIETO","distrito":"MOQUEGUA","institucion":"PRIVADO","codigoMinsa":14290,"direccion":"CALLE CALLE CUZCO Nº 394-A CERCADO DISTRITO MOQUEGUA PROVINCIA MARISCAL NIETO DEPARTAMENTO MOQUEGUA","disa":"MOQUEGUA","red":"NO PERTENECE A NINGUNA RED","microrred":"NO PERTENECE A NINGUNA MICRORED","categoria":"ESTABLECIMIENTO DE SALUD SIN INTERNAMIENTO","condicion":"ACTIVO","actualizado":"2023/08/01 19:00:00.000","fuente":"MINSA","urlRenipr":"http://app20.susalud.gob.pe:8080/registro-renipress-webapp/ipress.htm?action=mostrarVer&idipress=00014290"}},{"type":"Feature","geometry":{"type":"Point","coordinates":[-70.92789596999995,-17.188042069999938]},"properties":{"objectid":21936,"nombre":"CENTRO ESPECIALIZADO EN ENDOCRINOLOGIA, DIABETES Y OBESIDAD","departamento":"MOQUEGUA","provincia":"MARISCAL NIETO","distrito":"MOQUEGUA","institucion":"PRIVADO","codigoMinsa":27645,"direccion":"CALLE 4 MANZANA G LOTE 1-2 URBANIZACIÓN URBANIZACION EL GALLITO DISTRITO MOQUEGUA PROVINCIA MARISCAL NIETO DEPARTAMENTO MOQUEGUA","disa":"MOQUEGUA","red":"NO PERTENECE A NINGUNA RED","microrred":"NO PERTENECE A NINGUNA MICRORED","categoria":"ESTABLECIMIENTO DE SALUD SIN INTERNAMIENTO","condicion":"ACTIVO","actualizado":"2023/08/01 19:00:00.000","fuente":"MINSA","urlRenipr":"http://app20.susalud.gob.pe:8080/registro-renipress-webapp/ipress.htm?action=mostrarVer&idipress=00027645"}},{"type":"Feature","geometry":{"type":"Point","coordinates":[-70.92566168999997,-17.18646616999996]},"properties":{"objectid":21950,"nombre":"CLINICA IMED CARRION","departamento":"MOQUEGUA","provincia":"MARISCAL NIETO","distrito":"MOQUEGUA","institucion":"PRIVADO","codigoMinsa":18572,"direccion":"OTROS URBANIZACION EL HUAYCO Nº 2 C-4 DISTRITO MOQUEGUA PROVINCIA MARISCAL NIETO DEPARTAMENTO MOQUEGUA","disa":"MOQUEGUA","red":"NO PERTENECE A NINGUNA RED","microrred":"NO PERTENECE A NINGUNA MICRORED","categoria":"ESTABLECIMIENTO DE SALUD SIN INTERNAMIENTO","condicion":"ACTIVO","actualizado":"2023/08/01 19:00:00.000","fuente":"MINSA","urlRenipr":"http://app20.susalud.gob.pe:8080/registro-renipress-webapp/ipress.htm?action=mostrarVer&idipress=00018572"}},{"type":"Feature","geometry":{"type":"Point","coordinates":[-71.33727749999997,-17.653474899999935]},"properties":{"objectid":22370,"nombre":"SAMU BASE ILO","departamento":"MOQUEGUA","provincia":"ILO","distrito":"ILO","institucion":"GOBIERNO REGIONAL","codigoMinsa":29922,"direccion":"OTROS JOSE CARLOS MARIATEGUI MANZANA F LOTE 9 DISTRITO ILO PROVINCIA ILO DEPARTAMENTO MOQUEGUA","disa":"MOQUEGUA","red":"ILO","microrred":"NO PERTENECE A NINGUNA MICRORED","categoria":"SERVICIO MÉDICO DE APOYO","condicion":"ACTIVO","actualizado":"2023/08/01 19:00:00.000","fuente":"MINSA","urlRenipr":"http://app20.susalud.gob.pe:8080/registro-renipress-webapp/ipress.htm?action=mostrarVer&idipress=00029922"}},{"type":"Feature","geometry":{"type":"Point","coordinates":[-71.33697389999998,-17.614280099999974]},"properties":{"objectid":22581,"nombre":"HOSPITAL SPCC - ILO","departamento":"MOQUEGUA","provincia":"ILO","distrito":"PACOCHA","institucion":"PRIVADO","codigoMinsa":17563,"direccion":"OTROS CIUDAD NUEVA S/N NÚMERO S/N DISTRITO PACOCHA PROVINCIA ILO DEPARTAMENTO MOQUEGUA","disa":"MOQUEGUA","red":"NO PERTENECE A NINGUNA RED","microrred":"NO PERTENECE A NINGUNA MICRORED","categoria":"ESTABLECIMIENTO DE SALUD CON INTERNAMIENTO","condicion":"ACTIVO","actualizado":"2023/08/01 19:00:00.000","fuente":"MINSA","urlRenipr":"http://app20.susalud.gob.pe:8080/registro-renipress-webapp/ipress.htm?action=mostrarVer&idipress=00017563"}},{"type":"Feature","geometry":{"type":"Point","coordinates":[-70.13949760999998,-16.780832389999944]},"properties":{"objectid":23379,"nombre":"P.S. PASTO GRANDE","departamento":"MOQUEGUA","provincia":"MARISCAL NIETO","distrito":"CARUMAS","institucion":"GOBIERNO REGIONAL","codigoMinsa":2852,"direccion":"CARRETERA CARRETERA PASTO GRANDE TITIRE S/N NÚMERO S/N DISTRITO CARUMAS PROVINCIA MARISCAL NIETO DEPARTAMENTO MOQUEGUA","disa":"MOQUEGUA","red":"MOQUEGUA","microrred":"CARUMAS","categoria":"ESTABLECIMIENTO DE SALUD SIN INTERNAMIENTO","condicion":"ACTIVO","actualizado":"2023/08/01 19:00:00.000","fuente":"MINSA","urlRenipr":"http://app20.susalud.gob.pe:8080/registro-renipress-webapp/ipress.htm?action=mostrarVer&idipress=00002852"}},{"type":"Feature","geometry":{"type":"Point","coordinates":[-70.95112389999997,-17.204650939999965]},"properties":{"objectid":23380,"nombre":"CENTRO DE SALUD MENTAL COMUNITARIO - MOQUEGUA","departamento":"MOQUEGUA","provincia":"MARISCAL NIETO","distrito":"MOQUEGUA","institucion":"GOBIERNO REGIONAL","codigoMinsa":21101,"direccion":"AVENIDA AV. SAN ANTONIO NORTE S/N CPM SAN ANTONIO S/N AV. SAN ANTONIO NORTE S/N CPM SAN ANTONIO MOQUEGUA MARISCAL NIETO MOQUEGUA","disa":"MOQUEGUA","red":"NO PERTENECE A NINGUNA RED","microrred":"NO PERTENECE A NINGUNA MICRORED","categoria":"ESTABLECIMIENTO DE SALUD SIN INTERNAMIENTO","condicion":"ACTIVO","actualizado":"2023/08/01 19:00:00.000","fuente":"MINSA","urlRenipr":"http://app20.susalud.gob.pe:8080/registro-renipress-webapp/ipress.htm?action=mostrarVer&idipress=00021101"}},{"type":"Feature","geometry":{"type":"Point","coordinates":[-71.33101666999994,-17.652008329999944]},"properties":{"objectid":25458,"nombre":"C.S. PAMPA INALAMBRICA","departamento":"MOQUEGUA","provincia":"ILO","distrito":"ILO","institucion":"GOBIERNO REGIONAL","codigoMinsa":2820,"direccion":"OTROS A.H. J.C.MARIATEGUI F-9 A.H. J.C.MARIATEGUI F-9 ILO ILO MOQUEGUA","disa":"MOQUEGUA","red":"ILO","microrred":"ILO","categoria":"ESTABLECIMIENTO DE SALUD SIN INTERNAMIENTO","condicion":"ACTIVO","actualizado":"2023/08/01 19:00:00.000","fuente":"MINSA","urlRenipr":"http://app20.susalud.gob.pe:8080/registro-renipress-webapp/ipress.htm?action=mostrarVer&idipress=00002820"}},{"type":"Feature","geometry":{"type":"Point","coordinates":[-70.82600128999997,-16.482194499999935]},"properties":{"objectid":25459,"nombre":"P.S. MATALAQUE","departamento":"MOQUEGUA","provincia":"GENERAL SANCHEZ CERRO","distrito":"MATALAQUE","institucion":"GOBIERNO REGIONAL","codigoMinsa":2854,"direccion":"CALLE CALLE MARIANO C. FLORES S/N S/N CALLE MARIANO C. FLORES S/N MATALAQUE GENERAL SANCHEZ CERRO MOQUEGUA","disa":"MOQUEGUA","red":"MOQUEGUA","microrred":"UBINAS","categoria":"ESTABLECIMIENTO DE SALUD SIN INTERNAMIENTO","condicion":"ACTIVO","actualizado":"2023/08/01 19:00:00.000","fuente":"MINSA","urlRenipr":"http://app20.susalud.gob.pe:8080/registro-renipress-webapp/ipress.htm?action=mostrarVer&idipress=00002854"}},{"type":"Feature","geometry":{"type":"Point","coordinates":[-70.73876038999998,-16.323925799999927]},"properties":{"objectid":25460,"nombre":"P.S. LLOQUE","departamento":"MOQUEGUA","provincia":"GENERAL SANCHEZ CERRO","distrito":"LLOQUE","institucion":"GOBIERNO REGIONAL","codigoMinsa":2853,"direccion":"CALLE CALLE COMERCIO S/N S/N CALLE COMERCIO S/N LLOQUE GENERAL SANCHEZ CERRO MOQUEGUA","disa":"MOQUEGUA","red":"MOQUEGUA","microrred":"ICHUÑA","categoria":"ESTABLECIMIENTO DE SALUD SIN INTERNAMIENTO","condicion":"ACTIVO","actualizado":"2023/08/01 19:00:00.000","fuente":"MINSA","urlRenipr":"http://app20.susalud.gob.pe:8080/registro-renipress-webapp/ipress.htm?action=mostrarVer&idipress=00002853"}},{"type":"Feature","geometry":{"type":"Point","coordinates":[-71.18607831999998,-16.62381369999997]},"properties":{"objectid":25461,"nombre":"C.S. PUQUINA","departamento":"MOQUEGUA","provincia":"GENERAL SANCHEZ CERRO","distrito":"PUQUINA","institucion":"GOBIERNO REGIONAL","codigoMinsa":2843,"direccion":"CALLE CALLE DOS DE MAYO S/N S/N CALLE DOS DE MAYO S/N PUQUINA GENERAL SANCHEZ CERRO MOQUEGUA","disa":"MOQUEGUA","red":"MOQUEGUA","microrred":"OMATE","categoria":"ESTABLECIMIENTO DE SALUD SIN INTERNAMIENTO","condicion":"ACTIVO","actualizado":"2023/08/01 19:00:00.000","fuente":"MINSA","urlRenipr":"http://app20.susalud.gob.pe:8080/registro-renipress-webapp/ipress.htm?action=mostrarVer&idipress=00002843"}},{"type":"Feature","geometry":{"type":"Point","coordinates":[-70.94669799999997,-17.188349999999957]},"properties":{"objectid":25826,"nombre":"CENTRO DEL RIÑON - SAC","departamento":"MOQUEGUA","provincia":"MARISCAL NIETO","distrito":"MOQUEGUA","institucion":"PRIVADO","codigoMinsa":25714,"direccion":"AVENIDA LA PAZ NÚMERO S/N DISTRITO MOQUEGUA PROVINCIA MARISCAL NIETO DEPARTAMENTO MOQUEGUA","disa":"MOQUEGUA","red":"NO PERTENECE A NINGUNA RED","microrred":"NO PERTENECE A NINGUNA MICRORED","categoria":"SERVICIO MÉDICO DE APOYO","condicion":"ACTIVO","actualizado":"2023/08/01 19:00:00.000","fuente":"MINSA","urlRenipr":"http://app20.susalud.gob.pe:8080/registro-renipress-webapp/ipress.htm?action=mostrarVer&idipress=00025714"}},{"type":"Feature","geometry":{"type":"Point","coordinates":[-70.95276674999997,-17.193379249999964]},"properties":{"objectid":27358,"nombre":"CLINICA BRONCOPULMONAR Y SALUD OCUPACIONAL S.C.R.L.","departamento":"MOQUEGUA","provincia":"MARISCAL NIETO","distrito":"MOQUEGUA","institucion":"PRIVADO","codigoMinsa":17205,"direccion":"OTROS URBANIZACION VILLA SAN ANTONIO J-25 DISTRITO MOQUEGUA PROVINCIA MARISCAL NIETO DEPARTAMENTO MOQUEGUA","disa":"MOQUEGUA","red":"NO PERTENECE A NINGUNA RED","microrred":"NO PERTENECE A NINGUNA MICRORED","categoria":"ESTABLECIMIENTO DE SALUD SIN INTERNAMIENTO","condicion":"ACTIVO","actualizado":"2023/08/01 19:00:00.000","fuente":"MINSA","urlRenipr":"http://app20.susalud.gob.pe:8080/registro-renipress-webapp/ipress.htm?action=mostrarVer&idipress=00017205"}},{"type":"Feature","geometry":{"type":"Point","coordinates":[-70.68717222999999,-16.751850499999932]},"properties":{"objectid":27530,"nombre":"P.S. CUCHUMBAYA","departamento":"MOQUEGUA","provincia":"MARISCAL NIETO","distrito":"CUCHUMBAYA","institucion":"GOBIERNO REGIONAL","codigoMinsa":2810,"direccion":"CALLE CALLE MOQUEGUA S/N S/N CALLE MOQUEGUA S/N CUCHUMBAYA MARISCAL NIETO MOQUEGUA","disa":"MOQUEGUA","red":"MOQUEGUA","microrred":"CARUMAS","categoria":"ESTABLECIMIENTO DE SALUD SIN INTERNAMIENTO","condicion":"ACTIVO","actualizado":"2023/08/01 19:00:00.000","fuente":"MINSA","urlRenipr":"http://app20.susalud.gob.pe:8080/registro-renipress-webapp/ipress.htm?action=mostrarVer&idipress=00002810"}},{"type":"Feature","geometry":{"type":"Point","coordinates":[-70.94585236999995,-17.19292534999994]},"properties":{"objectid":27531,"nombre":"C.S. SAN FRANCISCO","departamento":"MOQUEGUA","provincia":"MARISCAL NIETO","distrito":"MOQUEGUA","institucion":"GOBIERNO REGIONAL","codigoMinsa":2824,"direccion":"CALLE CALLE DANIEL BECERRA OCAMPO S/N S/N CALLE DANIEL BECERRA OCAMPO S/N MOQUEGUA MARISCAL NIETO MOQUEGUA","disa":"MOQUEGUA","red":"MOQUEGUA","microrred":"MOQUEGUA","categoria":"ESTABLECIMIENTO DE SALUD SIN INTERNAMIENTO","condicion":"ACTIVO","actualizado":"2023/08/01 19:00:00.000","fuente":"MINSA","urlRenipr":"http://app20.susalud.gob.pe:8080/registro-renipress-webapp/ipress.htm?action=mostrarVer&idipress=00002824"}},{"type":"Feature","geometry":{"type":"Point","coordinates":[-70.97078074999996,-16.67461641999995]},"properties":{"objectid":27532,"nombre":"CENTRO DE SALUD OMATE","departamento":"MOQUEGUA","provincia":"GENERAL SANCHEZ CERRO","distrito":"OMATE","institucion":"GOBIERNO REGIONAL","codigoMinsa":2841,"direccion":"CALLE CALLE IGNACIO JOVE S/N S/N CALLE IGNACIO JOVE S/N OMATE GENERAL SANCHEZ CERRO MOQUEGUA","disa":"MOQUEGUA","red":"MOQUEGUA","microrred":"OMATE","categoria":"ESTABLECIMIENTO DE SALUD SIN INTERNAMIENTO","condicion":"ACTIVO","actualizado":"2023/08/01 19:00:00.000","fuente":"MINSA","urlRenipr":"http://app20.susalud.gob.pe:8080/registro-renipress-webapp/ipress.htm?action=mostrarVer&idipress=00002841"}},{"type":"Feature","geometry":{"type":"Point","coordinates":[-71.31519219999996,-17.65531777999996]},"properties":{"objectid":27533,"nombre":"P.S. LOS ANGELES - ILO","departamento":"MOQUEGUA","provincia":"ILO","distrito":"ILO","institucion":"GOBIERNO REGIONAL","codigoMinsa":7731,"direccion":"OTROS A.H. LOS ANGELES MZ. O LT. 2 PAMPA INALAMBRICA A.H. LOS ANGELES MZ. O LT. 2 PAMPA INALAMBRICA ILO ILO MOQUEGUA","disa":"MOQUEGUA","red":"ILO","microrred":"ILO","categoria":"ESTABLECIMIENTO DE SALUD SIN INTERNAMIENTO","condicion":"ACTIVO","actualizado":"2023/08/01 19:00:00.000","fuente":"MINSA","urlRenipr":"http://app20.susalud.gob.pe:8080/registro-renipress-webapp/ipress.htm?action=mostrarVer&idipress=00007731"}},{"type":"Feature","geometry":{"type":"Point","coordinates":[-70.93619740999998,-17.195875219999948]},"properties":{"objectid":28219,"nombre":"POLICLINICO SERSI MEDIC SAC","departamento":"MOQUEGUA","provincia":"MARISCAL NIETO","distrito":"MOQUEGUA","institucion":"PRIVADO","codigoMinsa":31493,"direccion":"CALLE junin N?ERO 352 DISTRITO MOQUEGUA PROVINCIA MARISCAL NIETO DEPARTAMENTO MOQUEGUA","disa":"MOQUEGUA","red":"","microrred":"","categoria":"ESTABLECIMIENTO DE SALUD SIN INTERNAMIENTO","condicion":"ACTIVO","actualizado":"2023/08/01 19:00:00.000","fuente":"MINSA","urlRenipr":"http://app20.susalud.gob.pe:8080/registro-renipress-webapp/ipress.htm?action=mostrarVer&idipress=00031493"}},{"type":"Feature","geometry":{"type":"Point","coordinates":[-71.34503947999997,-17.644349489999968]},"properties":{"objectid":28909,"nombre":"POLICLINICO SERVIMEDIQ","departamento":"MOQUEGUA","provincia":"ILO","distrito":"ILO","institucion":"PRIVADO","codigoMinsa":18616,"direccion":"JIRÓN JR. ABTAO Nº 437 - 443 DISTRITO ILO PROVINCIA ILO DEPARTAMENTO MOQUEGUA","disa":"MOQUEGUA","red":"NO PERTENECE A NINGUNA RED","microrred":"NO PERTENECE A NINGUNA MICRORED","categoria":"ESTABLECIMIENTO DE SALUD SIN INTERNAMIENTO","condicion":"ACTIVO","actualizado":"2023/08/01 19:00:00.000","fuente":"MINSA","urlRenipr":"http://app20.susalud.gob.pe:8080/registro-renipress-webapp/ipress.htm?action=mostrarVer&idipress=00018616"}},{"type":"Feature","geometry":{"type":"Point","coordinates":[-70.67420544999999,-17.14355005999994]},"properties":{"objectid":29434,"nombre":"QUALAB","departamento":"MOQUEGUA","provincia":"MARISCAL NIETO","distrito":"MOQUEGUA","institucion":"PRIVADO","codigoMinsa":28359,"direccion":"OTROS VIA VECINAL R1801210 7 Campamento Cortadera MOQUEGUA MARISCAL NIETO MOQUEGUA","disa":"MOQUEGUA","red":"NO PERTENECE A NINGUNA RED","microrred":"NO PERTENECE A NINGUNA MICRORED","categoria":"SERVICIO MÉDICO DE APOYO","condicion":"ACTIVO","actualizado":"2023/08/01 19:00:00.000","fuente":"MINSA","urlRenipr":"http://app20.susalud.gob.pe:8080/registro-renipress-webapp/ipress.htm?action=mostrarVer&idipress=00028359"}},{"type":"Feature","geometry":{"type":"Point","coordinates":[-70.66796886999998,-16.78793115999997]},"properties":{"objectid":29583,"nombre":"P.S. SOQUEZANE","departamento":"MOQUEGUA","provincia":"MARISCAL NIETO","distrito":"CUCHUMBAYA","institucion":"GOBIERNO REGIONAL","codigoMinsa":2812,"direccion":"OTROS SOQUEZANE S/N NÚMERO S/N DISTRITO CUCHUMBAYA PROVINCIA MARISCAL NIETO DEPARTAMENTO MOQUEGUA","disa":"MOQUEGUA","red":"MOQUEGUA","microrred":"CARUMAS","categoria":"ESTABLECIMIENTO DE SALUD SIN INTERNAMIENTO","condicion":"ACTIVO","actualizado":"2023/08/01 19:00:00.000","fuente":"MINSA","urlRenipr":"http://app20.susalud.gob.pe:8080/registro-renipress-webapp/ipress.htm?action=mostrarVer&idipress=00002812"}},{"type":"Feature","geometry":{"type":"Point","coordinates":[-70.85929161999996,-16.385044049999976]},"properties":{"objectid":29584,"nombre":"C.S. UBINAS","departamento":"MOQUEGUA","provincia":"GENERAL SANCHEZ CERRO","distrito":"UBINAS","institucion":"GOBIERNO REGIONAL","codigoMinsa":2857,"direccion":"CALLE CALLE ANTAPATA S/N S/N CALLE ANTAPATA S/N UBINAS GENERAL SANCHEZ CERRO MOQUEGUA","disa":"MOQUEGUA","red":"MOQUEGUA","microrred":"UBINAS","categoria":"ESTABLECIMIENTO DE SALUD SIN INTERNAMIENTO","condicion":"ACTIVO","actualizado":"2023/08/01 19:00:00.000","fuente":"MINSA","urlRenipr":"http://app20.susalud.gob.pe:8080/registro-renipress-webapp/ipress.htm?action=mostrarVer&idipress=00002857"}},{"type":"Feature","geometry":{"type":"Point","coordinates":[-70.67862771999995,-16.82438154999994]},"properties":{"objectid":29585,"nombre":"P.S. CAMBRUNE","departamento":"MOQUEGUA","provincia":"MARISCAL NIETO","distrito":"CARUMAS","institucion":"GOBIERNO REGIONAL","codigoMinsa":2808,"direccion":"CALLE CALLE 28 DE JULIO S/N S/N CALLE 28 DE JULIO S/N CARUMAS MARISCAL NIETO MOQUEGUA","disa":"MOQUEGUA","red":"MOQUEGUA","microrred":"CARUMAS","categoria":"ESTABLECIMIENTO DE SALUD SIN INTERNAMIENTO","condicion":"ACTIVO","actualizado":"2023/08/01 19:00:00.000","fuente":"MINSA","urlRenipr":"http://app20.susalud.gob.pe:8080/registro-renipress-webapp/ipress.htm?action=mostrarVer&idipress=00002808"}},{"type":"Feature","geometry":{"type":"Point","coordinates":[-70.67988282999994,-16.194136469999933]},"properties":{"objectid":29586,"nombre":"P.S. YUNGA","departamento":"MOQUEGUA","provincia":"GENERAL SANCHEZ CERRO","distrito":"YUNGA","institucion":"GOBIERNO REGIONAL","codigoMinsa":2862,"direccion":"CALLE CALLE AVELINO CACERES S/N S/N CALLE AVELINO CACERES S/N YUNGA GENERAL SANCHEZ CERRO MOQUEGUA","disa":"MOQUEGUA","red":"MOQUEGUA","microrred":"ICHUÑA","categoria":"ESTABLECIMIENTO DE SALUD SIN INTERNAMIENTO","condicion":"ACTIVO","actualizado":"2023/08/01 19:00:00.000","fuente":"MINSA","urlRenipr":"http://app20.susalud.gob.pe:8080/registro-renipress-webapp/ipress.htm?action=mostrarVer&idipress=00002862"}},{"type":"Feature","geometry":{"type":"Point","coordinates":[-71.00436857999995,-16.15057117999993]},"properties":{"objectid":29587,"nombre":"P.S. QUINSACHATA","departamento":"MOQUEGUA","provincia":"GENERAL SANCHEZ CERRO","distrito":"UBINAS","institucion":"GOBIERNO REGIONAL","codigoMinsa":2861,"direccion":"OTROS C.P.M. QUINSACHATA S/N N?ERO S/N DISTRITO UBINAS PROVINCIA GENERAL SANCHEZ CERRO DEPARTAMENTO MOQUEGUA","disa":"MOQUEGUA","red":"MOQUEGUA","microrred":"ICHUÑA","categoria":"ESTABLECIMIENTO DE SALUD SIN INTERNAMIENTO","condicion":"ACTIVO","actualizado":"2023/08/01 19:00:00.000","fuente":"MINSA","urlRenipr":"http://app20.susalud.gob.pe:8080/registro-renipress-webapp/ipress.htm?action=mostrarVer&idipress=00002861"}},{"type":"Feature","geometry":{"type":"Point","coordinates":[-70.53949643999994,-16.141499179999983]},"properties":{"objectid":29588,"nombre":"C.S. ICHUÑA","departamento":"MOQUEGUA","provincia":"GENERAL SANCHEZ CERRO","distrito":"ICHUÑA","institucion":"GOBIERNO REGIONAL","codigoMinsa":2848,"direccion":"CALLE CALLE LIMA S/N S/N CALLE LIMA S/N ICHUÑA GENERAL SANCHEZ CERRO MOQUEGUA","disa":"MOQUEGUA","red":"MOQUEGUA","microrred":"ICHUÑA","categoria":"ESTABLECIMIENTO DE SALUD SIN INTERNAMIENTO","condicion":"ACTIVO","actualizado":"2023/08/01 19:00:00.000","fuente":"MINSA","urlRenipr":"http://app20.susalud.gob.pe:8080/registro-renipress-webapp/ipress.htm?action=mostrarVer&idipress=00002848"}},{"type":"Feature","geometry":{"type":"Point","coordinates":[-70.72924029999996,-16.388405269999964]},"properties":{"objectid":29589,"nombre":"P.S. CHOJATA","departamento":"MOQUEGUA","provincia":"GENERAL SANCHEZ CERRO","distrito":"CHOJATA","institucion":"GOBIERNO REGIONAL","codigoMinsa":2847,"direccion":"CALLE CALLE JUAN VELAZCO ALVARADO S/N S/N CALLE JUAN VELAZCO ALVARADO S/N CHOJATA GENERAL SANCHEZ CERRO MOQUEGUA","disa":"MOQUEGUA","red":"MOQUEGUA","microrred":"ICHUÑA","categoria":"ESTABLECIMIENTO DE SALUD SIN INTERNAMIENTO","condicion":"ACTIVO","actualizado":"2023/08/01 19:00:00.000","fuente":"MINSA","urlRenipr":"http://app20.susalud.gob.pe:8080/registro-renipress-webapp/ipress.htm?action=mostrarVer&idipress=00002847"}},{"type":"Feature","geometry":{"type":"Point","coordinates":[-70.93508428999996,-17.19358705999997]},"properties":{"objectid":30849,"nombre":"CONSULTORIO ODONTOLOGICO DENTOLIFE","departamento":"MOQUEGUA","provincia":"MARISCAL NIETO","distrito":"MOQUEGUA","institucion":"PRIVADO","codigoMinsa":28710,"direccion":"JIRÓN ANCASH NÚMERO 286 PISO 2 DISTRITO MOQUEGUA PROVINCIA MARISCAL NIETO DEPARTAMENTO MOQUEGUA","disa":"MOQUEGUA","red":"NO PERTENECE A NINGUNA RED","microrred":"NO PERTENECE A NINGUNA MICRORED","categoria":"ESTABLECIMIENTO DE SALUD SIN INTERNAMIENTO","condicion":"ACTIVO","actualizado":"2023/08/01 19:00:00.000","fuente":"MINSA","urlRenipr":"http://app20.susalud.gob.pe:8080/registro-renipress-webapp/ipress.htm?action=mostrarVer&idipress=00028710"}},{"type":"Feature","geometry":{"type":"Point","coordinates":[-70.49014337999995,-16.134968149999963]},"properties":{"objectid":31686,"nombre":"P.S. UMALZO","departamento":"MOQUEGUA","provincia":"GENERAL SANCHEZ CERRO","distrito":"ICHUÑA","institucion":"GOBIERNO REGIONAL","codigoMinsa":2850,"direccion":"OTROS UMALZO S/N NÚMERO S/N DISTRITO ICHUÑA PROVINCIA GENERAL SANCHEZ CERRO DEPARTAMENTO MOQUEGUA","disa":"MOQUEGUA","red":"MOQUEGUA","microrred":"ICHUÑA","categoria":"ESTABLECIMIENTO DE SALUD SIN INTERNAMIENTO","condicion":"ACTIVO","actualizado":"2023/08/01 19:00:00.000","fuente":"MINSA","urlRenipr":"http://app20.susalud.gob.pe:8080/registro-renipress-webapp/ipress.htm?action=mostrarVer&idipress=00002850"}},{"type":"Feature","geometry":{"type":"Point","coordinates":[-71.24191004999994,-16.76954300999995]},"properties":{"objectid":31687,"nombre":"P.S. YALAQUE","departamento":"MOQUEGUA","provincia":"GENERAL SANCHEZ CERRO","distrito":"LA CAPILLA","institucion":"GOBIERNO REGIONAL","codigoMinsa":2840,"direccion":"OTROS ANEXO CARRIZAL S/N NÚMERO S/N DISTRITO LA CAPILLA PROVINCIA GENERAL SANCHEZ CERRO DEPARTAMENTO MOQUEGUA","disa":"MOQUEGUA","red":"MOQUEGUA","microrred":"OMATE","categoria":"ESTABLECIMIENTO DE SALUD SIN INTERNAMIENTO","condicion":"ACTIVO","actualizado":"2023/08/01 19:00:00.000","fuente":"MINSA","urlRenipr":"http://app20.susalud.gob.pe:8080/registro-renipress-webapp/ipress.htm?action=mostrarVer&idipress=00002840"}},{"type":"Feature","geometry":{"type":"Point","coordinates":[-71.08043747999994,-16.616014339999936]},"properties":{"objectid":31688,"nombre":"P.S. AMATA","departamento":"MOQUEGUA","provincia":"GENERAL SANCHEZ CERRO","distrito":"COALAQUE","institucion":"GOBIERNO REGIONAL","codigoMinsa":2838,"direccion":"CALLE COMUNIDAD CAMPESINA AMATA, CALLE PRINCIPAL S/N NÚMERO S/N DISTRITO COALAQUE PROVINCIA GENERAL SANCHEZ CERRO DEPARTAMENTO MOQUEGUA","disa":"MOQUEGUA","red":"MOQUEGUA","microrred":"OMATE","categoria":"ESTABLECIMIENTO DE SALUD SIN INTERNAMIENTO","condicion":"ACTIVO","actualizado":"2023/08/01 19:00:00.000","fuente":"MINSA","urlRenipr":"http://app20.susalud.gob.pe:8080/registro-renipress-webapp/ipress.htm?action=mostrarVer&idipress=00002838"}},{"type":"Feature","geometry":{"type":"Point","coordinates":[-70.86666473999998,-17.094321889999947]},"properties":{"objectid":31689,"nombre":"P.S. YACANGO","departamento":"MOQUEGUA","provincia":"MARISCAL NIETO","distrito":"TORATA","institucion":"GOBIERNO REGIONAL","codigoMinsa":2835,"direccion":"OTROS YACANGO S/N S/N YACANGO S/N TORATA MARISCAL NIETO MOQUEGUA","disa":"MOQUEGUA","red":"MOQUEGUA","microrred":"MOQUEGUA","categoria":"ESTABLECIMIENTO DE SALUD SIN INTERNAMIENTO","condicion":"ACTIVO","actualizado":"2023/08/01 19:00:00.000","fuente":"MINSA","urlRenipr":"http://app20.susalud.gob.pe:8080/registro-renipress-webapp/ipress.htm?action=mostrarVer&idipress=00002835"}},{"type":"Feature","geometry":{"type":"Point","coordinates":[-71.34190299999995,-17.65179399999994]},"properties":{"objectid":31690,"nombre":"C.S. ALTO ILO","departamento":"MOQUEGUA","provincia":"ILO","distrito":"ILO","institucion":"GOBIERNO REGIONAL","codigoMinsa":2819,"direccion":"OTROS CHALACA S/N ALTO ILO S/N CHALACA S/N ALTO ILO ILO ILO MOQUEGUA","disa":"MOQUEGUA","red":"ILO","microrred":"ILO","categoria":"ESTABLECIMIENTO DE SALUD SIN INTERNAMIENTO","condicion":"ACTIVO","actualizado":"2023/08/01 19:00:00.000","fuente":"MINSA","urlRenipr":"http://app20.susalud.gob.pe:8080/registro-renipress-webapp/ipress.htm?action=mostrarVer&idipress=00002819"}},{"type":"Feature","geometry":{"type":"Point","coordinates":[-71.33737494999997,-17.65390950999995]},"properties":{"objectid":31691,"nombre":"HOSPITAL ILO","departamento":"MOQUEGUA","provincia":"ILO","distrito":"ILO","institucion":"GOBIERNO REGIONAL","codigoMinsa":2818,"direccion":"AVENIDA AVENIDA Nº 01 LOTE 01 MZ. C AREA 4 (A-4) PAMPA INALAMBRICA AVENIDA Nº 01 LOTE 01 MZ. C AREA 4 (A-4) PAMPA INALAMBRICA ILO ILO MOQUEGUA","disa":"MOQUEGUA","red":"ILO","microrred":"ILO","categoria":"ESTABLECIMIENTO DE SALUD CON INTERNAMIENTO","condicion":"ACTIVO","actualizado":"2023/08/01 19:00:00.000","fuente":"MINSA","urlRenipr":"http://app20.susalud.gob.pe:8080/registro-renipress-webapp/ipress.htm?action=mostrarVer&idipress=00002818"}},{"type":"Feature","geometry":{"type":"Point","coordinates":[-70.64793752999998,-17.118481069999973]},"properties":{"objectid":32296,"nombre":"AMBULANCIAS DEL PROYECTO QUELLAVECO","departamento":"MOQUEGUA","provincia":"MARISCAL NIETO","distrito":"TORATA","institucion":"PRIVADO","codigoMinsa":25033,"direccion":"TROCHA CARROZABLE VIA BOTIFLACA - QUELLAVECO - L.D. TACNA (RUTA N MO 523) DISTRITO TORATA PROVINCIA MARISCAL NIETO DEPARTAMENTO MOQUEGUA","disa":"","red":"","microrred":"","categoria":"SERVICIO MÉDICO DE APOYO","condicion":"RETIRO VOLUNTARIO","actualizado":"2023/08/01 19:00:00.000","fuente":"MINSA","urlRenipr":"http://app20.susalud.gob.pe:8080/registro-renipress-webapp/ipress.htm?action=mostrarVer&idipress=00025033"}},{"type":"Feature","geometry":{"type":"Point","coordinates":[-70.93566889999994,-17.198320399999943]},"properties":{"objectid":32315,"nombre":"NATCLAR CLINICAS SAC","departamento":"MOQUEGUA","provincia":"MARISCAL NIETO","distrito":"MOQUEGUA","institucion":"PRIVADO","codigoMinsa":27511,"direccion":"URBANIZACIÓN PRIMAVERA G 2 FRENTE A REGISTROS PUBLICOS MOQUEGUA MARISCAL NIETO MOQUEGUA","disa":"MOQUEGUA","red":"NO PERTENECE A NINGUNA RED","microrred":"NO PERTENECE A NINGUNA MICRORED","categoria":"ESTABLECIMIENTO DE SALUD SIN INTERNAMIENTO","condicion":"ACTIVO","actualizado":"2023/08/01 19:00:00.000","fuente":"MINSA","urlRenipr":"http://app20.susalud.gob.pe:8080/registro-renipress-webapp/ipress.htm?action=mostrarVer&idipress=00027511"}},{"type":"Feature","geometry":{"type":"Point","coordinates":[-70.93617794999994,-17.195794749999948]},"properties":{"objectid":32946,"nombre":"Centro Medico Especializado MMD 4M","departamento":"MOQUEGUA","provincia":"MARISCAL NIETO","distrito":"MOQUEGUA","institucion":"PRIVADO","codigoMinsa":30803,"direccion":"CALLE junin NÚMERO 378 PISO 1 DISTRITO MOQUEGUA PROVINCIA MARISCAL NIETO DEPARTAMENTO MOQUEGUA","disa":"MOQUEGUA","red":"","microrred":"","categoria":"ESTABLECIMIENTO DE SALUD SIN INTERNAMIENTO","condicion":"ACTIVO","actualizado":"2023/08/01 19:00:00.000","fuente":"MINSA","urlRenipr":"http://app20.susalud.gob.pe:8080/registro-renipress-webapp/ipress.htm?action=mostrarVer&idipress=00030803"}},{"type":"Feature","geometry":{"type":"Point","coordinates":[-70.93281379999996,-17.192736099999934]},"properties":{"objectid":33156,"nombre":"CENTRO ODONTOLOGICO ESPECIALIZADO \"EL CUBANO\"","departamento":"MOQUEGUA","provincia":"MARISCAL NIETO","distrito":"MOQUEGUA","institucion":"PRIVADO","codigoMinsa":27646,"direccion":"URBANIZACIÓN FONAVI I ETAPA MANZANA B LOTE 06 DISTRITO MOQUEGUA PROVINCIA MARISCAL NIETO DEPARTAMENTO MOQUEGUA","disa":"MOQUEGUA","red":"NO PERTENECE A NINGUNA RED","microrred":"NO PERTENECE A NINGUNA MICRORED","categoria":"ESTABLECIMIENTO DE SALUD SIN INTERNAMIENTO","condicion":"ACTIVO","actualizado":"2023/08/01 19:00:00.000","fuente":"MINSA","urlRenipr":"http://app20.susalud.gob.pe:8080/registro-renipress-webapp/ipress.htm?action=mostrarVer&idipress=00027646"}}]}