{"type":"FeatureCollection","features":[{"type":"Feature","geometry":{"type":"Point","coordinates":[-73.25248697999996,-3.7275841199999604]},"properties":{"objectid":28815,"nombre":"CENTRO MEDICO CACHUY","departamento":"SIN_UBIGEO","provincia":"","distrito":"","institucion":"PRIVADO","codigoMinsa":31444,"direccion":"AVENIDA 28 DE JULIO NÚMERO 1013 DISTRITO PUTUMAYO PROVINCIA MAYNAS DEPARTAMENTO LORETO","disa":"LORETO","red":"","microrred":"","categoria":"ESTABLECIMIENTO DE SALUD SIN INTERNAMIENTO","condicion":"ACTIVO","actualizado":"2023/08/01 19:00:00.000","fuente":"MINSA","urlRenipr":"http://app20.susalud.gob.pe:8080/registro-renipress-webapp/ipress.htm?action=mostrarVer&idipress=00031444"}}]}