{"type":"FeatureCollection","features":[{"type":"Feature","geometry":{"type":"Point","coordinates":[-80.45448994999998,-3.5624940099999662]},"properties":{"objectid":13124,"nombre":"LABORATORIO CLÍNICO SAN MARTÍN DE PORRES","departamento":"TUMBES","provincia":"TUMBES","distrito":"TUMBES","institucion":"PRIVADO","codigoMinsa":28508,"direccion":"CALLE Mariano Melgar NÚMERO 299 PISO 1 DEPARTAMENTO 1 DISTRITO TUMBES PROVINCIA TUMBES DEPARTAMENTO TUMBES","disa":"TUMBES","red":"NO PERTENECE A NINGUNA RED","microrred":"NO PERTENECE A NINGUNA MICRORED","categoria":"SERVICIO MÉDICO DE APOYO","condicion":"ACTIVO","actualizado":"2023/08/01 19:00:00.000","fuente":"MINSA","urlRenipr":"http://app20.susalud.gob.pe:8080/registro-renipress-webapp/ipress.htm?action=mostrarVer&idipress=00028508"}},{"type":"Feature","geometry":{"type":"Point","coordinates":[-80.42198156999996,-3.5686029599999642]},"properties":{"objectid":7751,"nombre":"INTEGRAL PHYSIOTHERAPY CENTER","departamento":"TUMBES","provincia":"TUMBES","distrito":"TUMBES","institucion":"PRIVADO","codigoMinsa":24673,"direccion":"CALLE SAN PEDRO MANZANA H LOTE 06 URBANIZACIÓN JOSE LISNHER TUDELA II ETAPA DISTRITO TUMBES PROVINCIA TUMBES DEPARTAMENTO TUMBES","disa":"TUMBES","red":"NO PERTENECE A NINGUNA RED","microrred":"NO PERTENECE A NINGUNA MICRORED","categoria":"SERVICIO MÉDICO DE APOYO","condicion":"ACTIVO","actualizado":"2023/08/01 19:00:00.000","fuente":"MINSA","urlRenipr":"http://app20.susalud.gob.pe:8080/registro-renipress-webapp/ipress.htm?action=mostrarVer&idipress=00024673"}},{"type":"Feature","geometry":{"type":"Point","coordinates":[-80.24152332999995,-3.5075199999999427]},"properties":{"objectid":4194,"nombre":"POCITOS","departamento":"TUMBES","provincia":"ZARUMILLA","distrito":"AGUAS VERDES","institucion":"GOBIERNO REGIONAL","codigoMinsa":1887,"direccion":"OTROS POCITOS DISTRITO AGUAS VERDES PROVINCIA ZARUMILLA DEPARTAMENTO TUMBES","disa":"TUMBES","red":"TUMBES","microrred":"ZARUMILLA","categoria":"ESTABLECIMIENTO DE SALUD SIN INTERNAMIENTO","condicion":"ACTIVO","actualizado":"2023/08/01 19:00:00.000","fuente":"MINSA","urlRenipr":"http://app20.susalud.gob.pe:8080/registro-renipress-webapp/ipress.htm?action=mostrarVer&idipress=00001887"}},{"type":"Feature","geometry":{"type":"Point","coordinates":[-80.45531606999998,-3.563125789999958]},"properties":{"objectid":1384,"nombre":"LABORATORIO DE ANÁLISIS BIOQUÍMICOS Y CLÍNICOS ROMAN","departamento":"TUMBES","provincia":"TUMBES","distrito":"TUMBES","institucion":"PRIVADO","codigoMinsa":26995,"direccion":"AVENIDA TUMBES NORTE N?ERO 606 PISO 2 DEPARTAMENTO 1 DISTRITO TUMBES PROVINCIA TUMBES DEPARTAMENTO TUMBES","disa":"TUMBES","red":"NO PERTENECE A NINGUNA RED","microrred":"NO PERTENECE A NINGUNA MICRORED","categoria":"SERVICIO MÉDICO DE APOYO","condicion":"ACTIVO","actualizado":"2023/08/01 19:00:00.000","fuente":"MINSA","urlRenipr":"http://app20.susalud.gob.pe:8080/registro-renipress-webapp/ipress.htm?action=mostrarVer&idipress=00026995"}},{"type":"Feature","geometry":{"type":"Point","coordinates":[-80.44642903999994,-3.5695471099999736]},"properties":{"objectid":2086,"nombre":"CENTRO DE SALUD MILITAR VIRGEN DE FÁTIMA DE LA 9ª BRIGADA BLINDADA","departamento":"TUMBES","provincia":"TUMBES","distrito":"TUMBES","institucion":"SANIDAD DEL EJERCITO DEL PERU","codigoMinsa":11996,"direccion":"PROLONGACIÓN HILARIO CARRASCO SIN NUMERO - TABLAZO DISTRITO TUMBES PROVINCIA TUMBES DEPARTAMENTO TUMBES","disa":"TUMBES","red":"NO PERTENECE A NINGUNA RED","microrred":"NO PERTENECE A NINGUNA MICRORED","categoria":"ESTABLECIMIENTO DE SALUD SIN INTERNAMIENTO","condicion":"ACTIVO","actualizado":"2023/08/01 19:00:00.000","fuente":"MINSA","urlRenipr":"http://app20.susalud.gob.pe:8080/registro-renipress-webapp/ipress.htm?action=mostrarVer&idipress=00011996"}},{"type":"Feature","geometry":{"type":"Point","coordinates":[-80.23234214999997,-3.5371896299999435]},"properties":{"objectid":2087,"nombre":"UÑA DE GATO","departamento":"TUMBES","provincia":"ZARUMILLA","distrito":"PAPAYAL","institucion":"GOBIERNO REGIONAL","codigoMinsa":1893,"direccion":"AVENIDA AV. PRINCIPAL S/N S/N AV. PRINCIPAL S/N PAPAYAL ZARUMILLA TUMBES","disa":"TUMBES","red":"TUMBES","microrred":"ZARUMILLA","categoria":"ESTABLECIMIENTO DE SALUD SIN INTERNAMIENTO","condicion":"ACTIVO","actualizado":"2023/08/01 19:00:00.000","fuente":"MINSA","urlRenipr":"http://app20.susalud.gob.pe:8080/registro-renipress-webapp/ipress.htm?action=mostrarVer&idipress=00001893"}},{"type":"Feature","geometry":{"type":"Point","coordinates":[-80.44800708999998,-3.642150019999974]},"properties":{"objectid":2088,"nombre":"SAN JACINTO","departamento":"TUMBES","provincia":"TUMBES","distrito":"SAN JACINTO","institucion":"GOBIERNO REGIONAL","codigoMinsa":1870,"direccion":"CALLE CALLE HORACIO PATIÑO N° 328 CALLE HORACIO PATIÑO N° 328 SAN JACINTO TUMBES TUMBES","disa":"TUMBES","red":"TUMBES","microrred":"CORRALES","categoria":"ESTABLECIMIENTO DE SALUD SIN INTERNAMIENTO","condicion":"ACTIVO","actualizado":"2023/08/01 19:00:00.000","fuente":"MINSA","urlRenipr":"http://app20.susalud.gob.pe:8080/registro-renipress-webapp/ipress.htm?action=mostrarVer&idipress=00001870"}},{"type":"Feature","geometry":{"type":"Point","coordinates":[-80.76744415999997,-3.738431809999952]},"properties":{"objectid":2089,"nombre":"ACAPULCO.","departamento":"TUMBES","provincia":"CONTRALMIRANTE VILLAR","distrito":"ZORRITOS","institucion":"GOBIERNO REGIONAL","codigoMinsa":1903,"direccion":"CALLE CALLE TUPAC AMARU Nº 216 ACAPULCO DISTRITO ZORRITOS PROVINCIA CONTRALMIRANTE VILLAR DEPARTAMENTO TUMBES","disa":"TUMBES","red":"TUMBES","microrred":"ZORRITOS","categoria":"ESTABLECIMIENTO DE SALUD SIN INTERNAMIENTO","condicion":"ACTIVO","actualizado":"2023/08/01 19:00:00.000","fuente":"MINSA","urlRenipr":"http://app20.susalud.gob.pe:8080/registro-renipress-webapp/ipress.htm?action=mostrarVer&idipress=00001903"}},{"type":"Feature","geometry":{"type":"Point","coordinates":[-80.45822279999999,-3.564480099999969]},"properties":{"objectid":2090,"nombre":"I HOGAR PROTEGIDO TUMBES","departamento":"TUMBES","provincia":"TUMBES","distrito":"TUMBES","institucion":"GOBIERNO REGIONAL","codigoMinsa":29717,"direccion":"AVENIDA ARICA NÚMERO 339 DISTRITO TUMBES PROVINCIA TUMBES DEPARTAMENTO TUMBES","disa":"TUMBES","red":"TUMBES","microrred":"PAMPA GRANDE","categoria":"SERVICIO MÉDICO DE APOYO","condicion":"ACTIVO","actualizado":"2023/08/01 19:00:00.000","fuente":"MINSA","urlRenipr":"http://app20.susalud.gob.pe:8080/registro-renipress-webapp/ipress.htm?action=mostrarVer&idipress=00029717"}},{"type":"Feature","geometry":{"type":"Point","coordinates":[-80.39182832999995,-3.503104999999948]},"properties":{"objectid":2091,"nombre":"PUERTO PIZARRO","departamento":"TUMBES","provincia":"TUMBES","distrito":"TUMBES","institucion":"GOBIERNO REGIONAL","codigoMinsa":1883,"direccion":"AVENIDA AV. JOSE OLAYA S/N PTO. PIZARRO NÚMERO S/N DISTRITO TUMBES PROVINCIA TUMBES DEPARTAMENTO TUMBES","disa":"TUMBES","red":"TUMBES","microrred":"PAMPA GRANDE","categoria":"ESTABLECIMIENTO DE SALUD SIN INTERNAMIENTO","condicion":"ACTIVO","actualizado":"2023/08/01 19:00:00.000","fuente":"MINSA","urlRenipr":"http://app20.susalud.gob.pe:8080/registro-renipress-webapp/ipress.htm?action=mostrarVer&idipress=00001883"}},{"type":"Feature","geometry":{"type":"Point","coordinates":[-80.45545658999998,-3.5637151999999332]},"properties":{"objectid":4021,"nombre":"TOMOSAC","departamento":"TUMBES","provincia":"TUMBES","distrito":"TUMBES","institucion":"PRIVADO","codigoMinsa":28545,"direccion":"AVENIDA SIMON BOLIVAR NÚMERO 646 PISO 1 DISTRITO TUMBES PROVINCIA TUMBES DEPARTAMENTO TUMBES","disa":"TUMBES","red":"NO PERTENECE A NINGUNA RED","microrred":"NO PERTENECE A NINGUNA MICRORED","categoria":"SERVICIO MÉDICO DE APOYO","condicion":"ACTIVO","actualizado":"2023/08/01 19:00:00.000","fuente":"MINSA","urlRenipr":"http://app20.susalud.gob.pe:8080/registro-renipress-webapp/ipress.htm?action=mostrarVer&idipress=00028545"}},{"type":"Feature","geometry":{"type":"Point","coordinates":[-80.22675823999998,-3.5496672999999532]},"properties":{"objectid":4195,"nombre":"EL PORVENIR.","departamento":"TUMBES","provincia":"ZARUMILLA","distrito":"PAPAYAL","institucion":"GOBIERNO REGIONAL","codigoMinsa":1894,"direccion":"AVENIDA AV. PRINCIPAL S/N EL PORVENIR NÚMERO S/N DISTRITO PAPAYAL PROVINCIA ZARUMILLA DEPARTAMENTO TUMBES","disa":"TUMBES","red":"TUMBES","microrred":"ZARUMILLA","categoria":"ESTABLECIMIENTO DE SALUD SIN INTERNAMIENTO","condicion":"ACTIVO","actualizado":"2023/08/01 19:00:00.000","fuente":"MINSA","urlRenipr":"http://app20.susalud.gob.pe:8080/registro-renipress-webapp/ipress.htm?action=mostrarVer&idipress=00001894"}},{"type":"Feature","geometry":{"type":"Point","coordinates":[-80.45370499999996,-3.73461666999998]},"properties":{"objectid":4196,"nombre":"CASA BLANQUEADA","departamento":"TUMBES","provincia":"TUMBES","distrito":"SAN JACINTO","institucion":"GOBIERNO REGIONAL","codigoMinsa":1873,"direccion":"OTROS CASA BLANQUEADA SECTOR TABLAZO S/N NÚMERO S/N DISTRITO SAN JACINTO PROVINCIA TUMBES DEPARTAMENTO TUMBES","disa":"TUMBES","red":"TUMBES","microrred":"CORRALES","categoria":"ESTABLECIMIENTO DE SALUD SIN INTERNAMIENTO","condicion":"ACTIVO","actualizado":"2023/08/01 19:00:00.000","fuente":"MINSA","urlRenipr":"http://app20.susalud.gob.pe:8080/registro-renipress-webapp/ipress.htm?action=mostrarVer&idipress=00001873"}},{"type":"Feature","geometry":{"type":"Point","coordinates":[-80.50053999999994,-3.8039016699999593]},"properties":{"objectid":4197,"nombre":"RICA PLAYA","departamento":"TUMBES","provincia":"TUMBES","distrito":"SAN JACINTO","institucion":"GOBIERNO REGIONAL","codigoMinsa":1871,"direccion":"OTROS RICA PLAYA S/N NÚMERO S/N DISTRITO SAN JACINTO PROVINCIA TUMBES DEPARTAMENTO TUMBES","disa":"TUMBES","red":"TUMBES","microrred":"CORRALES","categoria":"ESTABLECIMIENTO DE SALUD SIN INTERNAMIENTO","condicion":"ACTIVO","actualizado":"2023/08/01 19:00:00.000","fuente":"MINSA","urlRenipr":"http://app20.susalud.gob.pe:8080/registro-renipress-webapp/ipress.htm?action=mostrarVer&idipress=00001871"}},{"type":"Feature","geometry":{"type":"Point","coordinates":[-80.28679823999994,-3.5039723699999286]},"properties":{"objectid":4208,"nombre":"enfermería del fuerte \"zarumilla\"","departamento":"TUMBES","provincia":"ZARUMILLA","distrito":"ZARUMILLA","institucion":"SANIDAD DEL EJERCITO DEL PERU","codigoMinsa":26245,"direccion":"AVENIDA PANAMERICANA NORTE NÚMERO SIN NUMERO PISO 1 DEPARTAMENTO 1 INTERIOR 1 MANZANA 1 LOTE 1 URBANIZACIÓN FUERTE \"ZARUMILLA\" DISTRITO ZARUMILLA PROVINCIA ZARUMILLA DEPARTAMENTO TUMBES","disa":"TUMBES","red":"NO PERTENECE A NINGUNA RED","microrred":"NO PERTENECE A NINGUNA MICRORED","categoria":"ESTABLECIMIENTO DE SALUD SIN INTERNAMIENTO","condicion":"ACTIVO","actualizado":"2023/08/01 19:00:00.000","fuente":"MINSA","urlRenipr":"http://app20.susalud.gob.pe:8080/registro-renipress-webapp/ipress.htm?action=mostrarVer&idipress=00026245"}},{"type":"Feature","geometry":{"type":"Point","coordinates":[-80.45571999999999,-3.5634739999999283]},"properties":{"objectid":5321,"nombre":"SAN FRANCISCO DE BORJA","departamento":"TUMBES","provincia":"TUMBES","distrito":"TUMBES","institucion":"PRIVADO","codigoMinsa":25956,"direccion":"AVENIDA TUMBES N?ERO 592 DISTRITO TUMBES PROVINCIA TUMBES DEPARTAMENTO TUMBES","disa":"","red":"","microrred":"","categoria":"ESTABLECIMIENTO DE SALUD SIN INTERNAMIENTO","condicion":"RETIRO VOLUNTARIO","actualizado":"2023/08/01 19:00:00.000","fuente":"MINSA","urlRenipr":"http://app20.susalud.gob.pe:8080/registro-renipress-webapp/ipress.htm?action=mostrarVer&idipress=00025956"}},{"type":"Feature","geometry":{"type":"Point","coordinates":[-80.42889898999994,-3.5552071199999773]},"properties":{"objectid":5474,"nombre":"CENTRO TRAUMATOLOGICO DEL NORTE","departamento":"TUMBES","provincia":"TUMBES","distrito":"TUMBES","institucion":"PRIVADO","codigoMinsa":25810,"direccion":"CALLE matilde avalos MANZANA 3 LOTE 2 URBANIZACI? ANDRES ARAUJO MORAN DISTRITO TUMBES PROVINCIA TUMBES DEPARTAMENTO TUMBES","disa":"","red":"","microrred":"","categoria":"ESTABLECIMIENTO DE SALUD SIN INTERNAMIENTO","condicion":"RETIRO VOLUNTARIO","actualizado":"2023/08/01 19:00:00.000","fuente":"MINSA","urlRenipr":"http://app20.susalud.gob.pe:8080/registro-renipress-webapp/ipress.htm?action=mostrarVer&idipress=00025810"}},{"type":"Feature","geometry":{"type":"Point","coordinates":[-80.42943542999996,-3.5542326699999762]},"properties":{"objectid":5619,"nombre":"CENTRO RENAL HABICH SAC","departamento":"TUMBES","provincia":"TUMBES","distrito":"TUMBES","institucion":"PRIVADO","codigoMinsa":26238,"direccion":"CARRETERA Panamericana Norte MANZANA I LOTE 5 URBANIZACIÓN Andres Araujo Moran DISTRITO TUMBES PROVINCIA TUMBES DEPARTAMENTO TUMBES","disa":"TUMBES","red":"NO PERTENECE A NINGUNA RED","microrred":"NO PERTENECE A NINGUNA MICRORED","categoria":"SERVICIO MÉDICO DE APOYO","condicion":"ACTIVO","actualizado":"2023/08/01 19:00:00.000","fuente":"MINSA","urlRenipr":"http://app20.susalud.gob.pe:8080/registro-renipress-webapp/ipress.htm?action=mostrarVer&idipress=00026238"}},{"type":"Feature","geometry":{"type":"Point","coordinates":[-80.42931204999996,-3.554238029999965]},"properties":{"objectid":5620,"nombre":"CENTRO RENAL HABICH SAC II","departamento":"TUMBES","provincia":"TUMBES","distrito":"TUMBES","institucion":"PRIVADO","codigoMinsa":29119,"direccion":"CARRETERA Panamericana Norte I 4 Andres Araujo Moran TUMBES TUMBES TUMBES","disa":"TUMBES","red":"","microrred":"NO PERTENECE A NINGUNA MICRORED","categoria":"SERVICIO MÉDICO DE APOYO","condicion":"ACTIVO","actualizado":"2023/08/01 19:00:00.000","fuente":"MINSA","urlRenipr":"http://app20.susalud.gob.pe:8080/registro-renipress-webapp/ipress.htm?action=mostrarVer&idipress=00029119"}},{"type":"Feature","geometry":{"type":"Point","coordinates":[-80.45465069999995,-3.5599233999999456]},"properties":{"objectid":6244,"nombre":"ENFERMERIA VILLA NAVAL -TUMBES","departamento":"TUMBES","provincia":"TUMBES","distrito":"TUMBES","institucion":"SANIDAD DE LA MARINA DE GUERRA DEL PERU","codigoMinsa":8017,"direccion":"AVENIDA AV. LOS TUMPIS S/N VILLA NAVAL -TUMBES NÚMERO S/N DISTRITO TUMBES PROVINCIA TUMBES DEPARTAMENTO TUMBES","disa":"TUMBES","red":"NO PERTENECE A NINGUNA RED","microrred":"NO PERTENECE A NINGUNA MICRORED","categoria":"ESTABLECIMIENTO DE SALUD SIN INTERNAMIENTO","condicion":"ACTIVO","actualizado":"2023/08/01 19:00:00.000","fuente":"MINSA","urlRenipr":"http://app20.susalud.gob.pe:8080/registro-renipress-webapp/ipress.htm?action=mostrarVer&idipress=00008017"}},{"type":"Feature","geometry":{"type":"Point","coordinates":[-80.43429012999997,-3.6263031599999636]},"properties":{"objectid":6290,"nombre":"CLAS SAN JUAN DE LA VIRGEN","departamento":"TUMBES","provincia":"TUMBES","distrito":"SAN JUAN DE LA VIRGEN","institucion":"GOBIERNO REGIONAL","codigoMinsa":1879,"direccion":"CALLE CALLE ANDRES ARAUJO S/N SAN JUAN DE LA VIRGEN NÚMERO S/N DISTRITO SAN JUAN DE LA VIRGEN PROVINCIA TUMBES DEPARTAMENTO TUMBES","disa":"TUMBES","red":"TUMBES","microrred":"PAMPA GRANDE","categoria":"ESTABLECIMIENTO DE SALUD SIN INTERNAMIENTO","condicion":"ACTIVO","actualizado":"2023/08/01 19:00:00.000","fuente":"MINSA","urlRenipr":"http://app20.susalud.gob.pe:8080/registro-renipress-webapp/ipress.htm?action=mostrarVer&idipress=00001879"}},{"type":"Feature","geometry":{"type":"Point","coordinates":[-80.19708802999997,-3.6137740899999358]},"properties":{"objectid":6291,"nombre":"LECHUGAL","departamento":"TUMBES","provincia":"ZARUMILLA","distrito":"PAPAYAL","institucion":"GOBIERNO REGIONAL","codigoMinsa":1895,"direccion":"AVENIDA AV. PRINCIPAL S/N LECHUGAL NÚMERO S/N DISTRITO PAPAYAL PROVINCIA ZARUMILLA DEPARTAMENTO TUMBES","disa":"TUMBES","red":"TUMBES","microrred":"ZARUMILLA","categoria":"ESTABLECIMIENTO DE SALUD SIN INTERNAMIENTO","condicion":"ACTIVO","actualizado":"2023/08/01 19:00:00.000","fuente":"MINSA","urlRenipr":"http://app20.susalud.gob.pe:8080/registro-renipress-webapp/ipress.htm?action=mostrarVer&idipress=00001895"}},{"type":"Feature","geometry":{"type":"Point","coordinates":[-80.46062559999996,-3.5695572999999285]},"properties":{"objectid":6317,"nombre":"POLICLINICO MILITAR \"GRAL BRIG JORGE GUIMAC BONIFAZ\"","departamento":"TUMBES","provincia":"TUMBES","distrito":"TUMBES","institucion":"SANIDAD DEL EJERCITO DEL PERU","codigoMinsa":20245,"direccion":"AVENIDA AV. TACNA Nº 101 DISTRITO TUMBES PROVINCIA TUMBES DEPARTAMENTO TUMBES","disa":"TUMBES","red":"NO PERTENECE A NINGUNA RED","microrred":"NO PERTENECE A NINGUNA MICRORED","categoria":"ESTABLECIMIENTO DE SALUD CON INTERNAMIENTO","condicion":"ACTIVO","actualizado":"2023/08/01 19:00:00.000","fuente":"MINSA","urlRenipr":"http://app20.susalud.gob.pe:8080/registro-renipress-webapp/ipress.htm?action=mostrarVer&idipress=00020245"}},{"type":"Feature","geometry":{"type":"Point","coordinates":[-80.67904482999995,-3.6805012899999383]},"properties":{"objectid":7868,"nombre":"POSTA MEDICA ZORRITOS","departamento":"TUMBES","provincia":"CONTRALMIRANTE VILLAR","distrito":"ZORRITOS","institucion":"ESSALUD","codigoMinsa":12273,"direccion":"PROLONGACIÓN PROLONG. GRAU NRO. S/N NÚMERO S/N DISTRITO ZORRITOS PROVINCIA CONTRALMIRANTE VILLAR DEPARTAMENTO TUMBES","disa":"TUMBES","red":"NO PERTENECE A NINGUNA RED","microrred":"NO PERTENECE A NINGUNA MICRORED","categoria":"ESTABLECIMIENTO DE SALUD SIN INTERNAMIENTO","condicion":"ACTIVO","actualizado":"2023/08/01 19:00:00.000","fuente":"MINSA","urlRenipr":"http://app20.susalud.gob.pe:8080/registro-renipress-webapp/ipress.htm?action=mostrarVer&idipress=00012273"}},{"type":"Feature","geometry":{"type":"Point","coordinates":[-80.45329668999995,-3.560525899999959]},"properties":{"objectid":8282,"nombre":"GLOBAL MEDIC","departamento":"TUMBES","provincia":"TUMBES","distrito":"TUMBES","institucion":"PRIVADO","codigoMinsa":30488,"direccion":"AVENIDA LOS TUMPIS NÚMERO 103 DISTRITO TUMBES PROVINCIA TUMBES DEPARTAMENTO TUMBES","disa":"TUMBES","red":"","microrred":"","categoria":"ESTABLECIMIENTO DE SALUD SIN INTERNAMIENTO","condicion":"ACTIVO","actualizado":"2023/08/01 19:00:00.000","fuente":"MINSA","urlRenipr":"http://app20.susalud.gob.pe:8080/registro-renipress-webapp/ipress.htm?action=mostrarVer&idipress=00030488"}},{"type":"Feature","geometry":{"type":"Point","coordinates":[-80.45615291999997,-3.5624244099999487]},"properties":{"objectid":8397,"nombre":"GERARDO GONZALES VILLEGAS","departamento":"TUMBES","provincia":"TUMBES","distrito":"TUMBES","institucion":"GOBIERNO REGIONAL","codigoMinsa":23014,"direccion":"CALLE CALLE 24 julio NÚMERO 565 DISTRITO TUMBES PROVINCIA TUMBES DEPARTAMENTO TUMBES","disa":"TUMBES","red":"TUMBES","microrred":"PAMPA GRANDE","categoria":"ESTABLECIMIENTO DE SALUD SIN INTERNAMIENTO","condicion":"ACTIVO","actualizado":"2023/08/01 19:00:00.000","fuente":"MINSA","urlRenipr":"http://app20.susalud.gob.pe:8080/registro-renipress-webapp/ipress.htm?action=mostrarVer&idipress=00023014"}},{"type":"Feature","geometry":{"type":"Point","coordinates":[-80.45681999999994,-3.5718349999999646]},"properties":{"objectid":9484,"nombre":"CLINICA FEIJOO EIRL","departamento":"TUMBES","provincia":"TUMBES","distrito":"TUMBES","institucion":"PRIVADO","codigoMinsa":7874,"direccion":"AVENIDA AV. MARISCAL CASTILLA N° 305 DISTRITO TUMBES PROVINCIA TUMBES DEPARTAMENTO TUMBES","disa":"TUMBES","red":"NO PERTENECE A NINGUNA RED","microrred":"NO PERTENECE A NINGUNA MICRORED","categoria":"ESTABLECIMIENTO DE SALUD CON INTERNAMIENTO","condicion":"ACTIVO","actualizado":"2023/08/01 19:00:00.000","fuente":"MINSA","urlRenipr":"http://app20.susalud.gob.pe:8080/registro-renipress-webapp/ipress.htm?action=mostrarVer&idipress=00007874"}},{"type":"Feature","geometry":{"type":"Point","coordinates":[-80.45364772999994,-3.5608449599999403]},"properties":{"objectid":10047,"nombre":"CENTRO MEDICO VIRGEN DE LA PUERTA","departamento":"TUMBES","provincia":"TUMBES","distrito":"TUMBES","institucion":"PRIVADO","codigoMinsa":14280,"direccion":"AVENIDA AV. TUMBES NORTE N°838 AV. TUMBES NORTE N°838 TUMBES TUMBES TUMBES","disa":"TUMBES","red":"NO PERTENECE A NINGUNA RED","microrred":"NO PERTENECE A NINGUNA MICRORED","categoria":"ESTABLECIMIENTO DE SALUD SIN INTERNAMIENTO","condicion":"ACTIVO","actualizado":"2023/08/01 19:00:00.000","fuente":"MINSA","urlRenipr":"http://app20.susalud.gob.pe:8080/registro-renipress-webapp/ipress.htm?action=mostrarVer&idipress=00014280"}},{"type":"Feature","geometry":{"type":"Point","coordinates":[-80.31597929999998,-3.450903799999935]},"properties":{"objectid":10465,"nombre":"ENFERMERIA DESTACAMENTO INFANTERIA DE MARINA \"EL SALTO\"","departamento":"TUMBES","provincia":"ZARUMILLA","distrito":"ZARUMILLA","institucion":"SANIDAD DE LA MARINA DE GUERRA DEL PERU","codigoMinsa":8016,"direccion":"CARRETERA EL BENDITO S/N - ZARUMILLA","disa":"","red":"","microrred":"","categoria":"ESTABLECIMIENTO DE SALUD SIN INTERNAMIENTO","condicion":"RETIRO VOLUNTARIO","actualizado":"2023/08/01 19:00:00.000","fuente":"MINSA","urlRenipr":"http://app20.susalud.gob.pe:8080/registro-renipress-webapp/ipress.htm?action=mostrarVer&idipress=00008016"}},{"type":"Feature","geometry":{"type":"Point","coordinates":[-80.94725477999998,-3.952020619999928]},"properties":{"objectid":10518,"nombre":"CANCAS","departamento":"TUMBES","provincia":"CONTRALMIRANTE VILLAR","distrito":"CANOAS DE PUNTA SAL","institucion":"GOBIERNO REGIONAL","codigoMinsa":1902,"direccion":"AVENIDA AV. PANAMERICANA Nº 1192 NUEVO CANCAS AV. PANAMERICANA Nº 1192 NUEVO CANCAS CANOAS DE PUNTA SAL CONTRALMIRANTE VILLAR TUMBES","disa":"TUMBES","red":"TUMBES","microrred":"ZORRITOS","categoria":"ESTABLECIMIENTO DE SALUD SIN INTERNAMIENTO","condicion":"ACTIVO","actualizado":"2023/08/01 19:00:00.000","fuente":"MINSA","urlRenipr":"http://app20.susalud.gob.pe:8080/registro-renipress-webapp/ipress.htm?action=mostrarVer&idipress=00001902"}},{"type":"Feature","geometry":{"type":"Point","coordinates":[-80.44753152999994,-3.642989299999954]},"properties":{"objectid":12504,"nombre":"consultorio medico hijas de santa ana","departamento":"TUMBES","provincia":"TUMBES","distrito":"SAN JACINTO","institucion":"PRIVADO","codigoMinsa":28489,"direccion":"AVENIDA miguel grao NÚMERO 1 PISO 1 DEPARTAMENTO 1 DISTRITO SAN JACINTO PROVINCIA TUMBES DEPARTAMENTO TUMBES","disa":"TUMBES","red":"NO PERTENECE A NINGUNA RED","microrred":"NO PERTENECE A NINGUNA MICRORED","categoria":"ESTABLECIMIENTO DE SALUD SIN INTERNAMIENTO","condicion":"ACTIVO","actualizado":"2023/08/01 19:00:00.000","fuente":"MINSA","urlRenipr":"http://app20.susalud.gob.pe:8080/registro-renipress-webapp/ipress.htm?action=mostrarVer&idipress=00028489"}},{"type":"Feature","geometry":{"type":"Point","coordinates":[-80.67750247999999,-3.6806618299999627]},"properties":{"objectid":12575,"nombre":"Helathy Future Lab","departamento":"TUMBES","provincia":"CONTRALMIRANTE VILLAR","distrito":"ZORRITOS","institucion":"PRIVADO","codigoMinsa":29530,"direccion":"AVENIDA Faustino Piaqqio NÚMERO 108 DISTRITO ZORRITOS PROVINCIA CONTRALMIRANTE VILLAR DEPARTAMENTO TUMBES","disa":"TUMBES","red":"","microrred":"","categoria":"SERVICIO MÉDICO DE APOYO","condicion":"ACTIVO","actualizado":"2023/08/01 19:00:00.000","fuente":"MINSA","urlRenipr":"http://app20.susalud.gob.pe:8080/registro-renipress-webapp/ipress.htm?action=mostrarVer&idipress=00029530"}},{"type":"Feature","geometry":{"type":"Point","coordinates":[-80.67472102999994,-3.68031665999996]},"properties":{"objectid":12609,"nombre":"LBORATORIO CLINICO BUENAVIV SRL","departamento":"TUMBES","provincia":"CONTRALMIRANTE VILLAR","distrito":"ZORRITOS","institucion":"PRIVADO","codigoMinsa":29701,"direccion":"AVENIDA GRAU NÚMERO 342 URBANIZACIÓN VILLA CERCADO DISTRITO ZORRITOS PROVINCIA CONTRALMIRANTE VILLAR DEPARTAMENTO TUMBES","disa":"","red":"","microrred":"","categoria":"SERVICIO MÉDICO DE APOYO","condicion":"RUC INACTIVO EN SUNAT","actualizado":"2023/08/01 19:00:00.000","fuente":"MINSA","urlRenipr":"http://app20.susalud.gob.pe:8080/registro-renipress-webapp/ipress.htm?action=mostrarVer&idipress=00029701"}},{"type":"Feature","geometry":{"type":"Point","coordinates":[-80.27294279999995,-3.5029113999999595]},"properties":{"objectid":12636,"nombre":"II HOGAR PROTEGIDO","departamento":"TUMBES","provincia":"ZARUMILLA","distrito":"ZARUMILLA","institucion":"GOBIERNO REGIONAL","codigoMinsa":30270,"direccion":"JIRÓN LETICIA NÚMERO 105 PISO 2 DISTRITO ZARUMILLA PROVINCIA ZARUMILLA DEPARTAMENTO TUMBES","disa":"TUMBES","red":"TUMBES","microrred":"ZARUMILLA","categoria":"SERVICIO MÉDICO DE APOYO","condicion":"ACTIVO","actualizado":"2023/08/01 19:00:00.000","fuente":"MINSA","urlRenipr":"http://app20.susalud.gob.pe:8080/registro-renipress-webapp/ipress.htm?action=mostrarVer&idipress=00030270"}},{"type":"Feature","geometry":{"type":"Point","coordinates":[-80.23539666999994,-3.5723383299999796]},"properties":{"objectid":12637,"nombre":"C.S. PAPAYAL","departamento":"TUMBES","provincia":"ZARUMILLA","distrito":"PAPAYAL","institucion":"GOBIERNO REGIONAL","codigoMinsa":1891,"direccion":"AVENIDA AV. PRINCIPAL S/N NÚMERO S/N DISTRITO PAPAYAL PROVINCIA ZARUMILLA DEPARTAMENTO TUMBES","disa":"TUMBES","red":"TUMBES","microrred":"ZARUMILLA","categoria":"ESTABLECIMIENTO DE SALUD SIN INTERNAMIENTO","condicion":"ACTIVO","actualizado":"2023/08/01 19:00:00.000","fuente":"MINSA","urlRenipr":"http://app20.susalud.gob.pe:8080/registro-renipress-webapp/ipress.htm?action=mostrarVer&idipress=00001891"}},{"type":"Feature","geometry":{"type":"Point","coordinates":[-80.97109720999998,-4.124059479999971]},"properties":{"objectid":12638,"nombre":"BARRANCOS.","departamento":"TUMBES","provincia":"CONTRALMIRANTE VILLAR","distrito":"CANOAS DE PUNTA SAL","institucion":"GOBIERNO REGIONAL","codigoMinsa":1905,"direccion":"OTROS BARRANCOS S/N NÚMERO S/N DISTRITO CANOAS DE PUNTA SAL PROVINCIA CONTRALMIRANTE VILLAR DEPARTAMENTO TUMBES","disa":"TUMBES","red":"TUMBES","microrred":"ZORRITOS","categoria":"ESTABLECIMIENTO DE SALUD SIN INTERNAMIENTO","condicion":"ACTIVO","actualizado":"2023/08/01 19:00:00.000","fuente":"MINSA","urlRenipr":"http://app20.susalud.gob.pe:8080/registro-renipress-webapp/ipress.htm?action=mostrarVer&idipress=00001905"}},{"type":"Feature","geometry":{"type":"Point","coordinates":[-80.41996178999995,-3.6689005799999563]},"properties":{"objectid":12639,"nombre":"CRUZ BLANCA.","departamento":"TUMBES","provincia":"TUMBES","distrito":"PAMPAS DE HOSPITAL","institucion":"GOBIERNO REGIONAL","codigoMinsa":1877,"direccion":"AVENIDA AV. 85 S/N CRUZ BLANCA NÚMERO S/N DISTRITO PAMPAS DE HOSPITAL PROVINCIA TUMBES DEPARTAMENTO TUMBES","disa":"TUMBES","red":"TUMBES","microrred":"PAMPA GRANDE","categoria":"ESTABLECIMIENTO DE SALUD SIN INTERNAMIENTO","condicion":"ACTIVO","actualizado":"2023/08/01 19:00:00.000","fuente":"MINSA","urlRenipr":"http://app20.susalud.gob.pe:8080/registro-renipress-webapp/ipress.htm?action=mostrarVer&idipress=00001877"}},{"type":"Feature","geometry":{"type":"Point","coordinates":[-80.45784806999995,-3.5658831199999668]},"properties":{"objectid":12654,"nombre":"ENFERMERÍA FUERTE CHAMOCHUMBI","departamento":"TUMBES","provincia":"TUMBES","distrito":"TUMBES","institucion":"SANIDAD DEL EJERCITO DEL PERU","codigoMinsa":27351,"direccion":"AVENIDA TUMBES N?ERO 451 DISTRITO TUMBES PROVINCIA TUMBES DEPARTAMENTO TUMBES","disa":"TUMBES","red":"NO PERTENECE A NINGUNA RED","microrred":"NO PERTENECE A NINGUNA MICRORED","categoria":"ESTABLECIMIENTO DE SALUD SIN INTERNAMIENTO","condicion":"ACTIVO","actualizado":"2023/08/01 19:00:00.000","fuente":"MINSA","urlRenipr":"http://app20.susalud.gob.pe:8080/registro-renipress-webapp/ipress.htm?action=mostrarVer&idipress=00027351"}},{"type":"Feature","geometry":{"type":"Point","coordinates":[-80.42708849999997,-3.556492099999957]},"properties":{"objectid":12790,"nombre":"POLICLINICO SAN FRANCISCO","departamento":"TUMBES","provincia":"TUMBES","distrito":"TUMBES","institucion":"PRIVADO","codigoMinsa":7789,"direccion":"JIRÓN JR. JAEN Nº 211 DISTRITO TUMBES PROVINCIA TUMBES DEPARTAMENTO TUMBES","disa":"TUMBES","red":"NO PERTENECE A NINGUNA RED","microrred":"NO PERTENECE A NINGUNA MICRORED","categoria":"ESTABLECIMIENTO DE SALUD SIN INTERNAMIENTO","condicion":"ACTIVO","actualizado":"2023/08/01 19:00:00.000","fuente":"MINSA","urlRenipr":"http://app20.susalud.gob.pe:8080/registro-renipress-webapp/ipress.htm?action=mostrarVer&idipress=00007789"}},{"type":"Feature","geometry":{"type":"Point","coordinates":[-80.45518731999994,-3.5723882499999604]},"properties":{"objectid":13655,"nombre":"CENTRO MEDICO VITALUZ","departamento":"TUMBES","provincia":"TUMBES","distrito":"TUMBES","institucion":"PRIVADO","codigoMinsa":23255,"direccion":"JIRÓN JAEN NÚMERO 211 DISTRITO TUMBES PROVINCIA TUMBES DEPARTAMENTO TUMBES","disa":"TUMBES","red":"NO PERTENECE A NINGUNA RED","microrred":"NO PERTENECE A NINGUNA MICRORED","categoria":"ESTABLECIMIENTO DE SALUD SIN INTERNAMIENTO","condicion":"ACTIVO","actualizado":"2023/08/01 19:00:00.000","fuente":"MINSA","urlRenipr":"http://app20.susalud.gob.pe:8080/registro-renipress-webapp/ipress.htm?action=mostrarVer&idipress=00023255"}},{"type":"Feature","geometry":{"type":"Point","coordinates":[-80.23880485999996,-3.5248505999999793]},"properties":{"objectid":14709,"nombre":"CUCHARETA BAJA","departamento":"TUMBES","provincia":"ZARUMILLA","distrito":"AGUAS VERDES","institucion":"GOBIERNO REGIONAL","codigoMinsa":1886,"direccion":"AVENIDA AV. PRINCIPAL S/N CUCHARETA BAJA S/N AV. PRINCIPAL S/N CUCHARETA BAJA AGUAS VERDES ZARUMILLA TUMBES","disa":"TUMBES","red":"TUMBES","microrred":"ZARUMILLA","categoria":"ESTABLECIMIENTO DE SALUD SIN INTERNAMIENTO","condicion":"ACTIVO","actualizado":"2023/08/01 19:00:00.000","fuente":"MINSA","urlRenipr":"http://app20.susalud.gob.pe:8080/registro-renipress-webapp/ipress.htm?action=mostrarVer&idipress=00001886"}},{"type":"Feature","geometry":{"type":"Point","coordinates":[-80.41947364999999,-3.573432529999934]},"properties":{"objectid":15830,"nombre":"HOSPITAL REGIONAL JOSE ALFREDO MENDOZA OLAVARRIA JAMO II-2","departamento":"TUMBES","provincia":"TUMBES","distrito":"TUMBES","institucion":"GOBIERNO REGIONAL","codigoMinsa":17077,"direccion":"AVENIDA AV. PROL. FERNANDO BELAUNDE NRO. S/N A.H. CIUDADELA NOE III ETAPA TUMBES S/N AV. PROL. FERNANDO BELAUNDE NRO. S/N A.H. CIUDADELA NOE III ETAPA TUMBES TUMBES TUMBES TUMBES","disa":"TUMBES","red":"NO PERTENECE A NINGUNA RED","microrred":"NO PERTENECE A NINGUNA MICRORED","categoria":"ESTABLECIMIENTO DE SALUD CON INTERNAMIENTO","condicion":"ACTIVO","actualizado":"2023/08/01 19:00:00.000","fuente":"MINSA","urlRenipr":"http://app20.susalud.gob.pe:8080/registro-renipress-webapp/ipress.htm?action=mostrarVer&idipress=00017077"}},{"type":"Feature","geometry":{"type":"Point","coordinates":[-80.43058609999997,-3.5543263699999557]},"properties":{"objectid":15917,"nombre":"CENTRO DE HEMODIALISIS SALUD RENAL S.R.L","departamento":"TUMBES","provincia":"TUMBES","distrito":"TUMBES","institucion":"PRIVADO","codigoMinsa":23650,"direccion":"CARRETERA PANAMERICANA NORTE NÚMERO 2424 MANZANA A2 LOTE 17 URBANIZACIÓN ANDRES ARAUJO DISTRITO TUMBES PROVINCIA TUMBES DEPARTAMENTO TUMBES","disa":"TUMBES","red":"NO PERTENECE A NINGUNA RED","microrred":"NO PERTENECE A NINGUNA MICRORED","categoria":"SERVICIO MÉDICO DE APOYO","condicion":"ACTIVO","actualizado":"2023/08/01 19:00:00.000","fuente":"MINSA","urlRenipr":"http://app20.susalud.gob.pe:8080/registro-renipress-webapp/ipress.htm?action=mostrarVer&idipress=00023650"}},{"type":"Feature","geometry":{"type":"Point","coordinates":[-80.45699769999999,-3.5659837999999695]},"properties":{"objectid":16191,"nombre":"MEDICENTRO ARCANGEL TUMBES 1","departamento":"TUMBES","provincia":"TUMBES","distrito":"TUMBES","institucion":"PRIVADO","codigoMinsa":10033,"direccion":"JIRÓN JR. BOLIVAR N° 248-250 DISTRITO TUMBES PROVINCIA TUMBES DEPARTAMENTO TUMBES","disa":"","red":"","microrred":"","categoria":"ESTABLECIMIENTO DE SALUD SIN INTERNAMIENTO","condicion":"RUC INACTIVO EN SUNAT","actualizado":"2023/08/01 19:00:00.000","fuente":"MINSA","urlRenipr":"http://app20.susalud.gob.pe:8080/registro-renipress-webapp/ipress.htm?action=mostrarVer&idipress=00010033"}},{"type":"Feature","geometry":{"type":"Point","coordinates":[-80.26700673999994,-3.4903768699999773]},"properties":{"objectid":16262,"nombre":"POSTA MEDICA ZARUMILLA","departamento":"TUMBES","provincia":"ZARUMILLA","distrito":"ZARUMILLA","institucion":"ESSALUD","codigoMinsa":12271,"direccion":"OTROS PANAMERICANA NORTE KM. 1.4 DISTRITO ZARUMILLA PROVINCIA ZARUMILLA DEPARTAMENTO TUMBES","disa":"TUMBES","red":"NO PERTENECE A NINGUNA RED","microrred":"NO PERTENECE A NINGUNA MICRORED","categoria":"ESTABLECIMIENTO DE SALUD SIN INTERNAMIENTO","condicion":"ACTIVO","actualizado":"2023/08/01 19:00:00.000","fuente":"MINSA","urlRenipr":"http://app20.susalud.gob.pe:8080/registro-renipress-webapp/ipress.htm?action=mostrarVer&idipress=00012271"}},{"type":"Feature","geometry":{"type":"Point","coordinates":[-80.48086328999995,-3.600464889999955]},"properties":{"objectid":16682,"nombre":"PRIMERO TU SALUD","departamento":"TUMBES","provincia":"TUMBES","distrito":"CORRALES","institucion":"MUNICIPALIDAD DISTRITAL","codigoMinsa":30352,"direccion":"JIRÓN SAN PEDRO NÚMERO 480 DISTRITO CORRALES PROVINCIA TUMBES DEPARTAMENTO TUMBES","disa":"TUMBES","red":"","microrred":"NO PERTENECE A NINGUNA MICRORED","categoria":"ESTABLECIMIENTO DE SALUD SIN INTERNAMIENTO","condicion":"ACTIVO","actualizado":"2023/08/01 19:00:00.000","fuente":"MINSA","urlRenipr":"http://app20.susalud.gob.pe:8080/registro-renipress-webapp/ipress.htm?action=mostrarVer&idipress=00030352"}},{"type":"Feature","geometry":{"type":"Point","coordinates":[-80.27202859999994,-3.500924859999941]},"properties":{"objectid":16743,"nombre":"CENTRO DE SALUD ZARUMILLA","departamento":"TUMBES","provincia":"ZARUMILLA","distrito":"ZARUMILLA","institucion":"GOBIERNO REGIONAL","codigoMinsa":1896,"direccion":"CALLE CALLE LETICIA SIN NUMERO ZARUMILLA CALLE LETICIA SIN NUMERO ZARUMILLA ZARUMILLA ZARUMILLA TUMBES","disa":"TUMBES","red":"TUMBES","microrred":"ZARUMILLA","categoria":"ESTABLECIMIENTO DE SALUD CON INTERNAMIENTO","condicion":"ACTIVO","actualizado":"2023/08/01 19:00:00.000","fuente":"MINSA","urlRenipr":"http://app20.susalud.gob.pe:8080/registro-renipress-webapp/ipress.htm?action=mostrarVer&idipress=00001896"}},{"type":"Feature","geometry":{"type":"Point","coordinates":[-80.63023299999998,-3.6663554099999374]},"properties":{"objectid":16744,"nombre":"GRAU","departamento":"TUMBES","provincia":"CONTRALMIRANTE VILLAR","distrito":"ZORRITOS","institucion":"GOBIERNO REGIONAL","codigoMinsa":1901,"direccion":"CALLE CALLE LOS TOPACIOS S/N GRAU NÚMERO S/N DISTRITO ZORRITOS PROVINCIA CONTRALMIRANTE VILLAR DEPARTAMENTO TUMBES","disa":"TUMBES","red":"TUMBES","microrred":"ZORRITOS","categoria":"ESTABLECIMIENTO DE SALUD SIN INTERNAMIENTO","condicion":"ACTIVO","actualizado":"2023/08/01 19:00:00.000","fuente":"MINSA","urlRenipr":"http://app20.susalud.gob.pe:8080/registro-renipress-webapp/ipress.htm?action=mostrarVer&idipress=00001901"}},{"type":"Feature","geometry":{"type":"Point","coordinates":[-80.43716591999998,-3.6975241199999687]},"properties":{"objectid":16745,"nombre":"PAMPAS DE HOSPITAL","departamento":"TUMBES","provincia":"TUMBES","distrito":"PAMPAS DE HOSPITAL","institucion":"GOBIERNO REGIONAL","codigoMinsa":1875,"direccion":"AVENIDA AV. ALIPIO ROSALES N° S/N PAMPAS DE HOSPITAL S/N AV. ALIPIO ROSALES N° S/N PAMPAS DE HOSPITAL PAMPAS DE HOSPITAL TUMBES TUMBES","disa":"TUMBES","red":"TUMBES","microrred":"PAMPA GRANDE","categoria":"ESTABLECIMIENTO DE SALUD SIN INTERNAMIENTO","condicion":"ACTIVO","actualizado":"2023/08/01 19:00:00.000","fuente":"MINSA","urlRenipr":"http://app20.susalud.gob.pe:8080/registro-renipress-webapp/ipress.htm?action=mostrarVer&idipress=00001875"}},{"type":"Feature","geometry":{"type":"Point","coordinates":[-80.45489399999997,-3.5623899999999367]},"properties":{"objectid":17901,"nombre":"CENTRO MÉDICO ESPECIALIZADO EN DIABETES \"SOY DIABÉTICO\" SUCURSAL TUMBES","departamento":"TUMBES","provincia":"TUMBES","distrito":"TUMBES","institucion":"PRIVADO","codigoMinsa":25965,"direccion":"JIRÓN SIMÓN BOLÍVAR NÚMERO 717 DISTRITO TUMBES PROVINCIA TUMBES DEPARTAMENTO TUMBES","disa":"","red":"","microrred":"","categoria":"ESTABLECIMIENTO DE SALUD SIN INTERNAMIENTO","condicion":"RUC INACTIVO EN SUNAT","actualizado":"2023/08/01 19:00:00.000","fuente":"MINSA","urlRenipr":"http://app20.susalud.gob.pe:8080/registro-renipress-webapp/ipress.htm?action=mostrarVer&idipress=00025965"}},{"type":"Feature","geometry":{"type":"Point","coordinates":[-80.43010419999996,-3.5554593699999373]},"properties":{"objectid":17965,"nombre":"CENTRO TRAUMATOLOGICO DEL NORTE","departamento":"TUMBES","provincia":"TUMBES","distrito":"TUMBES","institucion":"PRIVADO","codigoMinsa":30351,"direccion":"CALLE CARLOS VASQUEZ MANZANA 4 LOTE 2 URBANIZACIÓN ANDRES ARAUJO DISTRITO TUMBES PROVINCIA TUMBES DEPARTAMENTO TUMBES","disa":"TUMBES","red":"","microrred":"","categoria":"ESTABLECIMIENTO DE SALUD SIN INTERNAMIENTO","condicion":"ACTIVO","actualizado":"2023/08/01 19:00:00.000","fuente":"MINSA","urlRenipr":"http://app20.susalud.gob.pe:8080/registro-renipress-webapp/ipress.htm?action=mostrarVer&idipress=00030351"}},{"type":"Feature","geometry":{"type":"Point","coordinates":[-80.45418685999994,-3.56166412999994]},"properties":{"objectid":18320,"nombre":"CENTRO ESPECIALIZADO DE DIAGNOSTICO POR IMÁGENES E.I.R.L.","departamento":"TUMBES","provincia":"TUMBES","distrito":"TUMBES","institucion":"PRIVADO","codigoMinsa":27895,"direccion":"AVENIDA BOLIVAR 824 TUMBES TUMBES TUMBES","disa":"TUMBES","red":"NO PERTENECE A NINGUNA RED","microrred":"NO PERTENECE A NINGUNA MICRORED","categoria":"SERVICIO MÉDICO DE APOYO","condicion":"ACTIVO","actualizado":"2023/08/01 19:00:00.000","fuente":"MINSA","urlRenipr":"http://app20.susalud.gob.pe:8080/registro-renipress-webapp/ipress.htm?action=mostrarVer&idipress=00027895"}},{"type":"Feature","geometry":{"type":"Point","coordinates":[-80.59508548999997,-3.6378793899999664]},"properties":{"objectid":18339,"nombre":"POSTA MEDICA LA CRUZ","departamento":"TUMBES","provincia":"TUMBES","distrito":"LA CRUZ","institucion":"ESSALUD","codigoMinsa":12274,"direccion":"CALLE CALLE PIURA NRO. S/N NÚMERO S/N DISTRITO LA CRUZ PROVINCIA TUMBES DEPARTAMENTO TUMBES","disa":"TUMBES","red":"NO PERTENECE A NINGUNA RED","microrred":"NO PERTENECE A NINGUNA MICRORED","categoria":"ESTABLECIMIENTO DE SALUD SIN INTERNAMIENTO","condicion":"ACTIVO","actualizado":"2023/08/01 19:00:00.000","fuente":"MINSA","urlRenipr":"http://app20.susalud.gob.pe:8080/registro-renipress-webapp/ipress.htm?action=mostrarVer&idipress=00012274"}},{"type":"Feature","geometry":{"type":"Point","coordinates":[-80.42708849999997,-3.556492099999957]},"properties":{"objectid":18415,"nombre":"FISIONOR","departamento":"TUMBES","provincia":"TUMBES","distrito":"TUMBES","institucion":"OTRO","codigoMinsa":28375,"direccion":"AVENIDA FERNANDO BELAUNDE TERRY MANZANA 21 LOTE 8 URBANIZACIÓN ANDRES ARAUJO MORAN DISTRITO TUMBES PROVINCIA TUMBES DEPARTAMENTO TUMBES","disa":"TUMBES","red":"NO PERTENECE A NINGUNA RED","microrred":"NO PERTENECE A NINGUNA MICRORED","categoria":"SERVICIO MÉDICO DE APOYO","condicion":"ACTIVO","actualizado":"2023/08/01 19:00:00.000","fuente":"MINSA","urlRenipr":"http://app20.susalud.gob.pe:8080/registro-renipress-webapp/ipress.htm?action=mostrarVer&idipress=00028375"}},{"type":"Feature","geometry":{"type":"Point","coordinates":[-80.45442110999994,-3.5611507499999675]},"properties":{"objectid":18697,"nombre":"SISOL SALUD TUMBES","departamento":"TUMBES","provincia":"TUMBES","distrito":"TUMBES","institucion":"MUNICIPALIDAD PROVINCIAL","codigoMinsa":9545,"direccion":"AVENIDA AV. TUMBES NORTE S/N NÚMERO S/N DISTRITO TUMBES PROVINCIA TUMBES DEPARTAMENTO TUMBES","disa":"TUMBES","red":"NO PERTENECE A NINGUNA RED","microrred":"NO PERTENECE A NINGUNA MICRORED","categoria":"ESTABLECIMIENTO DE SALUD SIN INTERNAMIENTO","condicion":"ACTIVO","actualizado":"2023/08/01 19:00:00.000","fuente":"MINSA","urlRenipr":"http://app20.susalud.gob.pe:8080/registro-renipress-webapp/ipress.htm?action=mostrarVer&idipress=00009545"}},{"type":"Feature","geometry":{"type":"Point","coordinates":[-80.42115008999997,-3.561016289999941]},"properties":{"objectid":18849,"nombre":"CENTRO DE SALUD MENTAL COMUNITARIO \"VIRGEN DEL CISNE\"","departamento":"TUMBES","provincia":"TUMBES","distrito":"TUMBES","institucion":"GOBIERNO REGIONAL","codigoMinsa":28923,"direccion":"OTROS VIRGEN DEL CISNE ASENTAMIENTO HUMANO L 03 FRENTE A COMPLEJO DEPORTIVO \"VIRGEN DEL CISNE\" TUMBES TUMBES TUMBES","disa":"TUMBES","red":"TUMBES","microrred":"PAMPA GRANDE","categoria":"ESTABLECIMIENTO DE SALUD SIN INTERNAMIENTO","condicion":"ACTIVO","actualizado":"2023/08/01 19:00:00.000","fuente":"MINSA","urlRenipr":"http://app20.susalud.gob.pe:8080/registro-renipress-webapp/ipress.htm?action=mostrarVer&idipress=00028923"}},{"type":"Feature","geometry":{"type":"Point","coordinates":[-80.48188318999996,-3.6006479699999545]},"properties":{"objectid":18850,"nombre":"CLAS CORRALES","departamento":"TUMBES","provincia":"TUMBES","distrito":"CORRALES","institucion":"GOBIERNO REGIONAL","codigoMinsa":1866,"direccion":"PASAJE PASAJE ALEJANDRO HENCKELL Nº 104 PASAJE ALEJANDRO HENCKELL Nº 104 CORRALES TUMBES TUMBES","disa":"TUMBES","red":"TUMBES","microrred":"CORRALES","categoria":"ESTABLECIMIENTO DE SALUD CON INTERNAMIENTO","condicion":"ACTIVO","actualizado":"2023/08/01 19:00:00.000","fuente":"MINSA","urlRenipr":"http://app20.susalud.gob.pe:8080/registro-renipress-webapp/ipress.htm?action=mostrarVer&idipress=00001866"}},{"type":"Feature","geometry":{"type":"Point","coordinates":[-80.45598125999999,-3.5744870099999275]},"properties":{"objectid":19439,"nombre":"CENTRO MEDICO OBSTETRICO GENESIS","departamento":"TUMBES","provincia":"TUMBES","distrito":"TUMBES","institucion":"PRIVADO","codigoMinsa":30823,"direccion":"CALLE MAYNAS NÚMERO 411 PISO 1 DISTRITO TUMBES PROVINCIA TUMBES DEPARTAMENTO TUMBES","disa":"TUMBES","red":"","microrred":"","categoria":"ESTABLECIMIENTO DE SALUD SIN INTERNAMIENTO","condicion":"ACTIVO","actualizado":"2023/08/01 19:00:00.000","fuente":"MINSA","urlRenipr":"http://app20.susalud.gob.pe:8080/registro-renipress-webapp/ipress.htm?action=mostrarVer&idipress=00030823"}},{"type":"Feature","geometry":{"type":"Point","coordinates":[-80.45322849999997,-3.5607138999999393]},"properties":{"objectid":19605,"nombre":"GLOBAL MEDIC","departamento":"TUMBES","provincia":"TUMBES","distrito":"TUMBES","institucion":"PRIVADO","codigoMinsa":23960,"direccion":"AVENIDA LOS TUMPIS NÚMERO 103 DISTRITO TUMBES PROVINCIA TUMBES DEPARTAMENTO TUMBES","disa":"TUMBES","red":"NO PERTENECE A NINGUNA RED","microrred":"NO PERTENECE A NINGUNA MICRORED","categoria":"ESTABLECIMIENTO DE SALUD SIN INTERNAMIENTO","condicion":"ACTIVO","actualizado":"2023/08/01 19:00:00.000","fuente":"MINSA","urlRenipr":"http://app20.susalud.gob.pe:8080/registro-renipress-webapp/ipress.htm?action=mostrarVer&idipress=00023960"}},{"type":"Feature","geometry":{"type":"Point","coordinates":[-80.40048269999994,-3.5473190999999247]},"properties":{"objectid":19638,"nombre":"UNIDAD CLINICA","departamento":"TUMBES","provincia":"TUMBES","distrito":"TUMBES","institucion":"PRIVADO","codigoMinsa":10986,"direccion":"AVENIDA AV. PANAMERICANA NORTE KM 1275. PUERTO EL CURA. TUMBES DISTRITO TUMBES PROVINCIA TUMBES DEPARTAMENTO TUMBES","disa":"TUMBES","red":"NO PERTENECE A NINGUNA RED","microrred":"NO PERTENECE A NINGUNA MICRORED","categoria":"ESTABLECIMIENTO DE SALUD SIN INTERNAMIENTO","condicion":"ACTIVO","actualizado":"2023/08/01 19:00:00.000","fuente":"MINSA","urlRenipr":"http://app20.susalud.gob.pe:8080/registro-renipress-webapp/ipress.htm?action=mostrarVer&idipress=00010986"}},{"type":"Feature","geometry":{"type":"Point","coordinates":[-80.27937388999999,-3.4923050899999453]},"properties":{"objectid":20954,"nombre":"Centro de Salud Mental Comunitario \"LIC. ENF. SILVIA VIOLETA CONDE SOSA\"","departamento":"TUMBES","provincia":"ZARUMILLA","distrito":"ZARUMILLA","institucion":"GOBIERNO REGIONAL","codigoMinsa":26856,"direccion":"AVENIDA LA MARINA S/N CAMPO AMOR ZARUMILLA ZARUMILLA TUMBES","disa":"TUMBES","red":"TUMBES","microrred":"ZARUMILLA","categoria":"ESTABLECIMIENTO DE SALUD SIN INTERNAMIENTO","condicion":"ACTIVO","actualizado":"2023/08/01 19:00:00.000","fuente":"MINSA","urlRenipr":"http://app20.susalud.gob.pe:8080/registro-renipress-webapp/ipress.htm?action=mostrarVer&idipress=00026856"}},{"type":"Feature","geometry":{"type":"Point","coordinates":[-80.42631053999997,-3.5614883699999496]},"properties":{"objectid":20955,"nombre":"LABORATORIO DE REFERENCIA REGIONAL DE SALUD PUBLICA","departamento":"TUMBES","provincia":"TUMBES","distrito":"TUMBES","institucion":"GOBIERNO REGIONAL","codigoMinsa":13886,"direccion":"AVENIDA AV. FERNANDO BELAUNDE TERRY N° MZ X LT 10 URB. LISNHERT TUDELA AV. FERNANDO BELAUNDE TERRY N° MZ X LT 10 URB. LISNHERT TUDELA TUMBES TUMBES TUMBES","disa":"TUMBES","red":"TUMBES","microrred":"NO PERTENECE A NINGUNA MICRORED","categoria":"SERVICIO MÉDICO DE APOYO","condicion":"ACTIVO","actualizado":"2023/08/01 19:00:00.000","fuente":"MINSA","urlRenipr":"http://app20.susalud.gob.pe:8080/registro-renipress-webapp/ipress.htm?action=mostrarVer&idipress=00013886"}},{"type":"Feature","geometry":{"type":"Point","coordinates":[-80.72120785999994,-3.708122979999928]},"properties":{"objectid":20956,"nombre":"BOCAPAN.","departamento":"TUMBES","provincia":"CONTRALMIRANTE VILLAR","distrito":"ZORRITOS","institucion":"GOBIERNO REGIONAL","codigoMinsa":1904,"direccion":"AVENIDA AV. PANAMERICANA S/N BOCAPAN NÚMERO S/N DISTRITO ZORRITOS PROVINCIA CONTRALMIRANTE VILLAR DEPARTAMENTO TUMBES","disa":"TUMBES","red":"TUMBES","microrred":"ZORRITOS","categoria":"ESTABLECIMIENTO DE SALUD SIN INTERNAMIENTO","condicion":"ACTIVO","actualizado":"2023/08/01 19:00:00.000","fuente":"MINSA","urlRenipr":"http://app20.susalud.gob.pe:8080/registro-renipress-webapp/ipress.htm?action=mostrarVer&idipress=00001904"}},{"type":"Feature","geometry":{"type":"Point","coordinates":[-80.46664130999994,-3.6241891399999417]},"properties":{"objectid":20957,"nombre":"MALVAL","departamento":"TUMBES","provincia":"TUMBES","distrito":"CORRALES","institucion":"GOBIERNO REGIONAL","codigoMinsa":1868,"direccion":"JIRÓN JR. PLAZA DE ARMAS N° 131 MALVAL DISTRITO CORRALES PROVINCIA TUMBES DEPARTAMENTO TUMBES","disa":"TUMBES","red":"TUMBES","microrred":"CORRALES","categoria":"ESTABLECIMIENTO DE SALUD SIN INTERNAMIENTO","condicion":"ACTIVO","actualizado":"2023/08/01 19:00:00.000","fuente":"MINSA","urlRenipr":"http://app20.susalud.gob.pe:8080/registro-renipress-webapp/ipress.htm?action=mostrarVer&idipress=00001868"}},{"type":"Feature","geometry":{"type":"Point","coordinates":[-80.45005189999995,-3.5570237999999677]},"properties":{"objectid":21653,"nombre":"CENTRO MEDICO LA FAMILIA","departamento":"TUMBES","provincia":"TUMBES","distrito":"TUMBES","institucion":"PRIVADO","codigoMinsa":7795,"direccion":"AVENIDA AV. TUMBES NORTE Nº 1079 AV. TUMBES NORTE Nº 1079 TUMBES TUMBES TUMBES","disa":"TUMBES","red":"NO PERTENECE A NINGUNA RED","microrred":"NO PERTENECE A NINGUNA MICRORED","categoria":"ESTABLECIMIENTO DE SALUD CON INTERNAMIENTO","condicion":"ACTIVO","actualizado":"2023/08/01 19:00:00.000","fuente":"MINSA","urlRenipr":"http://app20.susalud.gob.pe:8080/registro-renipress-webapp/ipress.htm?action=mostrarVer&idipress=00007795"}},{"type":"Feature","geometry":{"type":"Point","coordinates":[-80.45679932999997,-3.5718822899999623]},"properties":{"objectid":21948,"nombre":"LABORATORIO CLINICO AUTOMATIZADO \"NORTH LAB\"","departamento":"TUMBES","provincia":"TUMBES","distrito":"TUMBES","institucion":"PRIVADO","codigoMinsa":7860,"direccion":"AVENIDA AV. MARISCAL CASTILLA Nº 305 2DO. PISO DISTRITO TUMBES PROVINCIA TUMBES DEPARTAMENTO TUMBES","disa":"TUMBES","red":"NO PERTENECE A NINGUNA RED","microrred":"NO PERTENECE A NINGUNA MICRORED","categoria":"SERVICIO MÉDICO DE APOYO","condicion":"ACTIVO","actualizado":"2023/08/01 19:00:00.000","fuente":"MINSA","urlRenipr":"http://app20.susalud.gob.pe:8080/registro-renipress-webapp/ipress.htm?action=mostrarVer&idipress=00007860"}},{"type":"Feature","geometry":{"type":"Point","coordinates":[-80.27439838999999,-3.49977451999996]},"properties":{"objectid":22437,"nombre":"CENTRO MEDICO DEVIDA","departamento":"TUMBES","provincia":"ZARUMILLA","distrito":"ZARUMILLA","institucion":"PRIVADO","codigoMinsa":27810,"direccion":"CALLE MIGUEL GRAU NÚMERO 317 PISO 1 DISTRITO ZARUMILLA PROVINCIA ZARUMILLA DEPARTAMENTO TUMBES","disa":"TUMBES","red":"NO PERTENECE A NINGUNA RED","microrred":"NO PERTENECE A NINGUNA MICRORED","categoria":"ESTABLECIMIENTO DE SALUD SIN INTERNAMIENTO","condicion":"ACTIVO","actualizado":"2023/08/01 19:00:00.000","fuente":"MINSA","urlRenipr":"http://app20.susalud.gob.pe:8080/registro-renipress-webapp/ipress.htm?action=mostrarVer&idipress=00027810"}},{"type":"Feature","geometry":{"type":"Point","coordinates":[-80.44168182999994,-3.727839729999971]},"properties":{"objectid":22967,"nombre":"EL LIMON","departamento":"TUMBES","provincia":"TUMBES","distrito":"PAMPAS DE HOSPITAL","institucion":"GOBIERNO REGIONAL","codigoMinsa":1878,"direccion":"OTROS LIMON S/N NÚMERO S/N DISTRITO PAMPAS DE HOSPITAL PROVINCIA TUMBES DEPARTAMENTO TUMBES","disa":"TUMBES","red":"TUMBES","microrred":"PAMPA GRANDE","categoria":"ESTABLECIMIENTO DE SALUD SIN INTERNAMIENTO","condicion":"ACTIVO","actualizado":"2023/08/01 19:00:00.000","fuente":"MINSA","urlRenipr":"http://app20.susalud.gob.pe:8080/registro-renipress-webapp/ipress.htm?action=mostrarVer&idipress=00001878"}},{"type":"Feature","geometry":{"type":"Point","coordinates":[-80.45228332999994,-3.7060999999999353]},"properties":{"objectid":22968,"nombre":"VAQUERIA","departamento":"TUMBES","provincia":"TUMBES","distrito":"SAN JACINTO","institucion":"GOBIERNO REGIONAL","codigoMinsa":1872,"direccion":"CALLE CALLE PRINCIPAL S/N VAQUERIA NÚMERO S/N DISTRITO SAN JACINTO PROVINCIA TUMBES DEPARTAMENTO TUMBES","disa":"TUMBES","red":"TUMBES","microrred":"CORRALES","categoria":"ESTABLECIMIENTO DE SALUD SIN INTERNAMIENTO","condicion":"ACTIVO","actualizado":"2023/08/01 19:00:00.000","fuente":"MINSA","urlRenipr":"http://app20.susalud.gob.pe:8080/registro-renipress-webapp/ipress.htm?action=mostrarVer&idipress=00001872"}},{"type":"Feature","geometry":{"type":"Point","coordinates":[-80.51074261999997,-3.6131613899999593]},"properties":{"objectid":22969,"nombre":"SAN ISIDRO","departamento":"TUMBES","provincia":"TUMBES","distrito":"CORRALES","institucion":"GOBIERNO REGIONAL","codigoMinsa":1867,"direccion":"CALLE CALLE LOS ALGARROBOS S/N AA.HH. JUAN VELAZCO ALVARADO NÚMERO S/N DISTRITO CORRALES PROVINCIA TUMBES DEPARTAMENTO TUMBES","disa":"TUMBES","red":"TUMBES","microrred":"CORRALES","categoria":"ESTABLECIMIENTO DE SALUD SIN INTERNAMIENTO","condicion":"ACTIVO","actualizado":"2023/08/01 19:00:00.000","fuente":"MINSA","urlRenipr":"http://app20.susalud.gob.pe:8080/registro-renipress-webapp/ipress.htm?action=mostrarVer&idipress=00001867"}},{"type":"Feature","geometry":{"type":"Point","coordinates":[-80.45389180999996,-3.5611608499999647]},"properties":{"objectid":23626,"nombre":"BERMANLAB","departamento":"TUMBES","provincia":"TUMBES","distrito":"TUMBES","institucion":"PRIVADO","codigoMinsa":12076,"direccion":"AVENIDA AV. BOLIVAR 790 DISTRITO TUMBES PROVINCIA TUMBES DEPARTAMENTO TUMBES","disa":"","red":"","microrred":"","categoria":"SERVICIO MÉDICO DE APOYO","condicion":"RETIRO VOLUNTARIO","actualizado":"2023/08/01 19:00:00.000","fuente":"MINSA","urlRenipr":"http://app20.susalud.gob.pe:8080/registro-renipress-webapp/ipress.htm?action=mostrarVer&idipress=00012076"}},{"type":"Feature","geometry":{"type":"Point","coordinates":[-80.44293166999995,-3.5556016699999304]},"properties":{"objectid":24545,"nombre":"CARLOS ALBERTO CORTEZ JIMENEZ","departamento":"TUMBES","provincia":"TUMBES","distrito":"TUMBES","institucion":"ESSALUD","codigoMinsa":12272,"direccion":"PROLONGACIÓN PROLONG. AV. TUMBES Nª 1625 DISTRITO TUMBES PROVINCIA TUMBES DEPARTAMENTO TUMBES","disa":"TUMBES","red":"NO PERTENECE A NINGUNA RED","microrred":"NO PERTENECE A NINGUNA MICRORED","categoria":"ESTABLECIMIENTO DE SALUD CON INTERNAMIENTO","condicion":"ACTIVO","actualizado":"2023/08/01 19:00:00.000","fuente":"MINSA","urlRenipr":"http://app20.susalud.gob.pe:8080/registro-renipress-webapp/ipress.htm?action=mostrarVer&idipress=00012272"}},{"type":"Feature","geometry":{"type":"Point","coordinates":[-80.51955496999994,-3.5387056499999403]},"properties":{"objectid":24900,"nombre":"MARINASOL S.A","departamento":"TUMBES","provincia":"TUMBES","distrito":"CORRALES","institucion":"PRIVADO","codigoMinsa":28202,"direccion":"CARRETERA Rio Tumbes y Boca Grande NÚMERO S/N DISTRITO CORRALES PROVINCIA TUMBES DEPARTAMENTO TUMBES","disa":"TUMBES","red":"NO PERTENECE A NINGUNA RED","microrred":"NO PERTENECE A NINGUNA MICRORED","categoria":"SERVICIO MÉDICO DE APOYO","condicion":"ACTIVO","actualizado":"2023/08/01 19:00:00.000","fuente":"MINSA","urlRenipr":"http://app20.susalud.gob.pe:8080/registro-renipress-webapp/ipress.htm?action=mostrarVer&idipress=00028202"}},{"type":"Feature","geometry":{"type":"Point","coordinates":[-80.67890551999994,-3.6804566999999793]},"properties":{"objectid":25054,"nombre":"ZORRITOS","departamento":"TUMBES","provincia":"CONTRALMIRANTE VILLAR","distrito":"ZORRITOS","institucion":"GOBIERNO REGIONAL","codigoMinsa":1900,"direccion":"AVENIDA AV. REPUBLICA S/N ZORRITOS S/N AV. REPUBLICA S/N ZORRITOS ZORRITOS CONTRALMIRANTE VILLAR TUMBES","disa":"TUMBES","red":"TUMBES","microrred":"ZORRITOS","categoria":"ESTABLECIMIENTO DE SALUD CON INTERNAMIENTO","condicion":"ACTIVO","actualizado":"2023/08/01 19:00:00.000","fuente":"MINSA","urlRenipr":"http://app20.susalud.gob.pe:8080/registro-renipress-webapp/ipress.htm?action=mostrarVer&idipress=00001900"}},{"type":"Feature","geometry":{"type":"Point","coordinates":[-80.39091639999998,-3.5037057999999774]},"properties":{"objectid":25412,"nombre":"CENTRO DE SALUD - E.P. TUMBES-ORN-INPE","departamento":"TUMBES","provincia":"TUMBES","distrito":"TUMBES","institucion":"INPE","codigoMinsa":18438,"direccion":"OTROS PANAMERICANA NORTE CRUCE CON PUERTO PIZARRO DISTRITO TUMBES PROVINCIA TUMBES DEPARTAMENTO TUMBES","disa":"TUMBES","red":"NO PERTENECE A NINGUNA RED","microrred":"NO PERTENECE A NINGUNA MICRORED","categoria":"ESTABLECIMIENTO DE SALUD SIN INTERNAMIENTO","condicion":"ACTIVO","actualizado":"2023/08/01 19:00:00.000","fuente":"MINSA","urlRenipr":"http://app20.susalud.gob.pe:8080/registro-renipress-webapp/ipress.htm?action=mostrarVer&idipress=00018438"}},{"type":"Feature","geometry":{"type":"Point","coordinates":[-80.45420294999997,-3.56166412999994]},"properties":{"objectid":25714,"nombre":"BERMANLAB","departamento":"TUMBES","provincia":"TUMBES","distrito":"TUMBES","institucion":"PRIVADO","codigoMinsa":27350,"direccion":"AVENIDA TUMBES N?ERO 750 PISO 1 DISTRITO TUMBES PROVINCIA TUMBES DEPARTAMENTO TUMBES","disa":"TUMBES","red":"NO PERTENECE A NINGUNA RED","microrred":"NO PERTENECE A NINGUNA MICRORED","categoria":"SERVICIO MÉDICO DE APOYO","condicion":"ACTIVO","actualizado":"2023/08/01 19:00:00.000","fuente":"MINSA","urlRenipr":"http://app20.susalud.gob.pe:8080/registro-renipress-webapp/ipress.htm?action=mostrarVer&idipress=00027350"}},{"type":"Feature","geometry":{"type":"Point","coordinates":[-80.44630384999994,-3.5695184999999583]},"properties":{"objectid":26554,"nombre":"LABORATORIO DE ANÁLISIS CLÍNICO \"MARÍA DEL CISNE\"","departamento":"TUMBES","provincia":"TUMBES","distrito":"TUMBES","institucion":"PRIVADO","codigoMinsa":24306,"direccion":"PROLONGACIÓN HILARIO CARRASCO NÚMERO S/N DISTRITO TUMBES PROVINCIA TUMBES DEPARTAMENTO TUMBES","disa":"","red":"","microrred":"","categoria":"SERVICIO MÉDICO DE APOYO","condicion":"RUC INACTIVO EN SUNAT","actualizado":"2023/08/01 19:00:00.000","fuente":"MINSA","urlRenipr":"http://app20.susalud.gob.pe:8080/registro-renipress-webapp/ipress.htm?action=mostrarVer&idipress=00024306"}},{"type":"Feature","geometry":{"type":"Point","coordinates":[-80.44575869999994,-3.556440299999963]},"properties":{"objectid":26754,"nombre":"CENTRO DE ATENCION ESPECIALIZADA DR. ISLA","departamento":"TUMBES","provincia":"TUMBES","distrito":"TUMBES","institucion":"PRIVADO","codigoMinsa":26468,"direccion":"AVENIDA TUMBES NÚMERO 596 PISO 2 DISTRITO TUMBES PROVINCIA TUMBES DEPARTAMENTO TUMBES","disa":"TUMBES","red":"NO PERTENECE A NINGUNA RED","microrred":"NO PERTENECE A NINGUNA MICRORED","categoria":"ESTABLECIMIENTO DE SALUD SIN INTERNAMIENTO","condicion":"ACTIVO","actualizado":"2023/08/01 19:00:00.000","fuente":"MINSA","urlRenipr":"http://app20.susalud.gob.pe:8080/registro-renipress-webapp/ipress.htm?action=mostrarVer&idipress=00026468"}},{"type":"Feature","geometry":{"type":"Point","coordinates":[-80.45551454999998,-3.5682951099999514]},"properties":{"objectid":27045,"nombre":"NUESTRA SEÑORA DEL CARMEN","departamento":"TUMBES","provincia":"TUMBES","distrito":"TUMBES","institucion":"PRIVADO","codigoMinsa":29968,"direccion":"CALLE MIRAFLORES NÚMERO 104 DISTRITO TUMBES PROVINCIA TUMBES DEPARTAMENTO TUMBES","disa":"TUMBES","red":"","microrred":"","categoria":"SERVICIO MÉDICO DE APOYO","condicion":"ACTIVO","actualizado":"2023/08/01 19:00:00.000","fuente":"MINSA","urlRenipr":"http://app20.susalud.gob.pe:8080/registro-renipress-webapp/ipress.htm?action=mostrarVer&idipress=00029968"}},{"type":"Feature","geometry":{"type":"Point","coordinates":[-80.45609390999994,-3.5623012699999776]},"properties":{"objectid":27145,"nombre":"SAMU -TUMBES","departamento":"TUMBES","provincia":"TUMBES","distrito":"TUMBES","institucion":"GOBIERNO REGIONAL","codigoMinsa":27613,"direccion":"CALLE 24 DE JULIO NÚMERO 565 DISTRITO TUMBES PROVINCIA TUMBES DEPARTAMENTO TUMBES","disa":"TUMBES","red":"TUMBES","microrred":"NO PERTENECE A NINGUNA MICRORED","categoria":"SERVICIO MÉDICO DE APOYO","condicion":"ACTIVO","actualizado":"2023/08/01 19:00:00.000","fuente":"MINSA","urlRenipr":"http://app20.susalud.gob.pe:8080/registro-renipress-webapp/ipress.htm?action=mostrarVer&idipress=00027613"}},{"type":"Feature","geometry":{"type":"Point","coordinates":[-80.45572689999995,-3.562702869999953]},"properties":{"objectid":27146,"nombre":"SAÚL GARRIDO ROSILLO","departamento":"TUMBES","provincia":"TUMBES","distrito":"TUMBES","institucion":"GOBIERNO REGIONAL","codigoMinsa":1908,"direccion":"CALLE 24 DE JULIO 565 TUMBES TUMBES TUMBES","disa":"TUMBES","red":"TUMBES","microrred":"NO PERTENECE A NINGUNA MICRORED","categoria":"ESTABLECIMIENTO DE SALUD CON INTERNAMIENTO","condicion":"ACTIVO","actualizado":"2023/08/01 19:00:00.000","fuente":"MINSA","urlRenipr":"http://app20.susalud.gob.pe:8080/registro-renipress-webapp/ipress.htm?action=mostrarVer&idipress=00001908"}},{"type":"Feature","geometry":{"type":"Point","coordinates":[-80.65119878999997,-3.9388814999999795]},"properties":{"objectid":27147,"nombre":"CAÑAVERAL","departamento":"TUMBES","provincia":"CONTRALMIRANTE VILLAR","distrito":"CASITAS","institucion":"GOBIERNO REGIONAL","codigoMinsa":1897,"direccion":"AVENIDA AV. JUAQUIN RUGEL S/N NÚMERO S/N DISTRITO CASITAS PROVINCIA CONTRALMIRANTE VILLAR DEPARTAMENTO TUMBES","disa":"TUMBES","red":"TUMBES","microrred":"ZORRITOS","categoria":"ESTABLECIMIENTO DE SALUD SIN INTERNAMIENTO","condicion":"ACTIVO","actualizado":"2023/08/01 19:00:00.000","fuente":"MINSA","urlRenipr":"http://app20.susalud.gob.pe:8080/registro-renipress-webapp/ipress.htm?action=mostrarVer&idipress=00001897"}},{"type":"Feature","geometry":{"type":"Point","coordinates":[-80.42026825999994,-3.5821790599999304]},"properties":{"objectid":27148,"nombre":"PAMPA GRANDE","departamento":"TUMBES","provincia":"TUMBES","distrito":"TUMBES","institucion":"GOBIERNO REGIONAL","codigoMinsa":1882,"direccion":"AVENIDA AV. SIMON BOLIVAR N° 304 PAMPA GRANDE AV. SIMON BOLIVAR N° 304 PAMPA GRANDE TUMBES TUMBES TUMBES","disa":"TUMBES","red":"TUMBES","microrred":"PAMPA GRANDE","categoria":"ESTABLECIMIENTO DE SALUD CON INTERNAMIENTO","condicion":"ACTIVO","actualizado":"2023/08/01 19:00:00.000","fuente":"MINSA","urlRenipr":"http://app20.susalud.gob.pe:8080/registro-renipress-webapp/ipress.htm?action=mostrarVer&idipress=00001882"}},{"type":"Feature","geometry":{"type":"Point","coordinates":[-80.43656935999996,-3.7156345699999633]},"properties":{"objectid":27149,"nombre":"CABUYAL","departamento":"TUMBES","provincia":"TUMBES","distrito":"PAMPAS DE HOSPITAL","institucion":"GOBIERNO REGIONAL","codigoMinsa":1876,"direccion":"AVENIDA AV. JORGE ESPINOZA N° 118 AV. JORGE ESPINOZA N° 118 PAMPAS DE HOSPITAL TUMBES TUMBES","disa":"TUMBES","red":"TUMBES","microrred":"PAMPA GRANDE","categoria":"ESTABLECIMIENTO DE SALUD SIN INTERNAMIENTO","condicion":"ACTIVO","actualizado":"2023/08/01 19:00:00.000","fuente":"MINSA","urlRenipr":"http://app20.susalud.gob.pe:8080/registro-renipress-webapp/ipress.htm?action=mostrarVer&idipress=00001876"}},{"type":"Feature","geometry":{"type":"Point","coordinates":[-80.48174659999995,-3.603467299999977]},"properties":{"objectid":27169,"nombre":"ENFERMERIA FUERTE 5 DE JULIO","departamento":"TUMBES","provincia":"TUMBES","distrito":"CORRALES","institucion":"SANIDAD DEL EJERCITO DEL PERU","codigoMinsa":11997,"direccion":"PROLONGACIÓN PROLONGACIÒN ATAHUALPA S/N NÚMERO S/N DISTRITO CORRALES PROVINCIA TUMBES DEPARTAMENTO TUMBES","disa":"TUMBES","red":"NO PERTENECE A NINGUNA RED","microrred":"NO PERTENECE A NINGUNA MICRORED","categoria":"ESTABLECIMIENTO DE SALUD SIN INTERNAMIENTO","condicion":"ACTIVO","actualizado":"2023/08/01 19:00:00.000","fuente":"MINSA","urlRenipr":"http://app20.susalud.gob.pe:8080/registro-renipress-webapp/ipress.htm?action=mostrarVer&idipress=00011997"}},{"type":"Feature","geometry":{"type":"Point","coordinates":[-80.42708849999997,-3.556492099999957]},"properties":{"objectid":28885,"nombre":"centro ecografico \"TODO DIAGNOSTICO\"","departamento":"TUMBES","provincia":"TUMBES","distrito":"TUMBES","institucion":"PRIVADO","codigoMinsa":25414,"direccion":"CALLE FRANCISCO NAVARRETE NÚMERO 575 DISTRITO TUMBES PROVINCIA TUMBES DEPARTAMENTO TUMBES","disa":"TUMBES","red":"NO PERTENECE A NINGUNA RED","microrred":"NO PERTENECE A NINGUNA MICRORED","categoria":"SERVICIO MÉDICO DE APOYO","condicion":"ACTIVO","actualizado":"2023/08/01 19:00:00.000","fuente":"MINSA","urlRenipr":"http://app20.susalud.gob.pe:8080/registro-renipress-webapp/ipress.htm?action=mostrarVer&idipress=00025414"}},{"type":"Feature","geometry":{"type":"Point","coordinates":[-80.45455163999998,-3.562253079999948]},"properties":{"objectid":29109,"nombre":"POLICLINICO POLICIAL \"LA CRUZ\" TUMBES","departamento":"TUMBES","provincia":"TUMBES","distrito":"TUMBES","institucion":"SANIDAD DE LA POLICIA NACIONAL DEL PERU","codigoMinsa":12088,"direccion":"AVENIDA AVENIDA TUMBES NORTE 706 DISTRITO TUMBES PROVINCIA TUMBES DEPARTAMENTO TUMBES","disa":"TUMBES","red":"NO PERTENECE A NINGUNA RED","microrred":"NO PERTENECE A NINGUNA MICRORED","categoria":"ESTABLECIMIENTO DE SALUD SIN INTERNAMIENTO","condicion":"ACTIVO","actualizado":"2023/08/01 19:00:00.000","fuente":"MINSA","urlRenipr":"http://app20.susalud.gob.pe:8080/registro-renipress-webapp/ipress.htm?action=mostrarVer&idipress=00012088"}},{"type":"Feature","geometry":{"type":"Point","coordinates":[-80.45902666999996,-3.7222299999999677]},"properties":{"objectid":29202,"nombre":"OIDOR.","departamento":"TUMBES","provincia":"TUMBES","distrito":"SAN JACINTO","institucion":"GOBIERNO REGIONAL","codigoMinsa":1874,"direccion":"OTROS PUEBLO NUEVO OIDOR S/N NÚMERO S/N DISTRITO SAN JACINTO PROVINCIA TUMBES DEPARTAMENTO TUMBES","disa":"TUMBES","red":"TUMBES","microrred":"CORRALES","categoria":"ESTABLECIMIENTO DE SALUD SIN INTERNAMIENTO","condicion":"ACTIVO","actualizado":"2023/08/01 19:00:00.000","fuente":"MINSA","urlRenipr":"http://app20.susalud.gob.pe:8080/registro-renipress-webapp/ipress.htm?action=mostrarVer&idipress=00001874"}},{"type":"Feature","geometry":{"type":"Point","coordinates":[-80.88824332999997,-4.051443329999927]},"properties":{"objectid":29203,"nombre":"PAJARITOS","departamento":"TUMBES","provincia":"CONTRALMIRANTE VILLAR","distrito":"CANOAS DE PUNTA SAL","institucion":"GOBIERNO REGIONAL","codigoMinsa":1906,"direccion":"OTROS PAJARITOS S/N NÚMERO S/N DISTRITO CANOAS DE PUNTA SAL PROVINCIA CONTRALMIRANTE VILLAR DEPARTAMENTO TUMBES","disa":"TUMBES","red":"TUMBES","microrred":"ZORRITOS","categoria":"ESTABLECIMIENTO DE SALUD SIN INTERNAMIENTO","condicion":"ACTIVO","actualizado":"2023/08/01 19:00:00.000","fuente":"MINSA","urlRenipr":"http://app20.susalud.gob.pe:8080/registro-renipress-webapp/ipress.htm?action=mostrarVer&idipress=00001906"}},{"type":"Feature","geometry":{"type":"Point","coordinates":[-80.59322732999993,-3.638208979999945]},"properties":{"objectid":29204,"nombre":"CLAS LA CRUZ","departamento":"TUMBES","provincia":"TUMBES","distrito":"LA CRUZ","institucion":"GOBIERNO REGIONAL","codigoMinsa":1869,"direccion":"AVENIDA AV. INDEPENDENCIA N° 337 DISTRITO LA CRUZ PROVINCIA TUMBES DEPARTAMENTO TUMBES","disa":"TUMBES","red":"TUMBES","microrred":"CORRALES","categoria":"ESTABLECIMIENTO DE SALUD SIN INTERNAMIENTO","condicion":"ACTIVO","actualizado":"2023/08/01 19:00:00.000","fuente":"MINSA","urlRenipr":"http://app20.susalud.gob.pe:8080/registro-renipress-webapp/ipress.htm?action=mostrarVer&idipress=00001869"}},{"type":"Feature","geometry":{"type":"Point","coordinates":[-80.43368785999996,-3.6117806599999653]},"properties":{"objectid":29205,"nombre":"GARBANZAL","departamento":"TUMBES","provincia":"TUMBES","distrito":"SAN JUAN DE LA VIRGEN","institucion":"GOBIERNO REGIONAL","codigoMinsa":1881,"direccion":"OTROS GARBANZAL S/N NÚMERO S/N DISTRITO SAN JUAN DE LA VIRGEN PROVINCIA TUMBES DEPARTAMENTO TUMBES","disa":"TUMBES","red":"TUMBES","microrred":"PAMPA GRANDE","categoria":"ESTABLECIMIENTO DE SALUD SIN INTERNAMIENTO","condicion":"ACTIVO","actualizado":"2023/08/01 19:00:00.000","fuente":"MINSA","urlRenipr":"http://app20.susalud.gob.pe:8080/registro-renipress-webapp/ipress.htm?action=mostrarVer&idipress=00001881"}},{"type":"Feature","geometry":{"type":"Point","coordinates":[-80.45907920999997,-3.5692159999999262]},"properties":{"objectid":30205,"nombre":"CONSULTORIO DE ODONTOLOGIA ESTÉTICA INTEGRAL","departamento":"TUMBES","provincia":"TUMBES","distrito":"TUMBES","institucion":"PRIVADO","codigoMinsa":25809,"direccion":"JIRÓN BOLIVAR NÚMERO 277 PISO 2 DISTRITO TUMBES PROVINCIA TUMBES DEPARTAMENTO TUMBES","disa":"TUMBES","red":"NO PERTENECE A NINGUNA RED","microrred":"NO PERTENECE A NINGUNA MICRORED","categoria":"ESTABLECIMIENTO DE SALUD SIN INTERNAMIENTO","condicion":"ACTIVO","actualizado":"2023/08/01 19:00:00.000","fuente":"MINSA","urlRenipr":"http://app20.susalud.gob.pe:8080/registro-renipress-webapp/ipress.htm?action=mostrarVer&idipress=00025809"}},{"type":"Feature","geometry":{"type":"Point","coordinates":[-80.45906489999999,-3.571926299999973]},"properties":{"objectid":30879,"nombre":"CENTRO ODONTOLÓGICO AMERICANO - TUMBES","departamento":"TUMBES","provincia":"TUMBES","distrito":"TUMBES","institucion":"PRIVADO","codigoMinsa":7865,"direccion":"CALLE CALLE LOS ANDES Nº 121 TUMBES DISTRITO TUMBES PROVINCIA TUMBES DEPARTAMENTO TUMBES","disa":"TUMBES","red":"NO PERTENECE A NINGUNA RED","microrred":"NO PERTENECE A NINGUNA MICRORED","categoria":"ESTABLECIMIENTO DE SALUD SIN INTERNAMIENTO","condicion":"ACTIVO","actualizado":"2023/08/01 19:00:00.000","fuente":"MINSA","urlRenipr":"http://app20.susalud.gob.pe:8080/registro-renipress-webapp/ipress.htm?action=mostrarVer&idipress=00007865"}},{"type":"Feature","geometry":{"type":"Point","coordinates":[-80.45603311999997,-3.564090129999954]},"properties":{"objectid":31050,"nombre":"OPEN MEDIC","departamento":"TUMBES","provincia":"TUMBES","distrito":"TUMBES","institucion":"PRIVADO","codigoMinsa":31074,"direccion":"AVENIDA TUMBES NÚMERO 548 DISTRITO TUMBES PROVINCIA TUMBES DEPARTAMENTO TUMBES","disa":"TUMBES","red":"","microrred":"","categoria":"ESTABLECIMIENTO DE SALUD SIN INTERNAMIENTO","condicion":"ACTIVO","actualizado":"2023/08/01 19:00:00.000","fuente":"MINSA","urlRenipr":"http://app20.susalud.gob.pe:8080/registro-renipress-webapp/ipress.htm?action=mostrarVer&idipress=00031074"}},{"type":"Feature","geometry":{"type":"Point","coordinates":[-80.19982762999996,-3.6824252699999533]},"properties":{"objectid":31273,"nombre":"C.S MATAPALO","departamento":"TUMBES","provincia":"ZARUMILLA","distrito":"MATAPALO","institucion":"GOBIERNO REGIONAL","codigoMinsa":1890,"direccion":"AVENIDA AV. ZARUMILLA S/N MATAPALO S/N AV. ZARUMILLA S/N MATAPALO MATAPALO ZARUMILLA TUMBES","disa":"TUMBES","red":"TUMBES","microrred":"ZARUMILLA","categoria":"ESTABLECIMIENTO DE SALUD SIN INTERNAMIENTO","condicion":"ACTIVO","actualizado":"2023/08/01 19:00:00.000","fuente":"MINSA","urlRenipr":"http://app20.susalud.gob.pe:8080/registro-renipress-webapp/ipress.htm?action=mostrarVer&idipress=00001890"}},{"type":"Feature","geometry":{"type":"Point","coordinates":[-80.42661598999996,-3.6553336999999715]},"properties":{"objectid":31274,"nombre":"CERRO BLANCO","departamento":"TUMBES","provincia":"TUMBES","distrito":"SAN JUAN DE LA VIRGEN","institucion":"GOBIERNO REGIONAL","codigoMinsa":1880,"direccion":"OTROS CERRO BLANCO S/N NÚMERO S/N DISTRITO SAN JUAN DE LA VIRGEN PROVINCIA TUMBES DEPARTAMENTO TUMBES","disa":"TUMBES","red":"TUMBES","microrred":"PAMPA GRANDE","categoria":"ESTABLECIMIENTO DE SALUD SIN INTERNAMIENTO","condicion":"ACTIVO","actualizado":"2023/08/01 19:00:00.000","fuente":"MINSA","urlRenipr":"http://app20.susalud.gob.pe:8080/registro-renipress-webapp/ipress.htm?action=mostrarVer&idipress=00001880"}},{"type":"Feature","geometry":{"type":"Point","coordinates":[-80.26060332999998,-3.4855216699999687]},"properties":{"objectid":31275,"nombre":"CLAS AGUAS VERDES","departamento":"TUMBES","provincia":"ZARUMILLA","distrito":"AGUAS VERDES","institucion":"GOBIERNO REGIONAL","codigoMinsa":1885,"direccion":"AVENIDA AV. REPUBLICA DEL PERU S/N AGUAS VERDES NÚMERO S/N DISTRITO AGUAS VERDES PROVINCIA ZARUMILLA DEPARTAMENTO TUMBES","disa":"TUMBES","red":"TUMBES","microrred":"ZARUMILLA","categoria":"ESTABLECIMIENTO DE SALUD SIN INTERNAMIENTO","condicion":"ACTIVO","actualizado":"2023/08/01 19:00:00.000","fuente":"MINSA","urlRenipr":"http://app20.susalud.gob.pe:8080/registro-renipress-webapp/ipress.htm?action=mostrarVer&idipress=00001885"}},{"type":"Feature","geometry":{"type":"Point","coordinates":[-80.42750693999994,-3.55700515999996]},"properties":{"objectid":31276,"nombre":"CLAS ANDRES ARAUJO MORAN","departamento":"TUMBES","provincia":"TUMBES","distrito":"TUMBES","institucion":"GOBIERNO REGIONAL","codigoMinsa":1884,"direccion":"OTROS URB.LISNHERT TUDELA MZ X LT 01 URB.LISNHERT TUDELA MZ X LT 01 TUMBES TUMBES TUMBES","disa":"TUMBES","red":"TUMBES","microrred":"PAMPA GRANDE","categoria":"ESTABLECIMIENTO DE SALUD SIN INTERNAMIENTO","condicion":"ACTIVO","actualizado":"2023/08/01 19:00:00.000","fuente":"MINSA","urlRenipr":"http://app20.susalud.gob.pe:8080/registro-renipress-webapp/ipress.htm?action=mostrarVer&idipress=00001884"}},{"type":"Feature","geometry":{"type":"Point","coordinates":[-80.67402869999995,-3.8409376799999677]},"properties":{"objectid":31277,"nombre":"TRIGAL","departamento":"TUMBES","provincia":"CONTRALMIRANTE VILLAR","distrito":"CASITAS","institucion":"GOBIERNO REGIONAL","codigoMinsa":1898,"direccion":"OTROS CASERIO TRIGAL S/N NÚMERO S/N DISTRITO CASITAS PROVINCIA CONTRALMIRANTE VILLAR DEPARTAMENTO TUMBES","disa":"TUMBES","red":"TUMBES","microrred":"ZORRITOS","categoria":"ESTABLECIMIENTO DE SALUD SIN INTERNAMIENTO","condicion":"ACTIVO","actualizado":"2023/08/01 19:00:00.000","fuente":"MINSA","urlRenipr":"http://app20.susalud.gob.pe:8080/registro-renipress-webapp/ipress.htm?action=mostrarVer&idipress=00001898"}},{"type":"Feature","geometry":{"type":"Point","coordinates":[-80.45646439999996,-3.5749278999999774]},"properties":{"objectid":31865,"nombre":"CONSULTORIO MEDICO PSICOLOGICO \" EL MADERO NEGRO\"","departamento":"TUMBES","provincia":"TUMBES","distrito":"TUMBES","institucion":"PRIVADO","codigoMinsa":8015,"direccion":"JR MAYNAS N° 350 2DO PISO TUMBES","disa":"","red":"","microrred":"","categoria":"ESTABLECIMIENTO DE SALUD SIN INTERNAMIENTO","condicion":"RUC INACTIVO EN SUNAT","actualizado":"2023/08/01 19:00:00.000","fuente":"MINSA","urlRenipr":"http://app20.susalud.gob.pe:8080/registro-renipress-webapp/ipress.htm?action=mostrarVer&idipress=00008015"}},{"type":"Feature","geometry":{"type":"Point","coordinates":[-80.44709867999995,-3.556503419999956]},"properties":{"objectid":32285,"nombre":"CENTRO MEDICO SAN PEDRO","departamento":"TUMBES","provincia":"TUMBES","distrito":"TUMBES","institucion":"PRIVADO","codigoMinsa":30233,"direccion":"AVENIDA TUMBES NORTE 1377 SALAMANCA NÚMERO 1 PISO 1 DISTRITO TUMBES PROVINCIA TUMBES DEPARTAMENTO TUMBES","disa":"TUMBES","red":"","microrred":"NO PERTENECE A NINGUNA MICRORED","categoria":"ESTABLECIMIENTO DE SALUD SIN INTERNAMIENTO","condicion":"ACTIVO","actualizado":"2023/08/01 19:00:00.000","fuente":"MINSA","urlRenipr":"http://app20.susalud.gob.pe:8080/registro-renipress-webapp/ipress.htm?action=mostrarVer&idipress=00030233"}},{"type":"Feature","geometry":{"type":"Point","coordinates":[-80.45333659999994,-3.560523719999935]},"properties":{"objectid":32770,"nombre":"CENTRO MEDICO GINECÓLOGO \"LOS ÁNGELES\"","departamento":"TUMBES","provincia":"TUMBES","distrito":"TUMBES","institucion":"PRIVADO","codigoMinsa":28488,"direccion":"AVENIDA TUMPIS NÚMERO 105 DISTRITO TUMBES PROVINCIA TUMBES DEPARTAMENTO TUMBES","disa":"TUMBES","red":"NO PERTENECE A NINGUNA RED","microrred":"NO PERTENECE A NINGUNA MICRORED","categoria":"ESTABLECIMIENTO DE SALUD SIN INTERNAMIENTO","condicion":"ACTIVO","actualizado":"2023/08/01 19:00:00.000","fuente":"MINSA","urlRenipr":"http://app20.susalud.gob.pe:8080/registro-renipress-webapp/ipress.htm?action=mostrarVer&idipress=00028488"}},{"type":"Feature","geometry":{"type":"Point","coordinates":[-80.45307910999998,-3.563251609999952]},"properties":{"objectid":32912,"nombre":"CENTRO ODONTOLOGICO CHAVEZ","departamento":"TUMBES","provincia":"TUMBES","distrito":"TUMBES","institucion":"PRIVADO","codigoMinsa":28487,"direccion":"CALLE Jose Olaya NÚMERO 114 PISO 1 DISTRITO TUMBES PROVINCIA TUMBES DEPARTAMENTO TUMBES","disa":"TUMBES","red":"NO PERTENECE A NINGUNA RED","microrred":"NO PERTENECE A NINGUNA MICRORED","categoria":"ESTABLECIMIENTO DE SALUD SIN INTERNAMIENTO","condicion":"ACTIVO","actualizado":"2023/08/01 19:00:00.000","fuente":"MINSA","urlRenipr":"http://app20.susalud.gob.pe:8080/registro-renipress-webapp/ipress.htm?action=mostrarVer&idipress=00028487"}},{"type":"Feature","geometry":{"type":"Point","coordinates":[-80.45564597999999,-3.563538049999977]},"properties":{"objectid":32954,"nombre":"CENTRO MEDICO\"CLINICA DE TUMBES\"","departamento":"TUMBES","provincia":"TUMBES","distrito":"TUMBES","institucion":"PRIVADO","codigoMinsa":29330,"direccion":"AVENIDA TUMBES 584 AL FRENTE DE AGENCIA TEPSA TUMBES TUMBES TUMBES","disa":"TUMBES","red":"","microrred":"NO PERTENECE A NINGUNA MICRORED","categoria":"ESTABLECIMIENTO DE SALUD SIN INTERNAMIENTO","condicion":"ACTIVO","actualizado":"2023/08/01 19:00:00.000","fuente":"MINSA","urlRenipr":"http://app20.susalud.gob.pe:8080/registro-renipress-webapp/ipress.htm?action=mostrarVer&idipress=00029330"}},{"type":"Feature","geometry":{"type":"Point","coordinates":[-80.22664547999995,-3.5054570199999375]},"properties":{"objectid":33373,"nombre":"LOMA SAAVEDRA","departamento":"TUMBES","provincia":"ZARUMILLA","distrito":"AGUAS VERDES","institucion":"GOBIERNO REGIONAL","codigoMinsa":1889,"direccion":"OTROS LOMA SAAVEDRA S/N S/N LOMA SAAVEDRA S/N AGUAS VERDES ZARUMILLA TUMBES","disa":"TUMBES","red":"TUMBES","microrred":"ZARUMILLA","categoria":"ESTABLECIMIENTO DE SALUD SIN INTERNAMIENTO","condicion":"ACTIVO","actualizado":"2023/08/01 19:00:00.000","fuente":"MINSA","urlRenipr":"http://app20.susalud.gob.pe:8080/registro-renipress-webapp/ipress.htm?action=mostrarVer&idipress=00001889"}},{"type":"Feature","geometry":{"type":"Point","coordinates":[-80.21510166999997,-3.5625266699999543]},"properties":{"objectid":33370,"nombre":"LA PALMA","departamento":"TUMBES","provincia":"ZARUMILLA","distrito":"PAPAYAL","institucion":"GOBIERNO REGIONAL","codigoMinsa":1892,"direccion":"CALLE CALLE ABRAM CARRASCO CALLE ABRAM CARRASCO PAPAYAL ZARUMILLA TUMBES","disa":"TUMBES","red":"TUMBES","microrred":"ZARUMILLA","categoria":"ESTABLECIMIENTO DE SALUD SIN INTERNAMIENTO","condicion":"ACTIVO","actualizado":"2023/08/01 19:00:00.000","fuente":"MINSA","urlRenipr":"http://app20.susalud.gob.pe:8080/registro-renipress-webapp/ipress.htm?action=mostrarVer&idipress=00001892"}},{"type":"Feature","geometry":{"type":"Point","coordinates":[-80.66457904999999,-4.017678589999946]},"properties":{"objectid":33371,"nombre":"LA CHOZA","departamento":"TUMBES","provincia":"CONTRALMIRANTE VILLAR","distrito":"CASITAS","institucion":"GOBIERNO REGIONAL","codigoMinsa":1899,"direccion":"OTROS CASERIO LA CHOZA DISTRITO CASITAS PROVINCIA CONTRALMIRANTE VILLAR DEPARTAMENTO TUMBES","disa":"TUMBES","red":"TUMBES","microrred":"ZORRITOS","categoria":"ESTABLECIMIENTO DE SALUD SIN INTERNAMIENTO","condicion":"ACTIVO","actualizado":"2023/08/01 19:00:00.000","fuente":"MINSA","urlRenipr":"http://app20.susalud.gob.pe:8080/registro-renipress-webapp/ipress.htm?action=mostrarVer&idipress=00001899"}},{"type":"Feature","geometry":{"type":"Point","coordinates":[-80.49711036999997,-4.082680179999954]},"properties":{"objectid":33372,"nombre":"CAPITAN HOYLE *","departamento":"TUMBES","provincia":"TUMBES","distrito":"SAN JACINTO","institucion":"GOBIERNO REGIONAL","codigoMinsa":1907,"direccion":"OTROS CASERIO CAPITAN HOYLE N° 37 DISTRITO SAN JACINTO PROVINCIA TUMBES DEPARTAMENTO TUMBES","disa":"TUMBES","red":"TUMBES","microrred":"CORRALES","categoria":"ESTABLECIMIENTO DE SALUD SIN INTERNAMIENTO","condicion":"ACTIVO","actualizado":"2023/08/01 19:00:00.000","fuente":"MINSA","urlRenipr":"http://app20.susalud.gob.pe:8080/registro-renipress-webapp/ipress.htm?action=mostrarVer&idipress=00001907"}}]}